{"type":"FeatureCollection","features":[{"type":"Feature","properties":{"name":"20260428 Cicloturismo","time":"2026-04-28T07:46:45Z"},"geometry":{"type":"LineString","coordinates":[[7.60664666,51.947257,67],[7.60604607,51.94695282,66.46],[7.60601141,51.94696248,66.4],[7.60400361,51.94836689,62.86],[7.60396028,51.94835056,62.86],[7.6032147,51.94779132,62.46],[7.60317404,51.94774532,62.4],[7.60239119,51.94638014,64.46],[7.6023622,51.94634081,64.46],[7.60025284,51.94398847,64.33],[7.60020918,51.94394914,64],[7.59794201,51.94294161,59.46],[7.59788102,51.94290762,59.4],[7.59523686,51.94113382,61],[7.59517186,51.94110116,61],[7.58407234,51.93576966,61.33],[7.58401001,51.935743,61.33],[7.57878573,51.93447271,63],[7.5787324,51.93445505,63],[7.57417341,51.93220773,61.93],[7.57411008,51.9321754,61.93],[7.57129124,51.93152523,65.13],[7.57121158,51.93149424,65.33],[7.56715389,51.92944355,64.33],[7.56708756,51.92941389,64.33],[7.56206735,51.92742632,70],[7.56203969,51.92741766,70],[7.56191042,51.92708906,73.26],[7.56192208,51.9270534,73.33],[7.56293119,51.92548959,70.4],[7.56294852,51.9254576,69.86],[7.56283725,51.92522138,67.26],[7.56281026,51.92520372,67.13],[7.5518146,51.92495027,68.33],[7.55173827,51.92493927,68.4],[7.54341914,51.92039716,66.73],[7.54336681,51.92037017,66.66],[7.54060238,51.91932976,67.33],[7.54055105,51.9193111,67.46],[7.5390159,51.91887825,70.66],[7.53895457,51.91886059,70.8],[7.53301809,51.91795974,72.8],[7.53293243,51.91794275,72.8],[7.52891267,51.91690731,72],[7.52886134,51.91688065,72],[7.52907783,51.91505284,70.73],[7.52908216,51.91500951,71.06],[7.5292748,51.90856837,62.33],[7.52923547,51.90852304,62.33],[7.52521672,51.90828462,64],[7.52514806,51.90825463,64],[7.5241635,51.90728673,63.6],[7.52412684,51.90724074,63.6],[7.52328967,51.90582493,65.86],[7.52323268,51.9058006,65.93],[7.51690775,51.90508967,63],[7.51682042,51.90507801,63],[7.51608414,51.90471906,62.73],[7.51603148,51.90467573,62.73],[7.51271317,51.90126344,69.13],[7.51268318,51.90121445,69.8],[7.51095344,51.89591268,66.66],[7.51092078,51.89587302,67.4],[7.50951893,51.89469849,63.26],[7.5094776,51.89465649,63.06],[7.50558283,51.89025537,64.26],[7.5055295,51.89020738,65.13],[7.5021041,51.88803563,71.86],[7.50206344,51.8879933,71.53],[7.50031259,51.88411434,70.4],[7.5002916,51.88406768,69.4],[7.49983833,51.88343039,65.8],[7.49979667,51.88338806,65.8],[7.49907874,51.88283445,66.66],[7.49901675,51.88280145,66.6],[7.49755352,51.88229757,67],[7.49752553,51.88227391,67.26],[7.49702507,51.88013082,75.6],[7.49699674,51.88007683,75.93],[7.492909,51.87377414,66.19],[7.49289067,51.87372615,65.86],[7.4926678,51.87269692,76.66],[7.49266447,51.87264726,76.93],[7.49267878,51.86951293,68.19],[7.49267312,51.86947093,68.53],[7.49003796,51.86888648,65.66],[7.49003263,51.86888249,65.66],[7.49112888,51.86908208,65.19],[7.49118321,51.86907142,64.46],[7.4913215,51.86839818,62.66],[7.49134016,51.86839285,62.73],[7.49132086,51.86905011,69.73],[7.49135852,51.86908277,69.53],[7.49267508,51.86932903,65.19],[7.49269508,51.86930003,65.13],[7.49255685,51.86755189,60.8],[7.49255019,51.86751923,60.73],[7.4919616,51.86738424,63.26],[7.49195894,51.86734858,63.53],[7.49198221,51.86654138,63.53],[7.49197855,51.86652072,63.4],[7.49230249,51.86631612,62.33],[7.49232148,51.86627512,62.26],[7.49241809,51.86510424,63.33],[7.49241809,51.86505525,63.33],[7.49206519,51.86379206,62.4],[7.4920532,51.86376673,62.13],[7.49220976,51.86317351,63.2],[7.49220776,51.86313485,63.4],[7.49191122,51.86215364,64.73],[7.49190689,51.86211398,64.6],[7.49206581,51.86103711,62],[7.49204882,51.86099011,62],[7.4911966,51.86022455,61.33],[7.49116327,51.86018656,61.26],[7.48931797,51.85781626,62],[7.48929331,51.85778727,62],[7.48943254,51.85697704,62.06],[7.48942854,51.85693638,62.2],[7.48912363,51.85623914,62.2],[7.48910297,51.85621281,62.06],[7.48750513,51.85624874,62],[7.4874658,51.85624441,62],[7.48728059,51.8559342,62.4],[7.48728059,51.85593387,62.4],[7.48695666,51.85629081,62.66],[7.48690133,51.8563078,62.66],[7.48637039,51.85640676,63.06],[7.48634673,51.85640676,63.06],[7.4862124,51.85612646,63.33],[7.48620707,51.85612712,63.4],[7.48473526,51.85665558,61.8],[7.48470493,51.85664392,62],[7.48263196,51.8545289,61],[7.48259497,51.85448857,60.93],[7.48182612,51.8533737,63.73],[7.48180079,51.85334504,63.8],[7.48109453,51.85325871,61.53],[7.48104554,51.85323405,61.6],[7.480404,51.85237617,61.2],[7.48036067,51.85234584,61.13],[7.47884478,51.85178229,60.53],[7.47877645,51.85176263,60.2],[7.47801215,51.85169134,58.6],[7.47794215,51.851695,58.53],[7.4760663,51.8520422,72.8],[7.47600664,51.85204953,73.73],[7.47394747,51.85212401,70.93],[7.47388681,51.85212268,71.33],[7.47336358,51.85126548,69.06],[7.47330992,51.85124815,68.53],[7.4709888,51.85122514,74.8],[7.47093047,51.85122714,74.53],[7.47017257,51.85142806,70.46],[7.47014591,51.8514204,70.33],[7.46595347,51.84812525,63.8],[7.46589881,51.84809259,63.6],[7.46475093,51.84749172,57.86],[7.4647066,51.84747539,57.8],[7.46186461,51.84674506,61],[7.46183761,51.84672673,61],[7.46272911,51.84546662,65.06],[7.46271145,51.84545196,65.26],[7.4622122,51.84589356,68.93],[7.46217954,51.84591522,69.73],[7.46180958,51.84589356,72.46],[7.46173392,51.84587023,72.6],[7.44920842,51.8418054,60.26],[7.44912509,51.84177607,60],[7.44288085,51.83920285,59.53],[7.44281385,51.83917085,59.4],[7.43756758,51.83635061,59.8],[7.43750225,51.83631095,59.8],[7.43205768,51.83253868,65.93],[7.43200235,51.83249735,65.86],[7.4286881,51.82963979,60.26],[7.42865077,51.82960413,60.33],[7.42516632,51.82559738,58],[7.42513332,51.82555905,57.86],[7.42518698,51.82533675,56.33],[7.42524631,51.82531609,56.26],[7.42658557,51.82493985,60.53],[7.42666423,51.82492452,61.13],[7.42729317,51.82494684,69.6],[7.42734316,51.82497084,70.66],[7.42775236,51.82595608,61.8],[7.42777802,51.82600207,60.53],[7.4283456,51.82674233,57.4],[7.4283806,51.82678399,57.6],[7.42917049,51.82754856,62.86],[7.42920482,51.82757522,63],[7.42994372,51.82798112,61.46],[7.42998138,51.82797512,61.53],[7.44027117,51.8209774,55.6],[7.4403135,51.82094307,55.66],[7.4411054,51.81997087,58.73],[7.4411274,51.81992721,58.46],[7.44666309,51.80781406,61.2],[7.44668442,51.8077784,60.86],[7.44739764,51.80698519,55],[7.4474393,51.80695453,54.86],[7.4496314,51.80562208,57],[7.44966939,51.80559142,57],[7.45028394,51.80482388,54.6],[7.45030227,51.80478389,54.6],[7.45025395,51.80358971,55.73],[7.45022896,51.80353905,55.93],[7.44848956,51.8011263,54.8],[7.44845656,51.8010763,54.93],[7.44763038,51.79950978,61.6],[7.44760772,51.79945445,62.13],[7.44727351,51.79829856,60.4],[7.44726485,51.7982509,60.13],[7.44713667,51.79671476,50.66],[7.447138,51.79666677,50.73],[7.44745677,51.79458899,52.8],[7.44746743,51.79453833,52.66],[7.44819574,51.79202073,53.2],[7.44820207,51.79198207,53.26],[7.44821143,51.78981966,52],[7.44822543,51.789772,51.86],[7.44887661,51.7884398,54.53],[7.44891327,51.78841347,54.46],[7.44982048,51.78911201,55.26],[7.44982348,51.789117,55.2],[7.44893837,51.78822418,55.53],[7.44894436,51.78819352,55.53],[7.45139996,51.78310497,54.4],[7.45140096,51.78306897,54.46],[7.44985178,51.78232611,54.73],[7.44980212,51.78229445,54.66],[7.44854393,51.78121561,56.53],[7.44854293,51.78121428,56.66],[7.45604469,51.77511218,55],[7.45608502,51.77507919,54.93],[7.45705221,51.77398334,53.53],[7.4570682,51.77394134,53.53],[7.45718537,51.77148299,55.8],[7.45719103,51.77143933,55.8],[7.45766614,51.76992718,55],[7.45767147,51.76989452,55],[7.45782456,51.76696736,54.66],[7.45782922,51.76694737,54.6],[7.45935899,51.76660582,54],[7.45936098,51.76658516,54.13],[7.45911634,51.76648786,54.73],[7.459126,51.76648253,54.8],[7.45929167,51.76674519,54.86],[7.45926001,51.76676685,54.73],[7.4584178,51.76690049,54.66],[7.45836781,51.76690182,54.73],[7.45787251,51.76687953,55.33],[7.45783785,51.76686487,55.4],[7.45766622,51.76660324,55.73],[7.45764289,51.76655824,55.66],[7.45665124,51.76378287,54.53],[7.45664258,51.76373754,54.4],[7.45654698,51.76056722,52.13],[7.45655064,51.76052389,52],[7.45672459,51.76005628,51.2],[7.45675459,51.76001895,51.13],[7.45747218,51.75964436,50.2],[7.45749584,51.75960003,50.2],[7.45731619,51.75896844,50.26],[7.45732419,51.75892111,50.26],[7.45827091,51.75687229,50.66],[7.4582869,51.7568183,50.66],[7.45861005,51.75511811,50.33],[7.45861504,51.75507512,50.26],[7.45870747,51.75231269,49.06],[7.45871147,51.75226803,49.13],[7.45892643,51.75197608,49.73],[7.45893409,51.75194009,49.8],[7.45876614,51.75160146,50],[7.45876314,51.7515518,50],[7.45892436,51.75028961,50.53],[7.45893602,51.75023228,50.6],[7.45928296,51.74949235,50.4],[7.45932195,51.74943769,50.4],[7.46037289,51.74836047,49.6],[7.46041588,51.74830881,49.53],[7.46074584,51.7477052,48.8],[7.4607675,51.7476502,48.73],[7.46059389,51.7448015,50.66],[7.46059655,51.7447635,50.6],[7.46104413,51.74452189,51],[7.46104413,51.74450456,51.13],[7.45705815,51.74480796,53.53],[7.45700882,51.74478997,53.53],[7.45568601,51.74341117,54.73],[7.45565435,51.74337051,54.66],[7.45539478,51.74255294,52.4],[7.45536645,51.74250428,52.13],[7.45453454,51.7415594,56],[7.45447255,51.74154241,55.93],[7.44931493,51.74179743,53.53],[7.4492736,51.7417791,53.6],[7.4488438,51.73977966,51.33],[7.44883714,51.739731,51.4],[7.44890778,51.73804182,57.8],[7.44890844,51.73799582,57.33],[7.4487125,51.7374292,53],[7.44868084,51.73738621,52.46],[7.4471553,51.736572,52.73],[7.44711131,51.73654267,52.6],[7.44179762,51.73223393,50.33],[7.44174362,51.7321926,50.33],[7.43818128,51.72975858,55.73],[7.43813462,51.72971758,55.33],[7.43801996,51.72944062,53.6],[7.43803029,51.72939296,53.33],[7.43856246,51.72776683,51.8],[7.43856579,51.7277195,51.8],[7.43837701,51.72619034,51.26],[7.43836201,51.72614768,51.4],[7.43569594,51.72444861,52],[7.43563628,51.72441128,52],[7.43510964,51.72433897,51.53],[7.43503565,51.72435963,51.46],[7.43277086,51.72534778,53],[7.43270187,51.72534145,53],[7.4284529,51.72396019,59.33],[7.4283999,51.72394619,59.4],[7.42486155,51.72341003,61.2],[7.42481055,51.72336704,61.06],[7.42235852,51.72088161,59.26],[7.42231952,51.72083661,59.6],[7.41972787,51.71745265,61.33],[7.41969388,51.71740365,61.4],[7.40152889,51.68896233,56.33],[7.40149856,51.688916,57.66],[7.39792543,51.68426285,56.53],[7.39788677,51.68421819,56.73],[7.39293852,51.67898126,64.26],[7.39290419,51.6789466,64.19],[7.39095206,51.67723084,63.93],[7.3908884,51.67718185,63.6],[7.38318877,51.67211759,58.93],[7.38318777,51.67208593,59.06],[7.37638309,51.66816021,58.26],[7.37637076,51.66815588,58],[7.37560487,51.66712298,50.46],[7.37556054,51.66705699,50.26],[7.37511858,51.66678369,49.6],[7.37506525,51.6667327,49.4],[7.37489428,51.6664064,48.2],[7.37488429,51.66635307,48.06],[7.3748653,51.66516553,50.73],[7.37486364,51.66512187,50.8],[7.37523385,51.66397201,51.46],[7.37521486,51.66393435,51.53],[7.37303846,51.66265061,56.33],[7.37301013,51.66263295,56.66],[7.3727862,51.66221768,55.2],[7.37278087,51.66218602,55],[7.37288982,51.66169411,52.06],[7.37291248,51.66166078,51.86],[7.37415331,51.66044029,55.66],[7.37417297,51.66039829,55.2],[7.37393638,51.65967039,55.4],[7.37390572,51.65963706,55.6],[7.37135076,51.65797739,59.13],[7.37131043,51.65796406,59.06],[7.36613921,51.65726545,66.53],[7.36607688,51.65725845,66.8],[7.36216224,51.65724209,66.66],[7.36210491,51.6572411,66.8],[7.36122399,51.65701052,69.26],[7.36118133,51.65698486,69],[7.3602481,51.65621463,65],[7.36022977,51.6561913,64.8],[7.36058071,51.65601001,61.2],[7.36061604,51.65597535,60.93],[7.36059971,51.65578638,59.86],[7.36057071,51.65575838,59.86],[7.35481621,51.65048886,61.4],[7.35477688,51.65045353,61.46],[7.35320208,51.64928672,60.6],[7.35317075,51.64925906,60.4],[7.34573109,51.6422217,68],[7.34569909,51.64219171,68.19],[7.34468921,51.6413235,63.93],[7.34465122,51.64130351,63.73],[7.34387164,51.64140811,64.19],[7.34382631,51.64141011,64.33],[7.34359202,51.64126384,65.4],[7.34357102,51.64124218,65.46],[7.34306621,51.64025244,66.6],[7.34308187,51.64023044,66.6],[7.34482124,51.63906604,66.53],[7.34485057,51.63904404,66.6],[7.34626041,51.63769154,61.13],[7.34631941,51.63763355,61],[7.34778789,51.63555706,58.93],[7.34781455,51.63550807,59],[7.35112798,51.62697537,72],[7.35115397,51.62694104,72.06],[7.35250112,51.62584319,81.66],[7.35255712,51.6258122,82.33],[7.3553986,51.62469369,86.93],[7.3554826,51.62465603,86.73],[7.35659951,51.62396875,86.6],[7.35665751,51.62392242,86.33],[7.36218408,51.61782183,79.66],[7.36215375,51.61779584,79.93],[7.35802145,51.61696781,82.86],[7.35794779,51.61695748,82.66],[7.35264218,51.61646686,74.33],[7.35263652,51.61646719,74.33],[7.35274619,51.61589829,76.4],[7.35273953,51.6158593,76.4],[7.3522698,51.61422986,74],[7.35225881,51.61420053,74],[7.35207549,51.61409757,74],[7.35203516,51.61409491,74],[7.34980937,51.61435935,73.4],[7.34980871,51.61435935,73.19],[7.35216182,51.61421889,77.26],[7.35218548,51.61421789,77.66],[7.3378068,51.61504479,72],[7.33776347,51.61504645,72],[7.33275525,51.61566,71.19],[7.33271659,51.61566466,71.19],[7.33294588,51.6155187,70.8],[7.33292255,51.6155147,70.73],[7.33189863,51.61555597,69.6],[7.33184597,51.61555896,69.46],[7.32806732,51.61598203,67.33],[7.32800499,51.61598602,67.33],[7.32667111,51.61571543,65.73],[7.32660978,51.6157131,65.86],[7.32620351,51.61623236,69.4],[7.32616352,51.61624802,69.4],[7.32475598,51.61595745,66.4],[7.32469999,51.61596178,66.33],[7.32429341,51.61642472,65.33],[7.32424875,51.61644405,65.26],[7.32317352,51.61660795,63.13],[7.32311753,51.61661261,63.2],[7.32117538,51.61627739,64.4],[7.32111839,51.61625806,64.46],[7.32090644,51.61576246,64.73],[7.32091477,51.61576745,64.73],[7.3208148,51.61589242,65],[7.32076814,51.61588142,65.06],[7.32031484,51.61562079,64.93],[7.32025151,51.61556779,64.93],[7.31724696,51.61254649,64.6],[7.31721563,51.61251849,64.6],[7.31246683,51.60856477,62.53],[7.31242417,51.60852711,62.53],[7.30591002,51.6024657,68.19],[7.30586636,51.60242604,67.66],[7.30201571,51.59932076,59.93],[7.30196572,51.59927476,59.53],[7.30050321,51.59769561,57.66],[7.30047155,51.59765628,57.53],[7.30096813,51.59705107,58.4],[7.30097346,51.59701841,58.46],[7.29999864,51.59602258,60.13],[7.29996964,51.59599925,60.33],[7.29933006,51.59573768,64.73],[7.29928773,51.59573102,64.6],[7.29847552,51.59577634,60.86],[7.29843186,51.59578767,61.06],[7.29792059,51.59603862,64.8],[7.29787693,51.59607495,64.86],[7.29749999,51.59659756,61.4],[7.29743266,51.59664955,60.73],[7.29681103,51.59683519,58.8],[7.29668303,51.59683818,58.8],[7.29272389,51.59590136,59.33],[7.2926479,51.59586003,59.26],[7.29169497,51.59522945,59.46],[7.29166031,51.59518545,59.6],[7.29147236,51.59418323,59.73],[7.29143136,51.5941389,59.8],[7.29042446,51.59358333,58.33],[7.2903868,51.59354934,58.2],[7.28997587,51.59279976,57.53],[7.28992654,51.59274976,57.6],[7.2889716,51.59214952,58.13],[7.2889266,51.59210919,58],[7.28723247,51.59006543,56.86],[7.28719714,51.5900221,57],[7.28680919,51.58992577,55.6],[7.28679919,51.58992544,55.33],[7.28699217,51.58987846,53.73],[7.28700416,51.58986647,53.66],[7.28687519,51.5897045,53.8],[7.28684753,51.58967551,53.8],[7.28434122,51.58745721,54.2],[7.28429723,51.58743188,54],[7.28279938,51.58680398,55.06],[7.28273405,51.58678332,55],[7.26654555,51.58190785,54.26],[7.26647589,51.58189552,54.2],[7.26440707,51.58193281,54.2],[7.26437674,51.58193847,54.13],[7.26207827,51.58278627,52.66],[7.26201961,51.58280527,52.66],[7.2605994,51.58310047,52.73],[7.26053574,51.58310713,52.66],[7.25884119,51.58312012,54],[7.25877586,51.58311479,54.2],[7.25712899,51.58278624,54.2],[7.25706933,51.58276725,54.33],[7.25583614,51.58219506,52.8],[7.25578881,51.58216706,52.73],[7.25495858,51.58151118,53.8],[7.25492858,51.58147885,53.93],[7.25333524,51.57891584,55.6],[7.25331491,51.57888118,55.66],[7.25321496,51.57837622,54.93],[7.25318997,51.57832622,54.6],[7.25229311,51.57722003,49.86],[7.25225212,51.5771777,50],[7.2513492,51.57648848,48.93],[7.25129321,51.57645615,48.93],[7.24312847,51.57371505,49.46],[7.24304914,51.57368972,49.53],[7.23981371,51.57285626,51],[7.23978505,51.5728386,51.06],[7.2402859,51.57160013,52],[7.24031489,51.5715668,52],[7.24126004,51.57061638,52.86],[7.24127537,51.57060405,52.8],[7.24178126,51.57075729,52.73],[7.24178459,51.57075862,52.53],[7.24152796,51.57059565,51.8],[7.24150996,51.57057365,51.66],[7.24157294,51.57035704,51.93],[7.24157228,51.57035271,52.13],[7.2426898,51.56963519,54.26],[7.24269446,51.56960919,54.2],[7.2406161,51.56832379,63.46],[7.24060644,51.56829346,63.8],[7.2425935,51.56634909,58.33],[7.2426205,51.5663181,58.66],[7.24288539,51.56560055,62.46],[7.24288772,51.56557822,62.4],[7.2426721,51.56531263,61.2],[7.24262644,51.56530497,61.06],[7.24080995,51.56526301,58.4],[7.24078195,51.56524068,58.4],[7.24084779,51.56374394,55.4],[7.24081413,51.56372695,55.06],[7.23208094,51.56312644,52.4],[7.23200761,51.56311411,52],[7.22382155,51.56147921,52.2],[7.22375389,51.56146288,52.06],[7.22276467,51.56111766,51.86],[7.22273201,51.56110133,51.93],[7.22113294,51.56013789,52],[7.22108295,51.56012189,52],[7.21454578,51.55862016,55.86],[7.21449745,51.55860983,55.73],[7.20907891,51.55860896,57.06],[7.20900691,51.55859496,57.2],[7.20061194,51.55648607,50],[7.20056295,51.55646974,50.06],[7.20039132,51.55633544,50.53],[7.20038066,51.55629911,50.66],[7.20042262,51.55557387,53.33],[7.20037596,51.55556021,53.26],[7.19739357,51.55570118,58.4],[7.19735957,51.55569485,58.2],[7.19823275,51.55563863,53.53],[7.19824341,51.55563463,53.46],[7.19781383,51.55544472,53.2],[7.1978055,51.55544072,53.26],[7.20038787,51.55555061,53.13],[7.2004232,51.55555561,52.93],[7.20050054,51.55644514,49.66],[7.20054687,51.5564678,49.6],[7.20584404,51.557784,52.8],[7.20588803,51.55778201,52.6],[7.20641124,51.5570358,51.46],[7.20642757,51.55700481,51.4],[7.20632157,51.5565999,51.2],[7.20633756,51.55656591,51.2],[7.20731599,51.55517151,52],[7.20733365,51.55514351,52],[7.20679845,51.554228,51.26],[7.20676512,51.55420567,51.33],[7.20146992,51.55426849,53.33],[7.20142559,51.55426849,53.33],[7.20000739,51.55405095,53],[7.19994339,51.55403396,52.86],[7.19888015,51.55359974,52.53],[7.19883182,51.55357174,52.6],[7.19669604,51.55209728,49.46],[7.19659138,51.55204462,49.2],[7.19358551,51.55091478,50.46],[7.19348785,51.55088045,50.53],[7.19243058,51.55056918,49.8],[7.19232758,51.55055652,49.53],[7.19095731,51.55072812,50.06],[7.19086898,51.55073178,50.33],[7.19013567,51.55061082,54.06],[7.19004734,51.55057549,54],[7.18591996,51.54780244,47.86],[7.18583263,51.54776644,47.86],[7.18313614,51.54730728,49.46],[7.18306514,51.54729095,49.4],[7.18168993,51.54679641,49.26],[7.18164294,51.54678642,49.2],[7.18144497,51.54679941,48.73],[7.18142364,51.5468214,48.6],[7.18118037,51.54741265,47.4],[7.18114971,51.54744998,47.46],[7.17914642,51.5495599,52.53],[7.17912609,51.54958423,52.46],[7.17845428,51.55069872,50.06],[7.17842762,51.55073405,49.6],[7.17782437,51.55117863,46.93],[7.17777904,51.55118663,46.86],[7.17763876,51.55096366,48.46],[7.17764242,51.55094033,48.86],[7.17829829,51.55024414,50.93],[7.17827996,51.55021614,50.53],[7.17661148,51.54977667,51.73],[7.17655215,51.54976501,51.33],[7.17174887,51.54919642,48.13],[7.17168187,51.54919009,48.33],[7.16896177,51.54922136,46.6],[7.16890311,51.54921803,46.53],[7.16115846,51.54850658,46.26],[7.1611578,51.54851124,46.33],[7.16897911,51.54919666,47.53],[7.16904744,51.54920166,47.53],[7.17158292,51.54916706,48],[7.17164892,51.54917072,48.06],[7.17596919,51.54966399,52.06],[7.17601118,51.54966998,52.46],[7.1782002,51.55018567,53.53],[7.17823186,51.55020467,53.53],[7.17766992,51.55094123,48.53],[7.17768125,51.55095289,48.93],[7.1783778,51.55019867,53.46],[7.17840946,51.55018401,53.2],[7.17880809,51.55026732,53.6],[7.17882375,51.55027931,53.8],[7.1786268,51.55057624,55],[7.17860447,51.55059923,55],[7.17911564,51.54957841,51.46],[7.1791363,51.54955208,51.33],[7.18128661,51.54725007,48.86],[7.1813056,51.54721507,49],[7.18142718,51.54677948,48.93],[7.18142652,51.54675915,48.86],[7.18084771,51.54547765,48.53],[7.18083538,51.54544432,48.53],[7.18085136,51.54498142,48.4],[7.18085103,51.54497509,48.4],[7.17592811,51.54547731,48.13],[7.17589912,51.54548197,47.93],[7.17416425,51.54545437,43.46],[7.17407092,51.54545037,43.46],[7.16584145,51.54450896,42.86],[7.16577212,51.54450196,43],[7.16429891,51.54450227,42.53],[7.16424525,51.54449661,42.53],[7.16319738,51.54417475,44],[7.16314705,51.54416242,44],[7.15848642,51.54472705,46.33],[7.15843209,51.54473138,46.4],[7.14967137,51.54522803,44.2],[7.14965238,51.54522704,44.4],[7.14923994,51.54666646,45.13],[7.14923494,51.54667412,45],[7.14433737,51.54597182,40.13],[7.14426071,51.54596349,40.26],[7.139046,51.54560543,39],[7.13896501,51.54560809,39],[7.13597287,51.54589026,40.26],[7.13589921,51.54589892,40.33],[7.12820772,51.54720941,42.53],[7.12813772,51.5472204,42.46],[7.12502459,51.54757086,43.13],[7.12496193,51.54757719,43.53],[7.11560074,51.54778286,44.13],[7.11553341,51.54778419,44.26],[7.11332524,51.54760969,45],[7.11329191,51.54759103,44.6],[7.11307928,51.54718709,41.53],[7.11309161,51.54715143,41.4],[7.11367751,51.54671553,40.59],[7.11364251,51.54669687,40.59],[7.11240631,51.54710339,40.33],[7.11233331,51.54710605,40.2],[7.10550082,51.54713404,45.86],[7.10544483,51.54713703,46.2],[7.10305004,51.54695859,41.73],[7.10300605,51.54695593,41.66],[7.09976267,51.54648885,42.26],[7.09970301,51.54647619,42.2],[7.09708065,51.54567777,40.59],[7.09708598,51.5456781,40.59],[7.0906052,51.54460255,48.13],[7.09053554,51.54458922,48],[7.08422183,51.54313651,43.73],[7.08415717,51.54311985,43.33],[7.07736918,51.54046486,48.06],[7.07731452,51.54044187,48.26],[7.07142048,51.53724309,46],[7.07137282,51.5372171,46.13],[7.07086792,51.53662119,50.4],[7.07082993,51.53659053,50.6],[7.06868854,51.53521249,45.33],[7.06865055,51.53519216,45.46],[7.06183479,51.53238776,46.13],[7.06176846,51.5323571,46.46],[7.05976995,51.53113958,41.66],[7.05970229,51.53110459,41.86],[7.05712481,51.53004546,39.26],[7.05707182,51.5300218,39.26],[7.05651456,51.5294892,38],[7.05645123,51.52945654,37.8],[7.05587796,51.52967651,38.59],[7.0558213,51.52969317,38.93],[7.055225,51.52961254,42.06],[7.05512767,51.52958388,42.2],[7.05243516,51.52849906,43.13],[7.05234683,51.5284684,43.26],[7.04879902,51.52746126,42.33],[7.04873136,51.5274386,42.4],[7.04132357,51.52445489,42.13],[7.04124491,51.52442956,42.46],[7.03653074,51.52226204,38.33],[7.03648675,51.52224205,38.2],[7.0266714,51.51836834,35],[7.02664307,51.51835701,35],[7.02679268,51.51838099,35],[7.02680101,51.51837266,35],[7.02667807,51.51803345,35.33],[7.0266984,51.51803745,35.4],[7.02677606,51.51815778,35.46],[7.02658076,51.51822209,36.4],[7.02654043,51.51821343,36.66],[7.02582586,51.51781454,39.06],[7.0257922,51.51779088,39.13],[7.02472238,51.51662178,37],[7.02468172,51.51660879,37],[7.02368821,51.51708698,38],[7.02367921,51.51708964,37.93],[7.02392913,51.51683572,36.8],[7.02392647,51.51680573,36.73],[7.02354186,51.51655579,36.8],[7.0234892,51.51653746,37],[7.01839133,51.51519228,41.73],[7.01832633,51.51517595,41.6],[7.01489722,51.5145865,41.8],[7.01483022,51.51456984,41.8],[7.01357735,51.51388262,40.06],[7.01353702,51.51386962,39.73],[7.01316372,51.5139526,39],[7.01310839,51.51394394,39.13],[7.0073475,51.51287703,39.93],[7.0073065,51.5128707,40.06],[7.00702743,51.51481473,34.13],[7.00705743,51.51484606,34.06],[7.01001953,51.51556452,35.2],[7.01008053,51.51557785,35.26],[7.01112241,51.51568044,38],[7.01116107,51.51567811,38],[7.01180623,51.51541091,35],[7.01181523,51.51540958,34.93],[7.01015505,51.515264,34.73],[7.01006772,51.51524834,34.59],[7.00190227,51.51356589,31.73],[7.00186561,51.51355556,31.8],[7.00119007,51.513289,32.33],[7.00118641,51.51328667,32.33],[7.00215329,51.51338793,32.46],[7.00217895,51.51338494,32.53],[7.00214398,51.51277974,33.66],[7.00210599,51.51276608,33.59],[6.99979816,51.51233822,31],[6.99966916,51.51232589,30.86],[6.99462711,51.51219213,30.26],[6.99455812,51.51218047,30.26],[6.99264133,51.51159498,37.06],[6.99262067,51.51158599,37],[6.99247671,51.5111844,38.13],[6.99244072,51.51114707,38.06],[6.99187577,51.51088813,36.2],[6.99179144,51.51087814,36],[6.99115716,51.5109008,35.8],[6.9911135,51.51091046,35.93],[6.99027992,51.51134302,38.86],[6.99022526,51.51135501,38.86],[6.98960033,51.51133571,38],[6.98954,51.51132538,38.13],[6.97535812,51.50725685,37],[6.97531279,51.50724619,37],[6.97530772,51.5079644,36.26],[6.97530306,51.5079914,36],[6.97494385,51.50882788,38.66],[6.97492685,51.50884954,39.33],[6.97443659,51.50914279,48.8],[6.97439126,51.50914812,48.86],[6.97390936,51.50892821,46.93],[6.97391669,51.50890555,46.8],[6.97412265,51.50888591,47.26],[6.97415131,51.50890557,47.33],[6.97439758,51.50925251,47.2],[6.97440424,51.5092815,47],[6.97407235,51.50991139,52.26],[6.97403702,51.50993272,53],[6.9718543,51.50926697,56.66],[6.97182664,51.50924698,56.6],[6.97221853,51.50865409,48.2],[6.97222919,51.50862576,48],[6.97211687,51.50845245,48.73],[6.97207321,51.50843512,49],[6.97114232,51.50822488,41.2],[6.97108866,51.50821822,41.26],[6.96872224,51.50815167,35.26],[6.96868125,51.50815433,35.33],[6.96375708,51.50859561,38.4],[6.96370842,51.50861294,38.46],[6.96310759,51.51015535,37.66],[6.96309226,51.51018768,37.66],[6.96260905,51.51082553,42.8],[6.96255972,51.51083053,42.53],[6.96182145,51.51061125,37.66],[6.96181112,51.51057525,37.73],[6.96231099,51.50961972,38.46],[6.96232032,51.50958639,38.53],[6.96220469,51.5090035,37.13],[6.96216469,51.50899617,37.06],[6.95591825,51.50933962,34.73],[6.95587892,51.50933962,34.8],[6.95078136,51.50928517,34.73],[6.95071536,51.50928151,34.73],[6.94788957,51.50889039,36.59],[6.94781924,51.50887473,36.46],[6.94563014,51.50793732,40.73],[6.94560981,51.50791832,40.86],[6.94650902,51.50685744,38.4],[6.94654268,51.50680045,38.26],[6.9470442,51.50545796,37],[6.94704387,51.5054183,36.86],[6.94446802,51.50294007,38.06],[6.94446769,51.50293341,38.13],[6.94751533,51.50157041,38.33],[6.94756066,51.50155208,38.26],[6.94820394,51.50155642,38.59],[6.9482506,51.50153442,38.8],[6.94867921,51.50111914,37.93],[6.9487042,51.50107648,37.86],[6.94878649,51.5005452,36.8],[6.94874416,51.50052154,36.73],[6.94534476,51.49946316,41.06],[6.94529443,51.49944716,40.93],[6.94250233,51.49889832,34.33],[6.94243434,51.49888566,34.26],[6.93548825,51.4981498,37.8],[6.93544426,51.49814681,38],[6.93448641,51.49818653,37.33],[6.93445775,51.49819519,37.66],[6.93407653,51.49863275,44.66],[6.93406454,51.49864441,44.73],[6.93416785,51.4988054,48.73],[6.93413585,51.49882806,49.13],[6.93219605,51.4994909,59.26],[6.93215572,51.49951456,59.33],[6.93211106,51.49970554,59.46],[6.93213072,51.4997372,59.53],[6.9326899,51.50031774,60.33],[6.93262757,51.50030341,60.2],[6.93210267,51.4995342,59.66],[6.93213633,51.49950254,59.66],[6.93316091,51.49926228,53.66],[6.9332099,51.49924695,53.13],[6.93422643,51.49868109,45.73],[6.93425976,51.49866543,45.8],[6.93545561,51.49860649,39.66],[6.93546861,51.4985865,39.33],[6.9347691,51.49555938,40.4],[6.93474244,51.49553305,40.4],[6.93312325,51.49487689,40.33],[6.93307392,51.4948599,40.53],[6.92300779,51.4917927,42.2],[6.9229538,51.49177704,41.93],[6.9219626,51.49238791,42.2],[6.9219046,51.4923909,42.26],[6.91924216,51.49178678,41.93],[6.9191725,51.49177478,41.73],[6.91768293,51.4917038,38.53],[6.9176276,51.49168647,38.4],[6.91756754,51.49069328,39.33],[6.91752155,51.49067095,39.4],[6.91346422,51.48988193,43.06],[6.91342756,51.48986193,42.93],[6.91356841,51.48873679,41.26],[6.91356841,51.48871513,41.46],[6.91333388,51.48803592,44.06],[6.91328922,51.48801659,44],[6.90521584,51.48772597,38.73],[6.90515118,51.48772498,38.73],[6.90170675,51.48803445,39.26],[6.90164042,51.48802379,39.13],[6.9005969,51.48693162,43.33],[6.90054324,51.48690029,43.4],[6.89862438,51.48644744,39.2],[6.89856572,51.48643078,39.33],[6.89792946,51.48593888,39.33],[6.89788313,51.48591988,39.26],[6.89482981,51.48557085,39.2],[6.89479315,51.48556852,39.26],[6.89470184,51.48586245,39.8],[6.89468585,51.48585612,39.8],[6.89436479,51.48455335,48.33],[6.89434313,51.48451636,48.06],[6.89346756,51.48386847,48.6],[6.89341423,51.48384548,48.66],[6.88890696,51.48307559,47.2],[6.8888153,51.4830516,47],[6.88656482,51.48198413,47.46],[6.88649882,51.4819648,47.26],[6.88325676,51.48289492,51.73],[6.8832041,51.48289892,52.26],[6.88054966,51.48127612,48.13],[6.880486,51.48125813,47.66],[6.87633962,51.48128301,48.93],[6.87628929,51.48126302,49],[6.87501178,51.48065752,47],[6.87500312,51.48065586,46.8],[6.8786041,51.47917188,46.6],[6.87864676,51.47914822,46.6],[6.87858981,51.47844029,45.93],[6.87859414,51.47840263,45.73],[6.87882575,51.47798036,45.93],[6.87882974,51.4779367,46.13],[6.87840417,51.47701412,46.66],[6.87839018,51.47697046,46.8],[6.87859682,51.47672516,48],[6.87859116,51.47669117,48.33],[6.87764432,51.47530498,50.8],[6.87762799,51.47527432,50.73],[6.8773487,51.47517703,50.4],[6.87734704,51.47516037,50.46],[6.87814823,51.47408483,48.53],[6.87817989,51.47402583,48.4],[6.87850211,51.4728156,46.06],[6.87851011,51.47276027,46.26],[6.87827289,51.47162741,49.13],[6.87824923,51.47158808,49.13],[6.87741632,51.47133348,46.86],[6.87740732,51.47129315,46.86],[6.87811679,51.46900605,48.46],[6.87811113,51.46895205,48.53],[6.87725372,51.4669453,48.6],[6.87725206,51.46694364,48.6],[6.8773697,51.46675535,48.33],[6.87735471,51.46672235,48.26],[6.87639151,51.46565887,47.86],[6.87638585,51.46563387,47.86],[6.8772541,51.46519163,47.8],[6.87729743,51.46516497,47.93],[6.87690882,51.46468137,47.66],[6.87691415,51.46465337,47.6],[6.87777197,51.46421888,49.13],[6.87777131,51.46420589,49.13],[6.87654632,51.46184254,44.8],[6.87649966,51.46177755,44.73],[6.87488246,51.46074132,45.33],[6.8748248,51.46069366,45.46],[6.87417487,51.45983539,47.66],[6.87419487,51.45978606,47.8],[6.8776666,51.4580984,45.46],[6.87773159,51.45806074,45.26],[6.88028035,51.45625199,47.66],[6.88030335,51.45623033,47.73],[6.88006707,51.45551407,48.6],[6.88006674,51.45547141,48.73],[6.88016486,51.4531034,52.8],[6.88016719,51.45306541,52.93],[6.88039507,51.45216854,54.2],[6.88040973,51.45212654,54.33],[6.88084933,51.45156229,53.13],[6.88088499,51.45153063,53.13],[6.88349532,51.44950294,53.73],[6.88351065,51.44947661,53.66],[6.88394907,51.44692623,54.33],[6.8839594,51.44688123,54.4],[6.8844449,51.44545141,50.2],[6.88446889,51.44540375,50.06],[6.88578131,51.44343094,49.66],[6.88581331,51.44338694,49.73],[6.88823428,51.44035834,49.33],[6.88825227,51.44031301,49.46],[6.88826131,51.43900718,49.86],[6.88826597,51.43896918,49.8],[6.88878009,51.43748747,51],[6.88878442,51.43748247,51],[6.88862582,51.43674588,47.8],[6.88862516,51.43670122,47.6],[6.88884306,51.43591836,51.86],[6.88885872,51.43589736,51.93],[6.89577042,51.43572337,61.53],[6.89580475,51.43571704,61.6],[6.89605536,51.43557807,62.2],[6.89607269,51.43555374,62.66],[6.89619655,51.43474457,66.73],[6.89620388,51.43471891,66.46],[6.8967926,51.43354583,64.6],[6.8968206,51.43351983,64.53],[6.89742919,51.43316823,69],[6.89746052,51.4331659,69],[6.89861666,51.43360176,69]]}}]}