{"type":"FeatureCollection","features":[{"type":"Feature","properties":{"name":"20260417 Cicloturismo","time":"2026-04-17T07:28:05Z"},"geometry":{"type":"LineString","coordinates":[[12.61048466,56.81678766,1.2],[12.61137023,56.8167377,2.73],[12.61141523,56.81674303,2.8],[12.61306938,56.8172382,3.26],[12.61310737,56.81725353,3.26],[12.61832685,56.82013262,17],[12.61837018,56.82013695,17.13],[12.6266581,56.81790739,20.46],[12.6266781,56.81787406,20.6],[12.62605459,56.81641989,20.26],[12.62605525,56.81637256,20.2],[12.62628213,56.81523237,19.79],[12.62630112,56.81518804,19.86],[12.62692639,56.8144075,22.13],[12.62690906,56.8143685,22.26],[12.624275,56.80919876,31.26],[12.62424501,56.80915077,31.2],[12.62258415,56.80758158,26.93],[12.62253316,56.80751525,26.33],[12.62014439,56.80371485,20.13],[12.62013673,56.80364785,20],[12.62041002,56.8027896,17.26],[12.62045301,56.80273561,17.13],[12.6236487,56.79979329,17.93],[12.6236907,56.79974863,17.6],[12.62793316,56.79468084,17.33],[12.62796982,56.79463818,17.53],[12.62851137,56.7933727,18.26],[12.6285147,56.79332604,18],[12.62768186,56.79162688,26.4],[12.62765487,56.79158555,26.73],[12.62352019,56.78691015,26.26],[12.62349953,56.78685949,26],[12.62413102,56.78248183,18.86],[12.62412336,56.78242184,19],[12.62372778,56.78120664,19.13],[12.62369878,56.78115064,19],[12.62270089,56.78013141,14.73],[12.62264923,56.78007508,14.53],[12.62129547,56.77795297,14.06],[12.62128414,56.77791331,14.2],[12.6211962,56.77665381,16.46],[12.62120186,56.77661181,16.53],[12.62181198,56.7742567,16.2],[12.62184331,56.7742077,16.13],[12.62867231,56.76768304,9.6],[12.62873464,56.76763505,9.46],[12.63244009,56.76617095,8.46],[12.63246975,56.76613729,8.39],[12.63303694,56.7642978,6.8],[12.63307127,56.76424481,6.93],[12.63457239,56.76237234,13.53],[12.63461038,56.76233235,13.6],[12.63576025,56.76146181,13.13],[12.63579858,56.76141581,13.13],[12.63663309,56.75989329,14.46],[12.63665675,56.75984696,14.53],[12.63753649,56.75794253,16.53],[12.63755782,56.75789587,16.6],[12.63810054,56.75594014,23.86],[12.63811087,56.75591448,23.93],[12.63914959,56.75421379,22.2],[12.63916359,56.75417213,22.26],[12.63907731,56.75242836,24.33],[12.63909097,56.75239237,24.4],[12.64039043,56.75062668,23.86],[12.64040476,56.75060035,23.86],[12.64214362,56.7499095,23.66],[12.64219795,56.74988217,23.6],[12.64358883,56.74892397,22.8],[12.64365516,56.74889531,22.86],[12.64640262,56.74804016,20.26],[12.64647928,56.74800483,20.2],[12.6481005,56.74696729,21.26],[12.64816183,56.74692496,21.26],[12.65020257,56.74545316,20.2],[12.65024223,56.7454205,20.2],[12.6536459,56.74208719,19.06],[12.65370023,56.74204653,18.93],[12.66119494,56.73730722,21.26],[12.6612396,56.73727189,21.26],[12.66971197,56.72984557,13.73],[12.66970731,56.72984191,13.4],[12.67779026,56.7263903,13.4],[12.67787326,56.72635964,13.4],[12.68427956,56.7246837,13.2],[12.68436555,56.72466737,13.33],[12.69925923,56.72472279,12.26],[12.69937089,56.72471646,12.33],[12.70645915,56.72334553,11.4],[12.70653281,56.72331787,11.26],[12.70964258,56.72152779,12.93],[12.70969191,56.72148313,13.13],[12.71048782,56.72057189,15.86],[12.71051981,56.7205239,15.8],[12.71152497,56.7186748,14.06],[12.71156197,56.71862881,14.2],[12.71315412,56.71726565,22.4],[12.71320012,56.71723599,22.06],[12.71857608,56.7148397,21.46],[12.71864708,56.71480537,21.46],[12.71974465,56.71396948,22],[12.71980931,56.71393749,22],[12.72129389,56.71381619,22.06],[12.72133255,56.71378786,21.93],[12.72236838,56.71214172,19.86],[12.72240837,56.71209206,20],[12.72630186,56.70770157,21.4],[12.72633985,56.70765924,21.4],[12.72747268,56.70645937,23.33],[12.72751734,56.70642037,23.53],[12.72885155,56.70559415,26.53],[12.72890888,56.70556316,26.73],[12.73135773,56.704668,26.2],[12.73143806,56.70465134,26.26],[12.73356662,56.70446838,26.86],[12.73366095,56.70445305,26.93],[12.73473188,56.70405312,26.6],[12.73481854,56.70403579,26.6],[12.74698523,56.70185945,25.93],[12.74707989,56.70183812,25.86],[12.75568642,56.69938624,22.46],[12.75576708,56.69935558,22.26],[12.76020376,56.6972089,22.4],[12.76026542,56.69716991,22.26],[12.77114308,56.68935486,23],[12.77119307,56.68931653,22.93],[12.772118,56.68894228,23],[12.77218399,56.68892195,23.13],[12.77977778,56.68786109,26.6],[12.77983578,56.68785343,26.6],[12.77912915,56.68779841,27.46],[12.77906382,56.68778042,27.53],[12.77889452,56.6873605,27.86],[12.77887352,56.6873605,27.73],[12.77910814,56.68780242,26.86],[12.7791658,56.68781408,26.8],[12.78086964,56.6876885,27.2],[12.78092064,56.68767984,27.13],[12.81405029,56.68094017,21.13],[12.81412229,56.68092484,21.06],[12.8143076,56.6807682,20.66],[12.81429927,56.68072787,20.46],[12.8134921,56.67933532,18.26],[12.8134701,56.67928666,18.26],[12.81308926,56.67798612,19.6],[12.81309859,56.67794579,19.6],[12.81607937,56.677197,23],[12.8161517,56.67718434,23],[12.81960814,56.67681591,22.33],[12.81969047,56.67681191,22.33],[12.82141503,56.67695456,23.86],[12.82149769,56.67697089,23.93],[12.8222643,56.67733516,22.8],[12.82230196,56.67737416,22.73],[12.82292155,56.67845472,25.2],[12.82297088,56.67849372,25.2],[12.82388381,56.67872932,25.73],[12.82397347,56.67872399,25.73],[12.83163928,56.67703845,29],[12.83169994,56.67702745,29.06],[12.83185926,56.67678751,29.73],[12.83191392,56.67676885,29.73],[12.83692694,56.67573184,27.93],[12.83700694,56.67571251,27.93],[12.83972211,56.67486067,26.4],[12.83981077,56.67484068,26.26],[12.84339761,56.67425855,16.33],[12.84344961,56.67425055,16.2],[12.84655208,56.6741466,9.53],[12.84662807,56.67413727,9.39],[12.84832026,56.67373573,15.2],[12.84837226,56.67372507,15.33],[12.84892114,56.67303888,7.2],[12.84893547,56.67300888,7.13],[12.84904138,56.67227431,7.46],[12.84904271,56.67227132,7.53],[12.85435695,56.67262202,8.26],[12.85440328,56.67264068,8.46],[12.85552315,56.67534949,15.2],[12.85556414,56.67535115,15.13],[12.85684502,56.67517091,14.93],[12.85687801,56.67515058,14.86],[12.8568784,56.67437509,9.33],[12.8569234,56.6743631,9.39],[12.86033979,56.67413326,5.86],[12.86038645,56.6741186,5.8],[12.86062739,56.67324042,9.2],[12.86062473,56.67324042,9.6],[12.86505341,56.67322041,9.53],[12.86505407,56.67322041,9.46],[12.86625824,56.67298925,9.86],[12.8663149,56.67297392,10],[12.86690948,56.67258234,12.6],[12.86695947,56.67256701,12.66],[12.86792708,56.67267199,12.93],[12.86798608,56.67266799,12.8],[12.86892387,56.67118382,11.06],[12.86897086,56.67116516,10.93],[12.87105966,56.67160668,9.39],[12.87107766,56.67157502,9.46],[12.87125123,56.67067078,13.66],[12.87123123,56.67064145,13.66],[12.86906941,56.67021765,8.46],[12.8690714,56.67021432,8.39],[12.87864106,56.66621337,8.26],[12.87872072,56.66617871,8.2],[12.89771417,56.65752788,7.6],[12.8977855,56.65749588,7.53],[12.90012898,56.65667338,8.13],[12.90019964,56.65664205,8.13],[12.90166485,56.65576786,8.06],[12.90174384,56.6557332,8.13],[12.90354109,56.65524395,8.53],[12.90363742,56.65520396,8.6],[12.90552152,56.65401049,8.46],[12.90557985,56.65398783,8.39],[12.90778674,56.65341728,6.13],[12.90783273,56.65345194,6.26],[12.90825364,56.65411417,8],[12.90826297,56.6541425,8],[12.90825833,56.65492864,9],[12.908253,56.65495797,9],[12.90728121,56.65628877,10],[12.9072862,56.65633043,10.46],[12.90786147,56.65630513,14.93],[12.90789746,56.65631112,15],[12.90904129,56.65683335,13.06],[12.90900629,56.65685201,13.13],[12.90851938,56.65675637,10.26],[12.90846972,56.65676236,9.93],[12.90762351,56.65723759,8.53],[12.90758085,56.65724192,8.46],[12.90697491,56.65677165,7.73],[12.90695325,56.65672632,7.73],[12.90832741,56.65492518,8.46],[12.90834107,56.65487885,8.39],[12.90838605,56.65431459,7.33],[12.90837172,56.6542716,7.2],[12.90776484,56.65333403,5.8],[12.90780483,56.65329437,5.86],[12.9096524,56.65288848,6.2],[12.90976273,56.65288715,6.2],[12.91163661,56.65336304,5.86],[12.91169927,56.65333938,5.8],[12.91263086,56.6526328,6.46],[12.91270419,56.6525938,6.53],[12.91652052,56.65084353,16.79],[12.91655985,56.65082087,16.79],[12.91970482,56.64831385,16.79],[12.91975782,56.64827886,16.93],[12.92044011,56.64826851,16.93],[12.9204731,56.64825418,16.79],[12.91703229,56.64740435,10],[12.91705962,56.64735902,10],[12.92235429,56.64073139,11.6],[12.92238862,56.64069206,11.66],[12.92434776,56.63904294,11.66],[12.92439009,56.63899528,11.8],[12.92512924,56.63748311,13.2],[12.92516224,56.63744545,13.13],[12.92809228,56.63596309,10.4],[12.92813661,56.63591343,10.26],[12.93064893,56.63205771,8.33],[12.93067692,56.63200505,8.39],[12.93138371,56.62977057,8.33],[12.93142071,56.62972424,8.46],[12.93353417,56.62853378,11.26],[12.93358216,56.62850112,11.2],[12.93392278,56.62799652,11.06],[12.93397611,56.62796319,11.06],[12.93606261,56.62688968,10.4],[12.93611027,56.62684868,10.46],[12.93486041,56.62595887,12.46],[12.93485175,56.62592688,12.53],[12.9355446,56.62464338,13],[12.93558359,56.62460405,13],[12.93914835,56.62329465,9.86],[12.93921168,56.62325732,9.8],[12.93975558,56.62230108,8.53],[12.93979524,56.62224808,8.73],[12.94078215,56.62134684,9.86],[12.94082048,56.62132051,9.8],[12.94154675,56.62163511,9.2],[12.94160675,56.62160745,9.33],[12.94864351,56.61681143,12.33],[12.94869517,56.61677277,12.4],[12.95059963,56.61508265,13.2],[12.95064062,56.61504165,13.26],[12.95447716,56.61091043,13],[12.95448649,56.6109011,13],[12.95517475,56.6106605,13.46],[12.95521175,56.61062784,13.33],[12.95638824,56.60897271,8.6],[12.95643357,56.60892405,8.73],[12.96049447,56.60503147,18.4],[12.96054513,56.60498614,18.4],[12.96569074,56.60174086,19.2],[12.9657134,56.6017062,19.13],[12.94691074,56.59744214,11],[12.94688341,56.59742914,11],[12.94963611,56.59466184,10.8],[12.9496871,56.59461518,10.6],[12.95284413,56.59212811,11.53],[12.95284114,56.59208178,11.4],[12.94962275,56.58978208,7.46],[12.94955842,56.58974475,7.46],[12.94657261,56.58874064,7],[12.94649628,56.58871264,7],[12.94576335,56.58822137,6.53],[12.94569402,56.58819571,6.53],[12.94471042,56.58825336,6.4],[12.94462376,56.58823903,6.4],[12.94191697,56.58753828,6.66],[12.94181397,56.58752395,6.2],[12.94003639,56.58755495,3.2],[12.94003606,56.58752396,3.26],[12.9426531,56.58570022,11.26],[12.94268276,56.58566389,10.93],[12.94449311,56.58298956,8.86],[12.94451744,56.5829459,8.66],[12.94620194,56.578946,5.66],[12.94623227,56.57890067,5.4],[12.94717078,56.57754645,7.6],[12.94720744,56.57751079,7.53],[12.94820869,56.57747878,2.2],[12.94822235,56.57745078,2.13],[12.94819511,56.57601194,6.6],[12.94818345,56.57596994,6.86],[12.94763152,56.57567901,8],[12.94762219,56.57564835,8],[12.94770399,56.57251307,9.6],[12.94771032,56.57247574,9.53],[12.94833857,56.57190781,8.86],[12.94834357,56.57186048,8.93],[12.94827388,56.56735434,6.4],[12.94828554,56.56731268,6.6],[12.94867043,56.56670043,9.66],[12.94870609,56.56667777,9.8],[12.94998802,56.56645717,10],[12.95002535,56.56641584,10],[12.95320645,56.56094711,10.73],[12.95321611,56.56090211,10.66],[12.95252433,56.55905828,13.73],[12.95249234,56.55901529,13.73],[12.95086086,56.55788081,11],[12.95084187,56.55784448,11],[12.9510378,56.55589336,10.66],[12.95102847,56.55584737,10.8],[12.95029755,56.55528676,10.73],[12.95028322,56.55524543,10.73],[12.95026225,56.55494046,10.26],[12.95027791,56.5548978,10.2],[12.95106608,56.55389156,10.2],[12.95108741,56.55384756,10.13],[12.95078587,56.55272335,9.6],[12.95078953,56.55268069,9.73],[12.95133806,56.55155151,8.93],[12.95135872,56.55151085,9],[12.95353255,56.55083034,11.6],[12.95359121,56.55080501,11.8],[12.96034135,56.54736958,6.93],[12.96040368,56.54734525,7],[12.96458404,56.54654192,14.8],[12.96465004,56.54652659,14.93],[12.96624791,56.5457964,12.86],[12.96629257,56.54576307,12.53],[12.96716338,56.54419661,8.73],[12.96719138,56.54415528,8.6],[12.96787932,56.54367468,7],[12.96792365,56.54362202,7],[12.96831478,56.54235393,11.06],[12.96833478,56.54232193,11.2],[12.96902465,56.54163539,12.2],[12.96904064,56.5415954,12.13],[12.9686864,56.54072451,12.86],[12.96868973,56.54068351,12.73],[12.96962158,56.53939098,11.93],[12.96963591,56.53933498,12],[12.9693917,56.5377638,10.4],[12.96937604,56.53771514,10.66],[12.96713124,56.53203743,9.26],[12.96710724,56.53199043,9.6],[12.96668396,56.53132084,13.26],[12.96664163,56.53127718,13.2],[12.96575245,56.53062932,15.6],[12.96570912,56.53059966,15.8],[12.96519416,56.53047668,17.2],[12.96513383,56.53048468,17.26],[12.96146408,56.53120003,13],[12.96145175,56.53120136,13],[12.9594369,56.53105876,8.6],[12.9594149,56.5310271,8.53],[12.95830478,56.52167689,23.73],[12.95827878,56.52164456,24],[12.95783949,56.52154827,25.2],[12.95780883,56.52153328,25.26],[12.95769089,56.52109803,26.4],[12.95765789,56.52107737,26.33],[12.95663696,56.52096479,19.06],[12.9565603,56.5209588,18.26],[12.95223919,56.52125189,10.6],[12.95216153,56.52125488,10.26],[12.95178658,56.52096394,9.66],[12.95176492,56.52095328,10.13],[12.95184819,56.52134452,14.46],[12.95185585,56.52135718,14.2],[12.95112005,56.51582214,9.06],[12.95110506,56.51577248,8.93],[12.94969586,56.51437196,7.6],[12.94967453,56.51432463,7.6],[12.94720602,56.5066547,7.53],[12.94719236,56.50660304,7.6],[12.94703725,56.50415861,8.6],[12.94702259,56.50410895,8.53],[12.94538745,56.50205083,6.86],[12.94535479,56.50200117,6.8],[12.94441898,56.5001277,7.33],[12.94439432,56.5000757,7.4],[12.94403212,56.49865616,8.39],[12.94402613,56.49860417,8.46],[12.94411043,56.49751926,8.6],[12.94409977,56.49746693,8.6],[12.943418,56.49535782,9.13],[12.94340067,56.49530482,9.13],[12.94116109,56.49043326,10.33],[12.94113443,56.49037927,10.33],[12.93916566,56.48821115,10],[12.939133,56.48816182,9.73],[12.93248175,56.47741529,10.4],[12.93245942,56.47738063,10.46],[12.92834374,56.47169861,10.66],[12.92831241,56.47164895,10.73],[12.92666839,56.46835134,12],[12.92663339,56.46829868,12],[12.92210591,56.46320251,11.8],[12.92207458,56.46315885,11.73],[12.92175306,56.46139339,10.66],[12.92175106,56.46134573,10.6],[12.92200466,56.46091712,10.6],[12.92199,56.46088646,10.66],[12.91814824,56.45585297,11.13],[12.91811424,56.45580098,11.33],[12.91594098,56.45146569,9.93],[12.91590832,56.45142536,10.06],[12.91497307,56.45129637,10.6],[12.91491007,56.45126837,10.53],[12.91358153,56.45031947,9.06],[12.9135232,56.45029147,9.06],[12.9126186,56.45025048,8.46],[12.9125646,56.45021882,8.39],[12.91053525,56.44814109,22.86],[12.91046825,56.44811543,23],[12.90633884,56.44709337,12.06],[12.90624918,56.44708304,12],[12.90357402,56.44756455,12.06],[12.90353636,56.44753356,11.86],[12.90155232,56.44540681,14.73],[12.90150899,56.44536748,14.46],[12.89423216,56.43923304,12.2],[12.89419916,56.43920238,11.93],[12.89273772,56.43746359,13.86],[12.89270106,56.43742693,13.86],[12.88807903,56.43323322,9.46],[12.88808103,56.43324288,9.39],[12.88860291,56.43318287,9.33],[12.88857225,56.43314754,9.39],[12.88453315,56.42941766,9.46],[12.88450049,56.42938166,9.46],[12.88402432,56.42840281,7.6],[12.88401532,56.42837015,7.73],[12.88386714,56.42699734,10.53],[12.88386747,56.42696101,10.6],[12.88498869,56.42675708,10.66],[12.88501135,56.42673109,10.8],[12.88444175,56.42647918,12.26],[12.88441609,56.42646485,12.33],[12.88422256,56.42587065,20.13],[12.88421523,56.42585099,20.26],[12.88487614,56.42548575,21.66],[12.88485748,56.42547276,21.86],[12.8813438,56.42586915,31.6],[12.88128381,56.42586815,31.46],[12.87526167,56.42511432,31.66],[12.87520034,56.42510999,31.53],[12.86339155,56.42517351,45.66],[12.86332389,56.42517252,45.8],[12.86113836,56.42483202,51.66],[12.8610737,56.42481136,51.26],[12.85933324,56.4238292,44.4],[12.85933657,56.42382654,44.46],[12.85992884,56.42432641,46.66],[12.85992718,56.42432641,46.26],[12.85911898,56.42361654,35.59],[12.85909999,56.42359154,35.26],[12.85806443,56.42051734,43.86],[12.8580421,56.42047968,43.8],[12.85604947,56.41829336,47.26],[12.85602614,56.41826536,47.33],[12.85423819,56.41557742,50.2],[12.85420219,56.41554142,50.73],[12.85302566,56.41461694,66],[12.852978,56.41458761,65.66],[12.84795558,56.41172745,61.73],[12.84791058,56.41170812,61.06],[12.84314298,56.41058354,74.93],[12.84307665,56.41056621,75.13],[12.83616085,56.40843979,76.4],[12.83609952,56.40842346,75.66],[12.83125161,56.40756415,71.53],[12.83122161,56.40755949,71.53],[12.82779661,56.40657016,81.26],[12.82773795,56.40655783,81.06],[12.80929315,56.40346995,107.4],[12.80923849,56.40345995,107],[12.80087492,56.40134305,116.66],[12.80081259,56.40133172,117.26],[12.79568004,56.4011545,104.13],[12.79561904,56.40115017,104.33],[12.79379184,56.40081135,108.13],[12.79374018,56.40079702,108.26],[12.79114312,56.40000126,113.26],[12.79109779,56.39998526,113.33],[12.78994592,56.39937309,112.2],[12.78991292,56.3993491,111.93],[12.78807962,56.39680482,108.93],[12.78804262,56.39676882,108.66],[12.78427068,56.39414924,107],[12.78422269,56.39411424,107],[12.78302256,56.3928268,104],[12.7830039,56.39279281,103.86],[12.78302753,56.3919329,104],[12.78303686,56.39188924,104.2],[12.78347339,56.39088668,104.86],[12.78350039,56.39084168,104.86],[12.7849526,56.38956811,105.13],[12.78502126,56.38953178,105.13],[12.7866128,56.38895489,101.6],[12.78669046,56.38893556,101.53],[12.7951363,56.38704906,97.86],[12.79520529,56.3870224,97.66],[12.80037516,56.38396315,88.4],[12.80043349,56.38392982,88.2],[12.80451952,56.3819811,86.2],[12.80458118,56.38194277,86.13],[12.81305789,56.37433676,72.8],[12.81310922,56.3742921,72.73],[12.81768837,56.37079255,73.6],[12.8177177,56.37076089,73.33],[12.81807627,56.37018597,70.4],[12.81808893,56.37015097,70],[12.81815791,56.36930908,67.93],[12.81814858,56.36925942,68.06],[12.81780736,56.36813953,70.13],[12.81778037,56.36808987,70.06],[12.81705845,56.36726362,64.53],[12.81704545,56.36722763,64.26],[12.81746505,56.36694567,62.33],[12.81749704,56.36690534,62.26],[12.81692744,56.36653141,60.33],[12.81688011,56.36648108,60.13],[12.8164995,56.36573847,57.06],[12.81647551,56.36567148,56.86],[12.81677643,56.36411862,56.6],[12.81677243,56.36405229,56.66],[12.81620717,56.36321338,56],[12.81620783,56.36315438,56.06],[12.81746088,56.36016244,60],[12.81747954,56.36011278,59.86],[12.81772912,56.35898626,60.13],[12.81773245,56.35893493,60.26],[12.81762989,56.35774804,62.53],[12.81763955,56.35769671,62.86],[12.81834114,56.35706011,64.4],[12.81835813,56.35701912,64.26],[12.81786523,56.35635287,60.86],[12.81787323,56.35631321,60.66],[12.81950393,56.3540685,59],[12.81951526,56.35404517,59],[12.81925639,56.35323966,59],[12.81925039,56.35321733,59],[12.81947835,56.35303539,59],[12.81948034,56.35303672,59],[12.81923738,56.35315001,58.46],[12.81920272,56.35313168,58.26],[12.81888044,56.35271641,54.93],[12.81885011,56.35267075,54.66],[12.81849131,56.3513786,50.66],[12.81849131,56.35137161,50.46],[12.81639967,56.34804797,52],[12.81638701,56.34801264,52],[12.81667877,56.34599459,57.53],[12.81669176,56.34595993,57.66],[12.81769294,56.34476547,59.13],[12.81770493,56.34472981,59.13],[12.81732433,56.34449988,59.2],[12.81732433,56.34448788,59.2],[12.81802156,56.34481681,58.4],[12.81805122,56.34481348,58.33],[12.8203347,56.34384233,55.86],[12.82041303,56.343792,55.73],[12.82473825,56.33958739,59.93],[12.82479391,56.33954539,60],[12.82968921,56.33666478,57.4],[12.8297642,56.33661445,57.2],[12.832712,56.33421798,49],[12.83280633,56.33415865,48.86],[12.83837172,56.33155557,42.86],[12.83845638,56.33150257,42.8],[12.83966224,56.33011702,42.53],[12.8396839,56.33005269,42.2],[12.83973991,56.32703191,28.06],[12.83973258,56.32694258,27.8],[12.8394241,56.32449575,23.4],[12.83941211,56.32444342,23.4],[12.83893383,56.32405314,21.2],[12.83892217,56.32400048,20.86],[12.83915245,56.32326921,17.6],[12.83915678,56.32320188,17.46],[12.83904328,56.32095035,18.46],[12.83904062,56.32089169,18.6],[12.83837771,56.31706905,20.86],[12.83837138,56.31701839,20.86],[12.83827459,56.31415264,20],[12.83827625,56.31408998,20],[12.83877169,56.31151216,19.06],[12.83878769,56.31145383,19.13],[12.84050089,56.30629289,18],[12.84051522,56.30623523,17.93],[12.84056221,56.30417041,16.6],[12.84055321,56.30411242,17.13],[12.83986536,56.30241192,17.73],[12.83983803,56.30236393,17.73],[12.83629595,56.29687957,26.46],[12.83627762,56.29684624,26.86],[12.83457882,56.29299243,33.66],[12.83455949,56.29294144,33.66],[12.83336651,56.28927776,29.93],[12.83336285,56.2892221,29.93],[12.8335408,56.2884165,29.53],[12.83356813,56.28836417,29.53],[12.83427437,56.28757092,30],[12.83429236,56.28753459,30],[12.83410173,56.28734063,30],[12.83409874,56.28731264,30],[12.83427738,56.28699368,30.06],[12.83425772,56.28694635,30.13],[12.83199805,56.28481106,28.66],[12.83200271,56.28477206,28.73],[12.8370275,56.28170699,31.4],[12.83707216,56.28167666,31.4],[12.83830461,56.28038083,32.59],[12.83833761,56.28035184,32.53],[12.84078838,56.27887641,28.13],[12.84084871,56.27883675,28.06],[12.84078071,56.2784778,28.6],[12.84081037,56.27843947,28.66],[12.84199392,56.27764793,27.33],[12.84201658,56.2776156,27.06],[12.83846283,56.27571023,20.8],[12.83840317,56.27567457,20.73],[12.83754066,56.27458533,19.4],[12.83750533,56.27455367,19],[12.83623881,56.27382575,9.93],[12.83623782,56.27382575,10.06],[12.84008782,56.27153376,5.53],[12.84016282,56.2714981,5.53],[12.84367189,56.27031866,5],[12.84370188,56.270285,5],[12.84464073,56.26834486,2.4],[12.8446244,56.2682862,2.4],[12.8442631,56.26790625,3.13],[12.84418177,56.26786326,3.26],[12.84249825,56.26724941,4.19],[12.84250258,56.26722442,4.33],[12.84412844,56.26725004,3.73],[12.8441631,56.26722338,3.66],[12.84432903,56.26678043,3.6],[12.84436002,56.26674243,3.66],[12.84553282,56.26578565,4.86],[12.84554148,56.26577399,4.8],[12.84647315,56.26346332,3.53],[12.84648514,56.26342166,3.53],[12.8463159,56.26225684,4],[12.84630257,56.26226517,4],[12.84800011,56.26208722,4],[12.84802277,56.26205889,4],[12.8480198,56.26135667,4.73],[12.84803046,56.26132301,4.8],[12.85098749,56.25425252,6.46],[12.85100648,56.25420886,6.33],[12.8510258,56.25366861,5.6],[12.85104313,56.25364595,5.66],[12.85322293,56.25373048,6.4],[12.85322459,56.25370848,6.4],[12.84607322,56.25292903,9],[12.84601756,56.25293036,8.86],[12.83388407,56.25448384,3.6],[12.83388041,56.25448683,3.73],[12.83294049,56.25421756,4],[12.83292183,56.25421357,4],[12.83335782,56.25375458,4],[12.83311824,56.25249516,10.13],[12.83306691,56.25246617,10.06],[12.82913994,56.25143897,5.93],[12.82913495,56.25143631,5.86],[12.82883172,56.25165284,4.4]]}}]}