{
  "type": "FeatureCollection",
  "features": [
    {
      "type": "Feature",
      "properties": {
        "creator": "BRouter-1.7.9",
        "name": "BoatToMarienleuchte",
        "track-length": "18934",
        "filtered ascend": "0",
        "plain-ascend": "0",
        "total-time": "13533",
        "total-energy": "175507",
        "cost": "107347",
        "messages": [
          [
            "Longitude",
            "Latitude",
            "Elevation",
            "Distance",
            "CostPerKm",
            "ElevCost",
            "TurnCost",
            "NodeCost",
            "InitialCost",
            "WayTags",
            "NodeTags",
            "Time",
            "Energy"
          ],
          [
            "11351565",
            "54653559",
            "-8192",
            "2",
            "1000",
            "0",
            "0",
            "0",
            "0",
            "reversedirection=yes highway=primary",
            "wheelchair=yes",
            "1",
            "18"
          ],
          [
            "11351224",
            "54653391",
            "-8192",
            "29",
            "5670",
            "0",
            "0",
            "0",
            "0",
            "reversedirection=yes foot=yes bicycle=yes route=ferry",
            "wheelchair=yes",
            "22",
            "287"
          ],
          [
            "11277350",
            "54576832",
            "-8192",
            "10029",
            "5670",
            "0",
            "0",
            "0",
            "0",
            "reversedirection=yes foot=yes bicycle=yes route=ferry",
            "railway=unknown",
            "7190",
            "93250"
          ],
          [
            "11228221",
            "54502816",
            "-8192",
            "8842",
            "5670",
            "0",
            "0",
            "0",
            "0",
            "reversedirection=yes foot=yes bicycle=yes route=ferry",
            "wheelchair=yes",
            "13510",
            "175210"
          ],
          [
            "11228021",
            "54502555",
            "-8192",
            "32",
            "5670",
            "0",
            "0",
            "0",
            "0",
            "reversedirection=yes foot=yes bicycle=yes route=ferry",
            "",
            "13533",
            "175507"
          ]
        ],
        "times": [
          0,
          1.429,
          22.157,
          131.514,
          292.332,
          484.599,
          989.211,
          1976.992,
          3167.762,
          7190.362,
          8913.619,
          11283.723,
          11934.143,
          12471.633,
          13127.771,
          13316.465,
          13510.161,
          13520.168,
          13533.033
        ]
      },
      "geometry": {
        "type": "LineString",
        "coordinates": [
          [
            11.35159,
            54.653571
          ],
          [
            11.351565,
            54.653559
          ],
          [
            11.351224,
            54.653391
          ],
          [
            11.349418,
            54.6525
          ],
          [
            11.346627,
            54.651283
          ],
          [
            11.343746,
            54.649542
          ],
          [
            11.335549,
            54.645346
          ],
          [
            11.318609,
            54.637755
          ],
          [
            11.307156,
            54.624344
          ],
          [
            11.27735,
            54.576832
          ],
          [
            11.264594,
            54.556484
          ],
          [
            11.246067,
            54.528711
          ],
          [
            11.241139,
            54.521057
          ],
          [
            11.237694,
            54.514607
          ],
          [
            11.23217,
            54.507015
          ],
          [
            11.229918,
            54.505038
          ],
          [
            11.228221,
            54.502816
          ],
          [
            11.22813,
            54.502704
          ],
          [
            11.228021,
            54.502555
          ]
        ]
      }
    }
  ]
}