{
  "type": "FeatureCollection",
  "features": [
    {
      "type": "Feature",
      "properties": {
        "creator": "BRouter-1.7.9",
        "name": "BoatToHelsingor",
        "track-length": "5257",
        "filtered ascend": "0",
        "plain-ascend": "0",
        "total-time": "3757",
        "total-energy": "48729",
        "cost": "29794",
        "messages": [
          [
            "Longitude",
            "Latitude",
            "Elevation",
            "Distance",
            "CostPerKm",
            "ElevCost",
            "TurnCost",
            "NodeCost",
            "InitialCost",
            "WayTags",
            "NodeTags",
            "Time",
            "Energy"
          ],
          [
            "12616005",
            "56032946",
            "-8192",
            "5254",
            "5670",
            "0",
            "0",
            "0",
            "0",
            "reversedirection=yes foot=yes bicycle=yes vehicle=yes route=ferry route_bicycle_icn=yes",
            "nodeaccessgranted=yes estimated_crossing_class=6",
            "3755",
            "48701"
          ],
          [
            "12615961",
            "56032944",
            "2",
            "3",
            "1000",
            "0",
            "0",
            "0",
            "0",
            "highway=cycleway foot=destination bicycle=destination route_bicycle_icn=yes",
            "",
            "3757",
            "48729"
          ]
        ],
        "times": [
          0,
          122.222,
          183.69,
          255.165,
          771.928,
          1024.948,
          1226.507,
          1341.581,
          1422.348,
          1515.265,
          1628.195,
          1779.722,
          1886.219,
          2086.349,
          2287.193,
          2372.963,
          2492.325,
          2669.583,
          2821.109,
          3009.803,
          3142.746,
          3504.408,
          3588.034,
          3755.285,
          3757.429
        ]
      },
      "geometry": {
        "type": "LineString",
        "coordinates": [
          [
            12.691492,
            56.043304,
            2
          ],
          [
            12.688936,
            56.042755,
            2
          ],
          [
            12.687863,
            56.042275,
            2
          ],
          [
            12.686662,
            56.041676,
            2
          ],
          [
            12.678395,
            56.037121,
            2
          ],
          [
            12.674073,
            56.035063,
            2
          ],
          [
            12.670352,
            56.033629,
            2
          ],
          [
            12.668073,
            56.032941,
            2
          ],
          [
            12.6663,
            56.032718,
            2
          ],
          [
            12.664215,
            56.032809,
            2
          ],
          [
            12.66176,
            56.033158,
            2
          ],
          [
            12.658572,
            56.03383,
            2
          ],
          [
            12.65631,
            56.034274,
            2
          ],
          [
            12.652173,
            56.035262,
            2
          ],
          [
            12.647927,
            56.036113,
            2
          ],
          [
            12.646055,
            56.036373,
            2
          ],
          [
            12.643401,
            56.03659,
            2
          ],
          [
            12.63942,
            56.036549,
            2
          ],
          [
            12.636053,
            56.036304,
            2
          ],
          [
            12.631946,
            56.035725,
            2
          ],
          [
            12.629098,
            56.035235,
            2
          ],
          [
            12.621501,
            56.033631,
            2
          ],
          [
            12.619676,
            56.033373,
            2
          ],
          [
            12.616005,
            56.032946,
            2
          ],
          [
            12.615961,
            56.032944,
            2
          ]
        ]
      }
    }
  ]
}