{"type":"FeatureCollection","features":[{"type":"Feature","properties":{"name":"20260506 Cicloturismo","time":"2026-05-06T07:38:48Z"},"geometry":{"type":"LineString","coordinates":[[5.031473,50.224148,274.86],[5.03141601,50.22428297,275.79],[5.03138101,50.22429763,276],[5.02942729,50.22477709,278.53],[5.0293893,50.22477009,278.4],[5.01345722,50.21991943,277.33],[5.01338823,50.21989877,277.6],[5.01312792,50.2197368,278.13],[5.01312193,50.21969247,278.2],[5.01343322,50.21932685,277.53],[5.01345922,50.21928252,277.4],[5.01341023,50.21910587,276.93],[5.01336323,50.21907121,276.79],[5.00950248,50.21771713,274.66],[5.00943015,50.21768614,274.6],[5.00729297,50.21641964,272.13],[5.00720631,50.21639231,272.2],[5.00667334,50.21634331,272.6],[5.00658868,50.21636397,272.66],[5.00554077,50.21695621,273],[5.00545478,50.21695821,272.93],[5.0026466,50.21636373,270.46],[5.00257794,50.21634207,270.2],[4.99966075,50.21460226,256],[4.99958476,50.21454826,256.06],[4.99761597,50.21262379,252.4],[4.99755864,50.21257646,252],[4.99559611,50.21130957,244.26],[4.99551011,50.21125991,243.73],[4.99085065,50.20971382,219.53],[4.99074432,50.20967049,219.13],[4.98883146,50.20852529,209],[4.98883412,50.20850429,208.66],[4.99281752,50.20815648,196.86],[4.99292751,50.20811949,197.2],[4.99397239,50.20747861,202.6],[4.99400238,50.20746362,202.73],[4.99567409,50.20678422,205.66],[4.99570809,50.20676323,205.46],[4.99766295,50.20517534,181.06],[4.99809328,50.20486334,180],[4.99846981,50.20336,139.6],[4.99846781,50.20335701,140],[4.99871946,50.20342932,141.33],[4.99872646,50.20343398,141.66],[4.9988951,50.20324602,141.46],[4.9988991,50.20324202,141.13],[4.99802625,50.20269186,132.2],[4.99802592,50.2026632,132.86],[4.99892902,50.20104279,130.53],[4.99893935,50.20100746,129.66],[4.99887106,50.19983999,120.53],[4.99886906,50.199802,120.6],[4.99905761,50.19899946,130.73],[4.99905628,50.19896213,131.13],[4.99883273,50.19815824,131.73],[4.99881507,50.19812158,131.73],[4.99776332,50.19629055,135.26],[4.99775133,50.19626155,135.73],[4.99771202,50.19529073,135.13],[4.99772168,50.1952654,135.33],[4.99816523,50.19474018,134.6],[4.99820056,50.19471152,134.86],[4.99900913,50.19429163,128.39],[4.99906079,50.19427664,129],[5.00068463,50.19389176,127.8],[5.00073529,50.1938851,128.2],[5.00307707,50.19403195,125.73],[5.00313173,50.19403661,125.93],[5.00424531,50.1939347,128.93],[5.00429697,50.19392771,128.86],[5.00521421,50.19362014,131.33],[5.00526154,50.19359781,131.66],[5.0060721,50.19306957,133.86],[5.00610909,50.19304191,133.33],[5.00801,50.19058332,122.33],[5.00801933,50.19056499,122.06],[5.00681415,50.18937248,119.06],[5.00680615,50.18933482,119.06],[5.00703279,50.18901786,119],[5.00703745,50.1889852,119],[5.00687118,50.18867427,119],[5.00687584,50.18864461,119.06],[5.00719341,50.18809239,121],[5.00721974,50.1880514,121],[5.00812065,50.18729481,121.06],[5.00817531,50.18726148,120.86],[5.00880057,50.18689022,118.8],[5.00880423,50.18688423,118.8],[5.01299492,50.18581425,122.86],[5.01305425,50.18579759,122.73],[5.01508708,50.18504812,122.33],[5.01513774,50.18502713,122.46],[5.04286367,50.17215414,131.53],[5.04292933,50.17212614,131.39],[5.04649339,50.17104541,133.6],[5.04655638,50.17102341,134],[5.04731264,50.17053348,140.93],[5.04736197,50.17051615,141.26],[5.04978546,50.1699663,137.39],[5.04985479,50.16993497,136.93],[5.05078839,50.16931006,134.26],[5.05084705,50.16925873,134.06],[5.05556841,50.16470928,137.66],[5.05561174,50.16466962,137.93],[5.05691097,50.16374774,141.93],[5.0569713,50.16371408,142],[5.05973276,50.16263861,131.86],[5.05979676,50.16261795,131.93],[5.06599431,50.16091511,155.2],[5.06605497,50.16089345,155.6],[5.07009957,50.15902512,132],[5.07016123,50.15899846,132],[5.07121017,50.15871887,135.26],[5.07128416,50.15868954,135.73],[5.07181112,50.15826459,140.26],[5.07188445,50.15824126,140.26],[5.07605084,50.1588593,144.26],[5.07611583,50.15887296,144.26],[5.07810869,50.15956278,143.39],[5.07817235,50.15958478,143.33],[5.08095571,50.16173513,139.53],[5.08101371,50.16176479,139.26],[5.0826942,50.16247593,137.39],[5.08275153,50.16249393,137.53],[5.08471168,50.16286443,149.8],[5.08475467,50.16288076,149.06],[5.0854339,50.16376001,137.2],[5.08547456,50.16379967,136.73],[5.08598519,50.16387664,135.39],[5.08603685,50.16389864,135.33],[5.08660143,50.16455588,135.06],[5.08664043,50.16456621,135.13],[5.08914257,50.16416272,135.26],[5.08921756,50.16415973,135.26],[5.0938946,50.16428347,138.73],[5.0939546,50.1642868,138.53],[5.10281888,50.16585176,150.06],[5.10287954,50.16586009,150.13],[5.10586968,50.1657549,155.53],[5.10593001,50.16574757,154.8],[5.10941006,50.16514187,160.2],[5.10947272,50.16510587,160.39],[5.11321932,50.16243398,143.8],[5.11325698,50.16240732,142.8],[5.11295435,50.16187774,139.6],[5.11298135,50.16184941,139.8],[5.11433752,50.16106222,140.93],[5.11436985,50.16103689,140.8],[5.11748043,50.15831229,146.39],[5.11752176,50.15827996,146.53],[5.11891427,50.15747379,148.93],[5.11897027,50.15744813,149.06],[5.12559269,50.15512035,151.33],[5.12564102,50.15510169,151.53],[5.13929692,50.14944576,157.73],[5.13936258,50.1494231,158.06],[5.14231903,50.14876763,161.53],[5.14239502,50.14875663,160.86],[5.14559475,50.14852217,150.13],[5.14567108,50.1485225,150.2],[5.14933315,50.14887324,150.33],[5.14939281,50.14888523,150.39],[5.19482219,50.15885895,167],[5.19489319,50.15887528,167.2],[5.19860327,50.1594874,171.4],[5.19867393,50.15949506,171.53],[5.20284261,50.1596579,171.93],[5.20289794,50.15965657,172],[5.22333554,50.15846904,189],[5.2233392,50.15846704,189],[5.22339082,50.15866566,189.93],[5.22339082,50.15868166,190.06],[5.2231699,50.15891027,191.2],[5.22316624,50.15893093,191.26],[5.2233692,50.15903987,192],[5.2233732,50.15904353,192],[5.22350076,50.159826,191.13],[5.22349743,50.15985966,190.93],[5.22301138,50.16136838,186.8],[5.22299905,50.16138371,186.66],[5.22351153,50.16000963,192.33],[5.22352519,50.15997597,192.26],[5.22357483,50.15935474,191.13],[5.22357716,50.15932441,191.06],[5.22353788,50.15908846,191.46],[5.22353322,50.15908146,191.53],[5.22313234,50.15908184,191.26],[5.22312434,50.15907185,191.2],[5.22332926,50.15868829,188.2],[5.22337525,50.15831296,188.06],[5.22294999,50.15774273,188.33],[5.22298565,50.1577284,188.46],[5.2233916,50.1577391,187.8],[5.2233706,50.15775576,187.66],[5.22182014,50.15846794,182.86],[5.22181981,50.15846761,182.73],[5.22314658,50.15851927,189],[5.22317558,50.15851927,189],[5.22333188,50.1585023,188.46],[5.22336221,50.15844231,188.33],[5.22297564,50.1577684,188.33],[5.22301064,50.15774574,188.33],[5.2242559,50.15767681,189.33],[5.22435523,50.15766515,189.46],[5.22545248,50.15737422,183.26],[5.22555448,50.15735556,183.06],[5.22893659,50.15768042,178.4],[5.22894225,50.15767943,178.2],[5.2367265,50.1560455,195.8],[5.23678849,50.15602917,196.13],[5.23771674,50.15576793,198.93],[5.2377714,50.1557476,199.8],[5.24149966,50.15404693,198.8],[5.24154965,50.15403093,198.6],[5.2445654,50.15355153,210.06],[5.2446254,50.1535512,210.13],[5.24881142,50.15406321,211.66],[5.24886975,50.15407354,211],[5.25321465,50.15536683,214.66],[5.25327231,50.15538283,214.73],[5.25571347,50.15583334,218.26],[5.25579346,50.15584333,218.26],[5.25764298,50.15584732,216],[5.25771831,50.15584232,216.06],[5.26154475,50.15542793,199.26],[5.26162574,50.1554236,199.8],[5.26296332,50.15555156,203.33],[5.26303465,50.15557289,202.93],[5.26447255,50.15626776,201.13],[5.26451054,50.15631409,201],[5.26610038,50.16054792,203],[5.26608638,50.16055292,203.06],[5.26604373,50.16038732,203.73],[5.26605572,50.16037966,203.86],[5.2668407,50.160087,204.26],[5.26690736,50.16004401,204.33],[5.26685741,50.15979241,205.6],[5.26686207,50.15977441,205.8],[5.26714997,50.15961283,213.06],[5.26714964,50.15958883,213.33],[5.26558981,50.15635406,209.4],[5.26557748,50.1563094,209.66],[5.2654699,50.1550372,208.13],[5.26547223,50.15496654,207.66],[5.26568117,50.15392328,200.93],[5.26572383,50.15384062,200.4],[5.26710939,50.15231805,197.26],[5.26717339,50.15225639,197.4],[5.26905123,50.15080487,201],[5.26909956,50.15076454,200.86],[5.27096371,50.14896041,198.46],[5.27100704,50.14892508,198.53],[5.2744047,50.14738906,207.46],[5.27446603,50.14735807,207.6],[5.27529594,50.14666049,211],[5.27533227,50.14661549,211.33],[5.27580287,50.1459059,208.66],[5.27581753,50.14585924,208.33],[5.27577259,50.14500065,201],[5.27576226,50.14494765,201],[5.27548299,50.14431239,205.53],[5.27544666,50.1442614,205.6],[5.27464207,50.14343552,205.73],[5.27462274,50.14339586,205.73],[5.27434522,50.14194102,203.06],[5.27436988,50.14188403,203],[5.27530476,50.14040582,201.8],[5.27534209,50.14036183,201.86],[5.27701689,50.13878536,204.66],[5.27704088,50.13875203,204.4],[5.27749235,50.1372759,200.73],[5.27752401,50.13722791,200.73],[5.27925654,50.13642334,201.4],[5.2793002,50.13638568,201.66],[5.27984901,50.13517386,206.06],[5.279873,50.13513753,206],[5.28065287,50.13439632,207.73],[5.28066953,50.13435766,207.86],[5.28068884,50.13382139,205.4],[5.28064384,50.13379939,205.13],[5.27969156,50.13362876,203.4],[5.27961657,50.13368042,203.4],[5.27770843,50.13296662,204.8],[5.27772276,50.13294529,204.66],[5.28091166,50.12967841,205.53],[5.28095265,50.12964108,205.46],[5.28142826,50.12936846,206.46],[5.28149359,50.12934847,206.8],[5.2829588,50.1290569,214.06],[5.28301079,50.12901957,213.4],[5.28496581,50.12658756,209.66],[5.2850038,50.1265489,209.73],[5.28621701,50.12585401,209.93],[5.286277,50.12582601,209.93],[5.2872076,50.12564939,211.13],[5.28728326,50.12565405,211.26],[5.28932011,50.12605391,215.13],[5.2894021,50.12606457,215],[5.29186394,50.12621709,216.8],[5.29193093,50.12621376,217.06],[5.29383241,50.1257706,218.6],[5.29388707,50.12575127,218.13],[5.29476964,50.12520136,220.6],[5.2948083,50.12516703,220.8],[5.29517357,50.12472975,220.46],[5.29519357,50.12468909,220.2],[5.29533418,50.12409782,217.6],[5.29534151,50.12404683,217.46],[5.29531694,50.12063915,218.86],[5.29531794,50.12060382,219.2],[5.29557809,50.119306,225.86],[5.29557975,50.11927234,226.13],[5.29501201,50.11685966,224.93],[5.29501734,50.11681633,225.33],[5.29529496,50.11641203,226.06],[5.29533996,50.1163747,225.86],[5.29633954,50.11576578,227.4],[5.2964032,50.11573612,227.4],[5.30039985,50.11417087,232.2],[5.30044685,50.11415221,231.86],[5.30191207,50.11385302,231.46],[5.30196273,50.11384936,231.6],[5.30367655,50.11399294,232.93],[5.30372588,50.1140006,232.93],[5.30823137,50.1149614,240.66],[5.30827936,50.11496706,240.53],[5.31223561,50.11502606,239.53],[5.31229827,50.11502106,239.26],[5.31262124,50.11484242,237.06],[5.3126559,50.11479109,236.8],[5.3129565,50.11400781,235.46],[5.3129975,50.11395481,235.6],[5.31377641,50.11343754,237],[5.31383574,50.11341921,237],[5.31538098,50.11336388,237.6],[5.31544031,50.11335722,237.66],[5.3169515,50.11302601,239.13],[5.31701183,50.11301768,239.13],[5.32267466,50.11242512,252.26],[5.32273199,50.11241613,251.86],[5.32391755,50.11210092,250.73],[5.32396288,50.11208493,250.86],[5.32468611,50.11169835,253.93],[5.32472177,50.11167102,253.8],[5.32513401,50.11110511,253],[5.32515367,50.11107045,252.86],[5.3256002,50.10987794,253.86],[5.32562653,50.10984595,254],[5.32746835,50.10851716,257.66],[5.32751001,50.10848283,258.06],[5.3279306,50.10793224,258.53],[5.32794393,50.10789591,258.46],[5.32818934,50.10663949,275.13],[5.32818868,50.1066165,274.93],[5.32743466,50.10455117,271],[5.32742267,50.10450951,270.79],[5.32748465,50.10383056,265.73],[5.32752464,50.10376457,265.53],[5.32975643,50.10194272,268.33],[5.32978976,50.10190906,268.46],[5.33001335,50.10117281,267.33],[5.33003568,50.10112948,267.2],[5.33054294,50.10056755,267],[5.33057927,50.10053022,267.06],[5.33229703,50.09924849,274.26],[5.33232369,50.09921616,274.33],[5.33339679,50.09770571,277.6],[5.33341745,50.09767338,277.73],[5.33565649,50.09357463,299.4],[5.33568148,50.09354497,299.06],[5.33771029,50.09231114,301.4],[5.33772529,50.09228581,301.6],[5.33786352,50.09193125,314.79],[5.33791051,50.09081359,315.86],[5.33710411,50.08911417,315.4],[5.33708945,50.08907451,315.26],[5.33679095,50.08757669,305.06],[5.33680028,50.08751336,304.4],[5.33726224,50.0868064,299.2],[5.33734424,50.08672441,299.26],[5.33910979,50.08520553,295.86],[5.33915112,50.0851572,295.53],[5.33897149,50.08487692,295.66],[5.33898449,50.08484493,295.66],[5.33957564,50.08413847,297],[5.33957564,50.08413647,296.93],[5.33897474,50.08481367,295.33],[5.33895708,50.084838,295.6],[5.33913472,50.08499631,297.73],[5.33917171,50.08499065,297.93],[5.34490795,50.08262337,312.6],[5.34496761,50.08260838,312.86],[5.34750139,50.08219427,318.33],[5.34754672,50.08219161,318.53],[5.34933311,50.0825304,322.86],[5.34937844,50.08251874,323.06],[5.34999634,50.08208783,325.6],[5.350022,50.0820565,325.53],[5.35058417,50.08096038,329.66],[5.35060083,50.08094339,329.93],[5.35133062,50.08053122,333.53],[5.35135328,50.08053056,333.6],[5.35947028,50.08325336,422.93],[5.35949327,50.08325936,423.4],[5.3676931,50.08459778,476.46],[5.36772443,50.08459911,476.4],[5.37233759,50.08438841,499],[5.37236392,50.08438675,499],[5.37513207,50.08444164,512.26],[5.37515506,50.08444263,512.33],[5.38298848,50.08339503,521.46],[5.38308148,50.0833937,521.46],[5.38652863,50.08389652,523.26],[5.38658329,50.08389785,523.33],[5.38989421,50.08353447,528.46],[5.38993854,50.08353746,528.46],[5.39262092,50.08378115,528.8],[5.39267325,50.08378848,528.66],[5.39526002,50.08429958,529.86],[5.39532502,50.08429492,529.93],[5.39742985,50.08403941,527.66],[5.39746651,50.08402808,527.66],[5.40321686,50.08145877,532.59],[5.40327352,50.08144477,532.53],[5.40505939,50.08115222,528.33],[5.40514172,50.08114289,528.2],[5.40933114,50.08084681,527.8],[5.40941047,50.08084282,527.59],[5.41268561,50.08101305,522.93],[5.41277594,50.08103205,523.2],[5.41720482,50.08254091,527.59],[5.41721415,50.08254291,527.53],[5.4317769,50.07589331,549.59],[5.43184156,50.07587165,549.26],[5.44122186,50.07657064,521.06],[5.44130252,50.07656598,521.4],[5.44632112,50.07490571,527.26],[5.44640545,50.07490038,526.86],[5.44780303,50.07509765,518.13],[5.44789102,50.07512498,517.4],[5.45741049,50.07833881,489.46],[5.45751682,50.07837747,488.73],[5.46475312,50.08194477,454.86],[5.46487545,50.08195476,454.6],[5.46751764,50.08121426,449.53],[5.46759897,50.0811846,449.33],[5.46968914,50.08007309,445.46],[5.46974414,50.08003976,445.53],[5.46986979,50.07988344,446.2],[5.46987478,50.07984411,446.4],[5.46981856,50.07860661,447.26],[5.46985589,50.07858361,447.33],[5.47312522,50.07754063,446.26],[5.47319255,50.07753063,446.26],[5.47689488,50.07772267,441.06],[5.47696221,50.07772466,440.86],[5.48212258,50.07754495,430.2],[5.48220124,50.07755261,430.06],[5.48776723,50.07918826,410],[5.48791523,50.07919326,409.06],[5.49076446,50.07858136,388.46],[5.49091746,50.0785137,388.13],[5.493112,50.07686712,387.8],[5.49322666,50.07682513,387.13],[5.49741815,50.07607464,377.33],[5.49751848,50.07605064,377.66],[5.49871472,50.07537373,382.2],[5.49878172,50.0753654,382.13],[5.5002819,50.07551294,379.86],[5.50033789,50.07552394,379.73],[5.50234142,50.07610777,385.46],[5.50242075,50.07612143,386],[5.5088534,50.0769221,372.6],[5.50893039,50.0769241,372.33],[5.5122615,50.07661364,364.4],[5.51234183,50.07661031,363.8],[5.51336843,50.07702323,361.86],[5.51344743,50.07702123,362],[5.51496934,50.07663367,361.26],[5.51504734,50.07662101,360.86],[5.5180358,50.07636824,357.26],[5.51811246,50.07635525,356.93],[5.51975735,50.07583768,353],[5.51979501,50.07581835,352.93],[5.51983934,50.07570539,351.4],[5.51981301,50.07568439,351.2],[5.51741662,50.07407338,354.33],[5.51736429,50.07405038,354.53],[5.51249902,50.0726972,358.73],[5.51244502,50.07268387,358.26],[5.50760742,50.07168255,362.26],[5.50754876,50.07166389,362.13],[5.50579194,50.07083542,360.33],[5.50574595,50.07081076,360.26],[5.50471674,50.06999624,358.2],[5.50469674,50.06995525,358.13],[5.50482404,50.069027,358.6],[5.50484303,50.068983,358.66],[5.50605277,50.06683353,361.4],[5.50607043,50.06678053,361.33],[5.50662208,50.06364986,360.86],[5.50664041,50.0636032,360.8],[5.50840711,50.06164249,363.66],[5.50841044,50.06163683,363.66],[5.5094094,50.05859951,367.26],[5.50942006,50.05856185,367.33],[5.50935486,50.05675213,373],[5.5093452,50.0567208,373],[5.50853967,50.05609024,374.4],[5.50850934,50.05606291,374.53],[5.50840638,50.05578362,375.26],[5.50841404,50.05575162,375.53],[5.50864733,50.05553,378.2],[5.50869266,50.05551034,378.53],[5.50999188,50.05525946,379.53],[5.51003654,50.05524647,379.6],[5.51060245,50.0549119,381.4],[5.51062978,50.0548849,381.6],[5.51123364,50.05395073,385.8],[5.51124363,50.0539194,385.93],[5.51111134,50.05300724,385.33],[5.51112634,50.05298925,385.2],[5.5113543,50.0528743,383.86],[5.51139529,50.05287763,383.66],[5.5130808,50.05320749,380.4],[5.51312846,50.05321582,380.26],[5.51587557,50.05392091,369.8],[5.51590957,50.0539249,369.6],[5.52256199,50.05421035,368],[5.52261165,50.05420902,368.2],[5.52337886,50.05365514,373.13],[5.52340219,50.05363248,373.26],[5.52441655,50.05243144,379.2],[5.52443888,50.05241378,379.33],[5.52591993,50.05167138,385.2],[5.52594726,50.05166205,385.33],[5.52735169,50.05142828,389.46],[5.52738302,50.05142695,389.53],[5.53169801,50.05153229,410.46],[5.53171534,50.05153196,410.6],[5.53436082,50.05106218,430.8],[5.53438915,50.05105585,430.86],[5.54065213,50.04813211,416.53],[5.54077813,50.04810345,416.4],[5.54160177,50.04802214,416.26],[5.5417391,50.04802547,416.4],[5.54262639,50.04817443,418.26],[5.54270172,50.04819876,418.46],[5.54429776,50.04936648,431.53],[5.54432242,50.04935415,431.8],[5.54617471,50.04654985,446.2],[5.54618304,50.04652719,446.26],[5.54633722,50.04581933,443.86],[5.54633722,50.04579734,443.46],[5.54614164,50.04417311,423],[5.54618497,50.04407645,421.66],[5.54778187,50.04244588,403.53],[5.5478212,50.04234022,402.46],[5.54790347,50.0407603,394.33],[5.54787414,50.04067697,394.13],[5.54695754,50.03997238,388.4],[5.54695721,50.03993072,387.86],[5.54892075,50.03889652,389.13],[5.54892641,50.03887919,389.2],[5.54848593,50.03702537,387.2],[5.54847494,50.03696671,387.2],[5.54888248,50.03551215,381.93],[5.54888481,50.03545682,381.73],[5.54854755,50.03471223,381.8],[5.54853355,50.03466757,381.86],[5.54854521,50.03428629,382],[5.54857454,50.03424063,382.06],[5.54956211,50.03378336,384.2],[5.54961344,50.0337757,384.4],[5.55102429,50.03391823,392.4],[5.55106728,50.03392556,392.33],[5.55196748,50.03420244,391.2],[5.55200881,50.0342251,391.2],[5.55308132,50.03503329,393.06],[5.55312998,50.03505528,393.33],[5.5542122,50.03529885,399.53],[5.55426653,50.03530385,399.33],[5.55493479,50.03523989,394.4],[5.55498779,50.0352219,394.4],[5.55564038,50.03481596,394.2],[5.55567338,50.03478597,394.4],[5.55577736,50.03430337,397.66],[5.55576236,50.03426471,397.26],[5.55492188,50.03303554,393.93],[5.55491222,50.03300155,393.8],[5.55496324,50.03221933,396.46],[5.55498357,50.03218933,396.8],[5.55589874,50.0313655,402.13],[5.55593107,50.03134217,402],[5.5575615,50.03038138,399.06],[5.55760816,50.03034705,398.93],[5.55997021,50.02839664,401.33],[5.55999887,50.02837498,401.46],[5.56162454,50.02734868,411],[5.5616462,50.02732535,410.93],[5.56196109,50.02622179,404.8],[5.56196509,50.02615646,404.6],[5.56185823,50.02372433,403.73],[5.56186456,50.023672,403.73],[5.56223084,50.02305807,406.73],[5.56227517,50.02301574,407.06],[5.56295143,50.02261747,412.4],[5.56300943,50.02259514,412.46],[5.56445163,50.02220428,411],[5.56450562,50.02217862,410.66],[5.56577147,50.02136709,411.6],[5.56581747,50.02134443,411.8],[5.56732268,50.02081822,410.13],[5.56737901,50.02078922,409.93],[5.56827022,50.02013934,411.06],[5.56829655,50.02010735,411.33],[5.56852615,50.01960142,414.93],[5.56853281,50.01957109,415.06],[5.5687968,50.01741347,419.86],[5.56881113,50.01737847,419.6],[5.5707718,50.01590544,422.86],[5.57079079,50.01587244,422.73],[5.5715919,50.01430432,423.6],[5.57160056,50.01426399,423.66],[5.57135007,50.01288652,420.53],[5.57136606,50.01284286,420.33],[5.57234463,50.01185829,422.2],[5.57237429,50.01180929,422.6],[5.57229365,50.0109001,425],[5.57230365,50.01087177,425.13],[5.57327078,50.00938366,418.6],[5.57330844,50.00933733,418.6],[5.57390907,50.00892439,419.06],[5.57400273,50.00889306,419.06],[5.5761256,50.00855119,415.4],[5.57619993,50.00851519,415.26],[5.57838039,50.00685507,421.13],[5.57840939,50.00681474,421.53],[5.57850703,50.00558988,423.26],[5.5785007,50.00554855,423],[5.57798251,50.00450533,422.8],[5.57797018,50.00446634,422.86],[5.57776793,50.00321891,427.4],[5.57776859,50.00318258,427.46],[5.57789514,50.0023264,426.46],[5.5779048,50.00229374,426.6],[5.57830768,50.00151354,428.13],[5.57831634,50.00147488,428.2],[5.57819674,50.00074761,427.53],[5.5781994,50.00070495,427.4],[5.57861446,49.9986565,430.26],[5.5786138,49.99861617,430.46],[5.57790141,49.99624443,425.93],[5.57790207,49.9962091,426.06],[5.57817858,49.99530294,431.66],[5.57819091,49.99527628,431.86],[5.57872379,49.9946831,433.73],[5.57874145,49.99466311,433.6],[5.57867847,49.99453849,434.4],[5.57867414,49.99453516,434.73],[5.58575736,49.99126465,445.6],[5.58580135,49.99123832,445.8],[5.58628829,49.99084204,446.2],[5.58631429,49.99079804,446.06],[5.58665449,49.98970415,447.4],[5.58668749,49.98966082,447.4],[5.58769204,49.98890461,447.33],[5.58773937,49.98887895,447.26],[5.58974223,49.98836109,448.93],[5.58979722,49.98833243,448.86],[5.59197168,49.98664165,448.93],[5.59204368,49.98661199,448.8],[5.59390523,49.98640503,447.6],[5.59398589,49.98636303,447.66],[5.59410054,49.98618437,447.93],[5.59409088,49.98611638,448.2],[5.59360565,49.98527446,453.13],[5.59359799,49.98523647,453.4],[5.59376894,49.98491686,454.93],[5.59379694,49.98489387,455.06],[5.59482006,49.98420708,461.6],[5.59484905,49.98419208,461.73],[5.59605251,49.98376058,465],[5.5960805,49.98374025,464.93],[5.59803158,49.9822155,457],[5.59810458,49.98215084,456.86],[5.59906117,49.98102525,460.33],[5.59912383,49.98097059,460.73],[5.60062866,49.98011477,468.2],[5.60065932,49.98009444,468.4],[5.60185745,49.97897531,467.6],[5.60189845,49.97894232,467.53],[5.60366297,49.9781808,468.93],[5.60369963,49.97816214,468.86],[5.60535509,49.97707835,468.06],[5.60542109,49.97704636,468.06],[5.60826218,49.97623192,472.26],[5.60831384,49.97621493,472.2],[5.6099313,49.97551744,477.06],[5.6099723,49.97550578,477.2],[5.61156746,49.97548146,478.13],[5.61161545,49.97546613,478.13],[5.61287031,49.97458296,477.06],[5.61292297,49.97455163,477.06],[5.61485409,49.97356814,479.6],[5.61491809,49.97354348,479.86],[5.61546771,49.97342283,481.66],[5.61556437,49.97341917,481.86],[5.61723056,49.97351543,482.93],[5.61727056,49.97350377,483],[5.6220865,49.97119516,500.46],[5.62213049,49.97117683,500.73],[5.62397962,49.97071601,502],[5.62404028,49.97069935,502],[5.62969354,49.96981033,500],[5.62977387,49.969794,500.06],[5.63131173,49.9691005,502.33],[5.63136706,49.9690985,502.26],[5.63195767,49.96928745,501.66],[5.632012,49.96931711,501.6],[5.63404506,49.9705825,505.6],[5.63406239,49.97057884,505.73],[5.63513774,49.96902677,509],[5.63515607,49.96900344,509],[5.63623057,49.96800829,510.46],[5.63626223,49.96797029,510.46],[5.63694244,49.96675143,507],[5.6369711,49.96671577,507],[5.64006009,49.96627605,517],[5.64009909,49.96626672,517],[5.64212306,49.96544038,523.2],[5.64215539,49.96541905,523.26],[5.64275291,49.9648082,524],[5.64275991,49.96479454,524],[5.64206434,49.96467293,524],[5.64205734,49.96467959,524],[5.64285589,49.96474688,523.86],[5.64290222,49.96471655,523.66],[5.64905248,49.95951101,496.53],[5.64910947,49.95946335,496.33],[5.65124691,49.95661658,482.26],[5.65131391,49.95655725,482.33],[5.65558256,49.95506355,488.73],[5.65561722,49.95505222,488.8],[5.65608581,49.95475199,489.6],[5.65610581,49.954732,489.66],[5.65740484,49.95037961,512],[5.65741284,49.95035628,512],[5.65791763,49.94949078,513.13],[5.65794563,49.94946778,513.2],[5.66256032,49.94803573,504.6],[5.66264332,49.94799207,504.33],[5.66655274,49.94568706,506],[5.66658874,49.94566373,506.06],[5.66862943,49.94381547,514.53],[5.66864909,49.94378714,514.4],[5.66901798,49.94312325,517.66],[5.66902364,49.94309492,518.06],[5.67028979,49.93435421,478.93],[5.67029312,49.93426855,479.13],[5.66987451,49.9332473,475.2],[5.66985185,49.93316764,474.53],[5.66914918,49.92812844,461.6],[5.66915617,49.92809511,461.46],[5.67168787,49.92543143,449.73],[5.6717262,49.9253771,449.6],[5.6719005,49.92501947,449.93],[5.67191483,49.92495348,450],[5.6719428,49.92360627,450.66],[5.67194546,49.92357861,450.73],[5.67216899,49.92274841,456],[5.67217999,49.92272341,456],[5.6724212,49.92228919,458.46],[5.67243986,49.92226786,458.53],[5.67374618,49.92104282,456.6],[5.67374951,49.92101816,456.53],[5.67350722,49.9207682,454.8],[5.67345256,49.92074087,454.46],[5.67169402,49.91999331,449.13],[5.67171335,49.91997398,449.06],[5.67475215,49.9205961,441.53],[5.67484248,49.92060343,441.26],[5.67696741,49.9203452,443.4],[5.67704607,49.92031654,443.66],[5.67858259,49.91960599,440.8],[5.67863525,49.919575,441],[5.6811193,49.91781299,436.53],[5.68117729,49.91777,436.46],[5.6828261,49.91565088,433.93],[5.68286043,49.91561355,433.93],[5.68368533,49.91525264,435.66],[5.68375032,49.91524265,435.73],[5.6875113,49.91566475,433],[5.6875713,49.91567575,433.13],[5.69123428,49.9169581,422.6],[5.69130894,49.91698443,422.53],[5.69179991,49.91701608,422.8],[5.69183024,49.91698375,422.8],[5.69115468,49.91604151,419.46],[5.69111269,49.91599485,419.2],[5.68900958,49.91408873,422.93],[5.68899358,49.91405207,423],[5.68895624,49.91356512,423.86],[5.68896424,49.91352312,423.86],[5.68949003,49.91163731,417.13],[5.68949869,49.91158998,417.06],[5.68943337,49.91121169,417.53],[5.68940504,49.9111727,418],[5.68757253,49.91032018,421.53],[5.68752487,49.91029452,421.4],[5.68623703,49.90935768,418.33],[5.6862007,49.90933502,418.13],[5.68417658,49.90827486,418.2],[5.68412458,49.90823653,418.53],[5.68321545,49.90606943,412.66],[5.68320345,49.90602277,412.4],[5.68370039,49.90534953,413],[5.68373705,49.9053182,413.2],[5.68459992,49.90487232,414.06],[5.68463525,49.90485566,414.26],[5.68512283,49.90471139,416],[5.68516349,49.90471073,416],[5.68580137,49.90485028,414.86],[5.6858327,49.90485094,414.73],[5.68603599,49.90471665,413.53],[5.68604498,49.90471199,413.4],[5.68610461,49.90419638,409.8],[5.68608261,49.90412672,409.33],[5.68551068,49.90310512,406.46],[5.68551101,49.90308379,406.53],[5.68570263,49.90326175,408.6],[5.68573896,49.90324576,408.86],[5.68645853,49.90245252,405.73],[5.68649153,49.90240686,405.6],[5.68733329,49.90054775,404.8],[5.68734429,49.90050842,404.73],[5.68743752,49.89889424,407.26],[5.68743752,49.89884625,407.46],[5.68720471,49.89673943,405.53],[5.68718038,49.89669277,405.73],[5.68603249,49.89594321,409.53],[5.68596183,49.89592021,409.53],[5.67841144,49.89384415,400.06],[5.67834744,49.89382049,400.06],[5.67598198,49.89249006,400],[5.67592599,49.89244006,400.2],[5.67561503,49.89177012,400.2],[5.6756137,49.89170613,400.06],[5.67595026,49.89031957,400.86],[5.67594027,49.89026858,400.93],[5.67483043,49.88871236,395.73],[5.6748271,49.8886517,395.6],[5.67605374,49.88517804,392.53],[5.67603974,49.88512971,392.33],[5.67575278,49.88482242,391.8],[5.67568512,49.88478576,391.86],[5.67348495,49.88391792,396.8],[5.67343062,49.88387992,396.66],[5.67300502,49.88341797,397.46],[5.67297536,49.88336731,397.53],[5.67281507,49.88277537,394.46],[5.67281773,49.88271771,393.86],[5.67617819,49.87725162,388.66],[5.67620419,49.87720563,388.4],[5.67631717,49.87593742,388.2],[5.67634917,49.87590276,388.33],[5.67772238,49.87555087,389.46],[5.67778171,49.87554321,389.4],[5.68214612,49.87518988,388.8],[5.68221612,49.87517489,388.8],[5.68359335,49.87472199,388.73],[5.68365634,49.87469366,388.8],[5.68487125,49.87395377,393.13],[5.68492358,49.87391411,393.13],[5.68674133,49.87165437,399.86],[5.68675699,49.87160171,400],[5.68688518,49.87036982,395],[5.68688218,49.87031916,394.6],[5.68655692,49.86939093,391.06],[5.68654726,49.86934327,391.2],[5.68648835,49.86797411,390.33],[5.68649001,49.86792645,389.86],[5.68696058,49.86684555,386.2],[5.68699857,49.86679922,386.26],[5.68760249,49.86626197,385.86],[5.68765582,49.86622598,385.66],[5.69584606,49.86097083,382.46],[5.69587772,49.8609295,382.53],[5.69605633,49.86043554,381.66],[5.69605766,49.86039188,382],[5.69592141,49.85890772,395.2],[5.69592674,49.85886239,395.06],[5.69634824,49.8575852,388],[5.69637557,49.85754487,388],[5.70086833,49.85409312,384.33],[5.70088199,49.85405313,385.4],[5.70082801,49.8537175,392.6],[5.70080768,49.85367584,393.6],[5.70029077,49.85302926,396],[5.70024744,49.85299426,396.8],[5.697373,49.85122821,379.4],[5.69734267,49.85118521,379.2],[5.69723238,49.85043496,382.2],[5.69724238,49.85038996,382.13],[5.69771559,49.84956107,380.53],[5.69774125,49.84953341,380.66],[5.70089248,49.8476942,382.26],[5.70091981,49.8476792,382.4],[5.7018237,49.84733596,380.4],[5.70187969,49.8473253,380.46],[5.71187551,49.84590814,377.53],[5.71193984,49.84589848,377.6],[5.71690201,49.84494951,378.66],[5.71695301,49.84494285,378.33],[5.72328438,49.8449044,376.46],[5.72334671,49.8449024,377],[5.72474525,49.84461917,382.4],[5.72479058,49.84459784,382.86],[5.72685499,49.84299276,388.66],[5.72688765,49.84295676,388.53],[5.72711925,49.84246948,388.4],[5.72712591,49.84243148,388.53],[5.72708391,49.84178755,391.8],[5.72706958,49.84175389,391.8],[5.72635902,49.84108302,394.53],[5.72630869,49.84105969,394.4],[5.72271135,49.83997267,375.6],[5.72264836,49.83995034,375.6],[5.72076756,49.8389405,375],[5.72073523,49.8389105,374.8],[5.72044333,49.83838062,374.86],[5.72043734,49.83836529,374.8],[5.7203847,49.83848594,374.13],[5.72039503,49.83851427,374.06],[5.72055331,49.83872353,374.53],[5.72055597,49.83872886,374.86],[5.72013915,49.83728002,377.2],[5.72013915,49.83722936,376.8],[5.72041335,49.83599883,372.4],[5.72042434,49.83596484,372.4],[5.72075827,49.83557689,370.2],[5.72080193,49.83554923,369.86],[5.7221275,49.83537425,370.06],[5.72220383,49.83538158,370.6],[5.72594256,49.83612665,371.6],[5.72600889,49.83613765,371.53],[5.72746213,49.83621992,369.86],[5.72751113,49.83620892,369.8],[5.72747116,49.83580569,370.6],[5.72751182,49.83578069,370.6],[5.72848641,49.83567939,368.73],[5.72855307,49.83566039,368.8],[5.72924936,49.83526479,369.53],[5.72926869,49.83522446,369.4],[5.72914681,49.834285,366.6],[5.72913348,49.83425267,366.6],[5.72851655,49.8337831,367.2],[5.72850589,49.83376077,367.4],[5.72889303,49.83303393,373.2],[5.72890369,49.83301627,373.53],[5.7301468,49.8322018,376.86],[5.73018179,49.8321828,376.93],[5.73102002,49.83191991,378.06],[5.73106635,49.83191325,378.06],[5.73456005,49.83143849,368],[5.73465105,49.8314305,367.66],[5.73789922,49.83131915,367.93],[5.73795921,49.83132281,368.13],[5.73998526,49.83258216,372.93],[5.74002325,49.83260382,372.8],[5.74078615,49.83285372,370.4],[5.74078981,49.83285405,370.2],[5.74048619,49.83317033,370.06],[5.74050252,49.83320532,370.26],[5.74100546,49.8332833,372.2],[5.74100612,49.83328496,372.46],[5.74385385,49.83228256,383.4],[5.74389385,49.83226557,383.73],[5.74482835,49.83150874,385.73],[5.74485168,49.83148175,386.06],[5.74564406,49.829985,393],[5.74566339,49.82995767,392.73],[5.74682681,49.82878254,393.26],[5.74684614,49.82875554,393.6],[5.74722295,49.82770942,401.53],[5.74723761,49.82767976,401.6],[5.74814035,49.82624098,401.6],[5.74817368,49.82621499,401.93],[5.75021507,49.82513689,406.46],[5.75027173,49.82512323,406.4],[5.75336213,49.82526081,407.2],[5.75339146,49.82526414,407.13],[5.75402608,49.82505187,410.73],[5.75408274,49.82500287,411],[5.75423669,49.82461223,412.66],[5.75424502,49.82456524,412.4],[5.7540738,49.82373368,413],[5.7540738,49.82370135,413],[5.75426395,49.82222392,424.53],[5.75427561,49.82219626,425.06],[5.75643725,49.82099702,435.33],[5.75646691,49.82097102,434.66],[5.75735065,49.8194873,431.73],[5.75736465,49.81945797,432.13],[5.7574136,49.81910303,437.86],[5.75740861,49.8190747,438.66],[5.75702722,49.81771326,451.93],[5.75702389,49.81768826,451.73],[5.75714283,49.81725768,449.13],[5.75715949,49.81723502,448.86],[5.75774604,49.81683147,446.73],[5.75778737,49.81681714,446.66],[5.75975274,49.81634512,456.4],[5.7597804,49.81633412,456.33],[5.76079417,49.81574164,458.8],[5.7608265,49.81573098,458.73],[5.76237191,49.81559719,463.06],[5.7624019,49.8155922,463.2],[5.76347506,49.8152834,470.33],[5.76349572,49.8152694,470.46],[5.76321254,49.81467725,472.73],[5.76320221,49.81466059,472.86],[5.76281998,49.81435534,476],[5.76282331,49.81433868,476],[5.76504861,49.81311909,488.2],[5.76506561,49.81309643,488.33],[5.7653384,49.81188566,485.2],[5.76534306,49.81185333,484.93],[5.76522578,49.81133642,480.8],[5.76523378,49.81130642,480.33],[5.76605427,49.80988527,467],[5.76608693,49.80985494,466.6],[5.76660156,49.80978096,462.33],[5.76665722,49.80975997,461.6],[5.7674618,49.80933269,456.86],[5.76756546,49.80933502,456.8],[5.77324086,49.81014912,442.73],[5.77329552,49.81015311,442.73],[5.77362076,49.80964889,443],[5.77364309,49.80962656,443],[5.77402867,49.8094253,443],[5.77404466,49.80942464,443],[5.77364274,49.80964323,442.86],[5.77361775,49.80967056,442.86],[5.77340446,49.81017549,439.8],[5.77345846,49.81019915,439.53],[5.7744254,49.81048542,434.73],[5.77452606,49.81049575,434.06],[5.77648533,49.81040346,417.53],[5.77665133,49.8103898,416.46],[5.77891392,49.80999255,406.46],[5.77908725,49.80994755,405.33],[5.78197882,49.80866797,382.33],[5.78214748,49.80860464,382.06],[5.7834271,49.80842699,383.73],[5.78353076,49.80846665,383.73],[5.78380602,49.80907093,379.53],[5.78380369,49.80909659,379.2],[5.78342178,49.80937516,378.8],[5.78341579,49.80938549,378.86],[5.78388874,49.80963712,378.86],[5.78389174,49.80965078,378.8],[5.78338622,49.80935293,378.26],[5.78337656,49.80936626,378.46],[5.78367778,49.80997909,380],[5.78368878,49.80997843,380],[5.78364345,49.80978881,394.93],[5.78151979,49.81013647,396],[5.77914078,49.81126885,390.2],[5.77910079,49.81128451,390.46],[5.77595627,49.81196509,406.86],[5.77591894,49.81197542,407.8],[5.77404284,49.81269185,420.33],[5.77401885,49.81270651,420.86],[5.77346177,49.81335531,430.26],[5.77345244,49.81336997,430.6],[5.77343478,49.81373152,433.8],[5.77344144,49.81374818,433.66],[5.77397394,49.81425334,440.26],[5.7739776,49.81425667,440.06],[5.77479033,49.81457209,443.2],[5.77479199,49.81457309,442.53],[5.77390743,49.81418183,435.06],[5.7738481,49.81414683,435.13],[5.77346415,49.81376854,429.86],[5.77344116,49.81372288,429],[5.77343015,49.81339125,423.8],[5.77345248,49.81334059,423.53],[5.77392441,49.81278565,416.33],[5.77397507,49.81274866,415.86],[5.77596327,49.81198511,400.33],[5.77602993,49.81196578,399.6],[5.77920301,49.81126305,392],[5.77926734,49.81123939,392.46],[5.78138477,49.81026928,392],[5.78142843,49.81024228,391.26],[5.78239328,49.80920243,379.73],[5.78241227,49.80918977,379.53],[5.78275124,49.80908848,377.33],[5.7827929,49.80908948,377.46],[5.78341284,49.80935207,377.13],[5.78341251,49.8093594,376.86],[5.78269428,49.80894118,375.4],[5.78265329,49.80894417,375.33],[5.78236234,49.80900346,376.93],[5.78235301,49.80900612,377.06],[5.78175602,49.80955844,377.46]]}}]}