{"type":"FeatureCollection","features":[{"type":"Feature","properties":{"name":"20260505 Cicloturismo","time":"2026-05-05T07:52:01Z"},"geometry":{"type":"LineString","coordinates":[[4.81761133,50.69412333,96.42],[4.81751706,50.69376378,98.61],[4.81753306,50.69375245,98.69],[4.81832425,50.69415696,102.54],[4.81836958,50.69414997,102.48],[4.82006294,50.69347058,103.17],[4.8200976,50.69345292,103.13],[4.82066783,50.69294237,103.34],[4.82068582,50.69292037,103.46],[4.82173617,50.69115077,107.85],[4.8217485,50.69110411,107.7],[4.8219867,50.68980958,105.95],[4.82198903,50.68976925,105.97],[4.82184113,50.6884191,108.44],[4.82185279,50.6883831,108.5],[4.82329155,50.6867264,111.05],[4.82330255,50.68669307,111.16],[4.82258789,50.68457008,115.46],[4.82257856,50.68453542,115.53],[4.82232018,50.68292064,118.62],[4.82230519,50.68288498,118.68],[4.82030201,50.67985947,125.78],[4.82031501,50.67983181,125.88],[4.82046466,50.6797675,126.22],[4.82051465,50.67976883,126.28],[4.82191517,50.67990702,128.92],[4.82196017,50.67990169,129.09],[4.82534121,50.67907627,128.92],[4.82542987,50.67906794,128.74],[4.8283284,50.67916022,121.83],[4.82841006,50.67915589,121.69],[4.82905968,50.67907527,120.61],[4.82913267,50.67905861,120.49],[4.83038324,50.67869606,119.17],[4.83044357,50.67869406,119.08],[4.83143615,50.678947,119.97],[4.83144281,50.678934,120.11],[4.82575803,50.67222859,127.33],[4.8257147,50.6721766,127.14],[4.8250411,50.67163765,125.47],[4.82504743,50.67158932,125.29],[4.82586736,50.67097504,123.89],[4.82592836,50.67091305,123.73],[4.84090496,50.65467202,135.81],[4.84094796,50.65462536,135.83],[4.85232076,50.64528554,132.56],[4.85236842,50.64524588,132.53],[4.87400251,50.62631418,138.11],[4.87402417,50.62629552,138.19],[4.90842684,50.59521186,141.22],[4.90840718,50.59522686,141.18],[4.90834653,50.5952975,141.16],[4.90838019,50.59534516,141.21],[4.90951935,50.59576303,140.81],[4.90955835,50.5957527,140.88],[4.90963334,50.59546042,141.39],[4.90963168,50.59543109,141.4],[4.90945913,50.59486284,141.61],[4.90949546,50.59484785,141.8],[4.90966798,50.59568306,140.71],[4.90967798,50.59571205,140.69],[4.91000227,50.59570206,140.82],[4.9100066,50.59567473,140.86],[4.90986709,50.59427432,141.16],[4.90986509,50.59426899,141.2],[4.90885769,50.59304757,142.85],[4.90885569,50.59303357,142.85],[4.90953988,50.59378846,142.31],[4.90957154,50.59381612,142.22],[4.90972684,50.59390477,141.92],[4.9097685,50.59391343,141.89],[4.90984814,50.59384045,141.9],[4.90984714,50.59380412,141.9],[4.90839921,50.58383686,144.88],[4.90839455,50.5838062,144.94],[4.90832794,50.58344757,145.85],[4.90831628,50.58341658,145.85],[4.90817931,50.58326393,146.29],[4.90817231,50.58324827,146.35],[4.90828428,50.58315497,146.63],[4.90827395,50.58313031,146.66],[4.90128488,50.57796758,150.84],[4.90123422,50.57793025,150.86],[4.90039961,50.57746098,150.07],[4.90039262,50.57741698,149.98],[4.90099109,50.57584817,151.98],[4.90100908,50.57581517,152.06],[4.90228145,50.57404112,155.45],[4.90229678,50.57401179,155.45],[4.90264359,50.5729933,156.28],[4.90265692,50.57296197,156.3],[4.903482,50.57145459,156.83],[4.90349833,50.57142426,156.84],[4.90363525,50.57092168,157.22],[4.90364925,50.57089168,157.25],[4.90504635,50.56967157,157.66],[4.90507868,50.56964591,157.67],[4.90603122,50.56901139,157.93],[4.90605822,50.56899039,157.97],[4.90619517,50.56875345,158.51],[4.90619517,50.56872479,158.58],[4.90535279,50.56309102,162.44],[4.9053468,50.56305502,162.46],[4.90533018,50.56228846,162.31],[4.90532452,50.5622498,162.27],[4.90500463,50.56131722,162.03],[4.90499597,50.56127356,162.03],[4.9048731,50.55975473,162.5],[4.90486444,50.55970707,162.57],[4.9046848,50.55942943,162.7],[4.90466947,50.5593811,162.68],[4.90468413,50.55861619,162.49],[4.90468047,50.55856053,162.52],[4.90449263,50.55696502,162.88],[4.9044883,50.55693136,162.93],[4.90154815,50.5373561,181.5],[4.90154616,50.5373311,181.54],[4.90027373,50.52959872,189.79],[4.90026473,50.52956939,189.84],[4.89969935,50.52821801,191.73],[4.89969102,50.52819835,191.74],[4.89863699,50.52623633,191.84],[4.89860566,50.526197,191.86],[4.89776344,50.52529978,192.29],[4.89772145,50.52526612,192.32],[4.89515573,50.52345738,189.94],[4.8950984,50.52341872,189.83],[4.89326255,50.52240121,187.24],[4.89276022,50.52216722,186.25],[4.88056798,50.51685472,172.11],[4.88055599,50.51685106,172.11],[4.88146951,50.51723691,172.44],[4.8814775,50.51724357,172.52],[4.88104858,50.51703664,172.24],[4.88104558,50.51702864,172.23],[4.88123756,50.51690733,172.75],[4.88125555,50.51688833,172.82],[4.8815058,50.51648605,174.73],[4.88152279,50.51645706,174.86],[4.88214891,50.51482263,178.96],[4.88215924,50.51479397,179.07],[4.88234833,50.51348019,184.35],[4.88235633,50.51344753,184.34],[4.88275853,50.51241166,181.53],[4.88277652,50.512366,181.29],[4.88342198,50.50974259,175.88],[4.88344331,50.50966526,175.57],[4.88428072,50.50750188,176.83],[4.88428972,50.50747288,176.9],[4.8845578,50.50585385,183.33],[4.88455414,50.50582685,183.27],[4.88451551,50.50569487,182.81],[4.88448851,50.50566821,182.68],[4.88389692,50.50522062,181.46],[4.88386259,50.50518096,181.41],[4.88320934,50.50424773,179.32],[4.88317501,50.5041954,179.24],[4.88238481,50.50288661,178.61],[4.88235815,50.50283795,178.58],[4.88197126,50.50180872,177.78],[4.88194227,50.50176672,177.74],[4.88061416,50.50053462,178.03],[4.88058883,50.50050496,178],[4.87961271,50.4988062,170.62],[4.87957605,50.49875521,170.36],[4.87786826,50.49741706,164.94],[4.87786693,50.4973994,164.89],[4.87926578,50.49674422,160.79],[4.87936644,50.49670556,160.4],[4.881582,50.49608931,148.59],[4.88166399,50.49606798,148.2],[4.8818513,50.49592067,145.93],[4.88184597,50.49588834,145.65],[4.88121838,50.49541507,143.61],[4.88117138,50.49537041,143.44],[4.87620478,50.49024786,133.31],[4.87615479,50.49019286,133.17],[4.87575684,50.48960824,132.14],[4.87572384,50.48954791,132.01],[4.8749303,50.48791705,128.44],[4.87490264,50.48785506,128.27],[4.87485066,50.48760375,127.64],[4.87486299,50.48754109,127.49],[4.87511395,50.48721245,126.67],[4.87518294,50.48716912,126.32],[4.87668454,50.48686287,124.35],[4.87677853,50.48684188,124.23],[4.87726017,50.48662824,123.23],[4.87732116,50.48657858,123.09],[4.8775188,50.48628626,122.14],[4.8775358,50.4862226,121.97],[4.87741182,50.48578763,120.85],[4.87736582,50.48573163,120.68],[4.87577032,50.48404078,117.47],[4.87572066,50.48399345,117.31],[4.87279091,50.48141772,110.54],[4.87272792,50.48136706,110.4],[4.8701284,50.47977389,105.77],[4.87005507,50.47972623,105.56],[4.86861352,50.47862332,99.6],[4.86852619,50.47856766,99.28],[4.8675209,50.47806605,96.97],[4.86744524,50.47801672,96.75],[4.86627169,50.47698714,94.27],[4.8662377,50.47692581,94.04],[4.86613506,50.47633418,92.94],[4.86614672,50.47626985,92.74],[4.86646899,50.47545359,90.27],[4.86648699,50.47538826,90.06],[4.86658357,50.47460865,87.84],[4.8666009,50.47454932,87.71],[4.86686353,50.47407471,86.81],[4.86687552,50.47402305,86.71],[4.86675057,50.47342712,85.83],[4.86675057,50.47338046,85.77],[4.86690478,50.47232524,84.48],[4.86690511,50.47228258,84.42],[4.86687747,50.47193594,83.4],[4.86686347,50.47189294,83.29],[4.86637229,50.47092308,81.53],[4.86636163,50.47089475,81.53],[4.86625998,50.47083943,81.6],[4.86616532,50.47084009,81.44],[4.86594005,50.47058547,81.05],[4.86594438,50.47050181,80.56],[4.86610367,50.47044583,81.11],[4.86612367,50.47044882,81.32],[4.86672156,50.47068707,87.39],[4.86767222,50.47065341,94.58],[4.86781075,50.46918161,96.98],[4.86781075,50.46914261,96.95],[4.86757349,50.46867537,98.73],[4.86757882,50.46864571,98.66],[4.86811574,50.4685544,99.03],[4.8681334,50.46853707,99.14],[4.86811974,50.46832679,99.87],[4.86813307,50.4682898,99.88],[4.86863429,50.46721957,97.93],[4.86864595,50.46718291,98.01],[4.86895341,50.46578339,104.69],[4.86895474,50.46575973,104.84],[4.8667327,50.46447999,113.58],[4.86672637,50.46445266,113.68],[4.8677972,50.46388316,118.04],[4.86781086,50.46386583,118.15],[4.86768989,50.46361023,119.75],[4.86767723,50.46359623,119.91],[4.86785517,50.4628804,117.86],[4.86786517,50.46286707,117.78],[4.86840276,50.46292034,115.44],[4.86843209,50.46291735,115.36],[4.86954491,50.46250883,114.26],[4.86956757,50.46249617,114.24],[4.86951362,50.46183899,112.56],[4.86950729,50.46181099,112.4],[4.86938232,50.46170235,111.78],[4.86934399,50.46169169,111.68],[4.86867776,50.46165842,109.79],[4.8686601,50.46165609,109.68],[4.86782358,50.46144421,106.04],[4.86778159,50.46141788,106.05],[4.86772159,50.4612669,105.69],[4.86774959,50.46122824,105.58],[4.86836021,50.46100794,104.66],[4.86842087,50.46097628,104.52],[4.86856285,50.46074964,104.04],[4.86853286,50.46071964,103.94],[4.8669314,50.45980816,99.76],[4.86689974,50.45979283,99.69],[4.8664678,50.4599731,98.46],[4.8664408,50.45997543,98.41],[4.86611916,50.45983515,97.65],[4.86607283,50.45981216,97.55],[4.863099,50.4575593,89.19],[4.86307034,50.45753364,89.14],[4.86238051,50.45660019,86.63],[4.86236952,50.45657886,86.56],[4.86188136,50.4550841,80.66],[4.86187303,50.45505677,80.57],[4.86204599,50.45483616,79.87],[4.86203799,50.45481317,79.82],[4.86084369,50.45296119,74.44],[4.86082403,50.45292819,74.38],[4.86058078,50.45207397,71.63],[4.86056712,50.45204397,71.55],[4.85996388,50.45169838,70.85],[4.85993422,50.45171871,70.85],[4.86035385,50.45197702,71.33],[4.86039351,50.45198001,71.29],[4.86049616,50.45194469,71.21],[4.86051382,50.45191969,71.19],[4.86053379,50.45170506,71.02],[4.86053346,50.45167107,70.99],[4.85955105,50.44746634,70.24],[4.85954472,50.44743368,70.25],[4.85916968,50.44523171,70.37],[4.85916335,50.44518705,70.3],[4.85897651,50.44317891,69.78],[4.85898417,50.44312558,69.76],[4.85946506,50.4416347,69.4],[4.85949005,50.44158637,69.35],[4.86077953,50.43979858,69.59],[4.86080186,50.43976359,69.61],[4.86214025,50.43733121,69.82],[4.86216025,50.43728755,69.83],[4.86319975,50.43316139,69.58],[4.86321908,50.43312606,69.57],[4.86422194,50.43192024,69.96],[4.86426227,50.43188091,69.94],[4.8669316,50.4296992,68.72],[4.86696693,50.42966521,68.65],[4.86940658,50.42673122,69.85],[4.86945158,50.42669556,69.85],[4.87201095,50.42474654,70.13],[4.87205861,50.42471955,70.15],[4.87421978,50.42363773,70.31],[4.87426744,50.4236144,70.33],[4.8770719,50.42241999,70.57],[4.87710623,50.42238333,70.56],[4.87794204,50.42118586,69.8],[4.8779587,50.42114887,69.81],[4.87821284,50.4197491,70.14],[4.8782235,50.41970911,70.14],[4.87868469,50.41848093,69.93],[4.87871069,50.41844027,69.93],[4.87906398,50.41799197,69.93],[4.87910231,50.41795397,69.93],[4.88080611,50.41640684,70.06],[4.88084244,50.41636785,70.06],[4.8819643,50.41496531,69.77],[4.88199896,50.41492031,69.77],[4.88246089,50.41418338,69.91],[4.88248555,50.41413772,69.95],[4.88315222,50.4111734,69.94],[4.88316021,50.4111314,69.9],[4.88315627,50.40968156,69.8],[4.88315228,50.4096409,69.71],[4.88267558,50.40721317,69.78],[4.88266692,50.40717251,69.78],[4.88257738,50.40550437,69.34],[4.88257139,50.40545871,69.27],[4.88235883,50.40461846,69.18],[4.88234283,50.40457847,69.17],[4.88146611,50.40273141,70.52],[4.88145745,50.40269442,70.54],[4.88119854,50.39900518,71.05],[4.88119521,50.39896619,71.05],[4.88088739,50.39774237,71.54],[4.88087906,50.39770604,71.58],[4.88088172,50.39708375,70.85],[4.88087573,50.39703542,70.83],[4.88029581,50.39335789,70.67],[4.88028848,50.39331756,70.68],[4.8794059,50.39013501,71.07],[4.87939857,50.39010168,71.09],[4.8791299,50.38704549,71.95],[4.87912724,50.38701183,71.97],[4.87897333,50.38649056,72.05],[4.87895467,50.38645357,72.13],[4.87864771,50.38607829,72.26],[4.87860938,50.38604696,72.26],[4.87787747,50.38560636,72.39],[4.87783181,50.38558337,72.39],[4.87532078,50.38468131,74.18],[4.87527312,50.38466731,74.25],[4.87311635,50.38404985,75.88],[4.87306302,50.38403652,75.91],[4.87135517,50.38369168,75.53],[4.87129517,50.38367835,75.53],[4.87018028,50.38349011,75.58],[4.87012595,50.38348478,75.6],[4.86895671,50.38347512,76.08],[4.86889972,50.38346913,76.04],[4.86821312,50.38331887,75.38],[4.86815979,50.38329888,75.34],[4.86743887,50.38286763,74.27],[4.86740921,50.38283597,74.27],[4.86679138,50.38178915,75.04],[4.86678739,50.38175782,75.07],[4.86718258,50.3810233,74.59],[4.86718258,50.3810183,74.57],[4.86813806,50.37993282,74.29],[4.86818839,50.37990683,74.29],[4.87031653,50.37904204,74.61],[4.87036819,50.37902571,74.61],[4.87458723,50.37792242,75.19],[4.87465789,50.37790342,75.17],[4.87619507,50.37739886,74.86],[4.87624906,50.37737853,74.81],[4.87721862,50.37678798,74.69],[4.87725328,50.37675865,74.71],[4.87769853,50.37612508,74.69],[4.87771186,50.37609242,74.69],[4.8777988,50.37535454,74.65],[4.8777968,50.37531721,74.63],[4.87761886,50.37468462,74.69],[4.87759987,50.37464763,74.65],[4.87725462,50.37407469,74.43],[4.87722996,50.37404103,74.41],[4.87680304,50.37364011,76.12],[4.87678238,50.37361845,76.39],[4.87610852,50.37265959,77.34],[4.87608319,50.3726206,77.27],[4.87288166,50.3670661,76.93],[4.87285733,50.3670261,76.93],[4.87103334,50.36438277,77.14],[4.87101134,50.36434644,77.19],[4.87091944,50.36360354,76],[4.87091944,50.36355755,75.94],[4.87101137,50.3629233,74.91],[4.87102603,50.36288231,74.83],[4.87144424,50.36208372,73.99],[4.87146223,50.36204306,74.02],[4.87207028,50.36045896,75.37],[4.87207828,50.3604323,75.33],[4.87344629,50.35837666,75.8],[4.87347328,50.358341,75.79],[4.87438947,50.35755683,75.81],[4.87443713,50.35752717,75.8],[4.87701955,50.35614845,75.31],[4.87706321,50.35611312,75.27],[4.87757045,50.35555952,75.13],[4.87759311,50.35551986,75.13],[4.87776937,50.35481761,75.31],[4.87776104,50.35477661,75.27],[4.87763941,50.354373,74.91],[4.87762241,50.35433567,75.04],[4.87739178,50.35402771,75.24],[4.87736112,50.35399672,75.24],[4.87691317,50.35364477,75.49],[4.87686518,50.35361644,75.52],[4.87623125,50.35334417,74.88],[4.87618092,50.35332918,74.88],[4.87044655,50.35239115,75.51],[4.87039622,50.35238182,75.55],[4.86950171,50.35250548,76.39],[4.86949271,50.35250449,76.4],[4.86935638,50.35245384,76.58],[4.86933605,50.35211918,74.88],[4.86716424,50.35163738,74.83],[4.86711258,50.35162805,74.82],[4.85831576,50.35162258,75],[4.85827177,50.35162192,75],[4.85677762,50.35151871,75.32],[4.85671563,50.35150972,75.32],[4.85521311,50.3511735,75.21],[4.85516378,50.35115884,75.21],[4.85447519,50.35089492,75.17],[4.85443886,50.35087893,75.15],[4.85362464,50.35036473,75.23],[4.85359465,50.35034273,75.24],[4.85306412,50.34958087,75.18],[4.85305012,50.34954788,75.18],[4.8530794,50.34810607,74.58],[4.85308273,50.34807041,74.58],[4.85336886,50.34672164,74.97],[4.85337852,50.34669565,74.99],[4.85399635,50.34577048,74.87],[4.85402468,50.34573849,74.86],[4.85515216,50.344729,75.11],[4.85518082,50.344701,75.12],[4.85585268,50.34395043,76.52],[4.85588468,50.34391944,76.56],[4.85749544,50.34244434,76.36],[4.85752744,50.34241701,76.35],[4.8600757,50.34049971,76.94],[4.86010403,50.34047838,76.98],[4.86089582,50.33949787,75.61],[4.86093615,50.33945521,75.49],[4.86158141,50.33896196,75],[4.86162274,50.3389373,74.98],[4.86307725,50.33837513,74.98],[4.86311891,50.33836247,75.02],[4.86706316,50.3374166,76.57],[4.86711216,50.33740461,76.61],[4.86934728,50.33713146,77.13],[4.86939661,50.33711813,77.19],[4.8706908,50.33646562,76.9],[4.87072546,50.33643463,76.94],[4.87170097,50.33524046,76.99],[4.87172797,50.33519813,76.96],[4.87195888,50.33448389,77.31],[4.87196121,50.33444323,77.33],[4.87144379,50.33007747,77.17],[4.87143846,50.33004248,77.27],[4.871009,50.32861198,78.14],[4.87100401,50.32857332,78.16],[4.87112089,50.32733151,78.39],[4.87113288,50.32728852,78.49],[4.87135946,50.32661194,79.53],[4.87137812,50.32657161,79.45],[4.87189233,50.32569042,79.48],[4.87191766,50.32565643,79.52],[4.87435264,50.32322475,77.49],[4.87437464,50.32318575,77.48],[4.87600273,50.31881472,77.92],[4.87601173,50.31878672,78.06],[4.87632953,50.31762223,79.87],[4.87633619,50.31759023,79.87],[4.87657222,50.31572154,78.84],[4.87657955,50.31568855,78.81],[4.87767035,50.31427441,77.94],[4.87769134,50.31425175,77.95],[4.87760436,50.31416111,77.91],[4.8776037,50.31415645,77.91],[4.87772934,50.31415314,79.41],[4.87775167,50.31413748,79.4],[4.87848556,50.31338558,79.44],[4.87852156,50.31335258,79.44],[4.87992871,50.31223611,79.81],[4.87996604,50.31220811,79.85],[4.88311324,50.31020048,79.73],[4.88315324,50.31017482,79.73],[4.8861506,50.30855014,80.18],[4.88619893,50.30852214,80.14],[4.88968984,50.30637721,80.2],[4.88973883,50.30634988,80.22],[4.89128702,50.30566633,80.49],[4.89133868,50.305639,80.49],[4.89421705,50.30388132,80.83],[4.89425571,50.30385566,80.82],[4.89497291,50.3032111,80.65],[4.89499991,50.30318377,80.63],[4.89595538,50.30191958,80.67],[4.89597538,50.30187959,80.67],[4.89618796,50.30114169,80.82],[4.89619096,50.30110303,80.85],[4.89610903,50.30003985,80.77],[4.89610104,50.29999852,80.77],[4.89586816,50.29912497,80.82],[4.8958555,50.29908764,80.73],[4.89525409,50.29761718,81.09],[4.89524276,50.29758319,81.15],[4.89503687,50.29658567,81.83],[4.89502521,50.29654834,81.83],[4.89478428,50.29604639,81.72],[4.89477162,50.29600139,81.77],[4.89456385,50.29413559,82.03],[4.89455652,50.29409093,82.04],[4.894151,50.29273573,81.76],[4.89413567,50.2926904,81.74],[4.89358777,50.29170217,81.66],[4.89355511,50.29165751,81.65],[4.8914441,50.28901385,81.67],[4.89141944,50.28898019,81.69],[4.89100024,50.28797401,81.8],[4.89099158,50.28793635,81.73],[4.89088536,50.28629287,82.06],[4.89089035,50.28625754,82.06],[4.89177957,50.28262936,82.35],[4.8917969,50.28259103,82.35],[4.89253373,50.28129419,82.47],[4.89255673,50.28125086,82.47],[4.89366285,50.27887676,82.34],[4.89368318,50.2788361,82.4],[4.89434404,50.27780455,82.87],[4.89437537,50.27776322,82.93],[4.8958639,50.27614706,82.59],[4.89592456,50.2760914,82.72],[4.89897191,50.27365405,82.74],[4.89900257,50.27362639,82.74],[4.90234714,50.27018484,84.23],[4.90236813,50.27016251,84.2],[4.90329523,50.26900307,83.83],[4.90331422,50.26897408,83.82],[4.90379808,50.2680386,83.93],[4.90381607,50.2680056,83.93],[4.90580449,50.26481417,83.9],[4.90582515,50.26478117,83.9],[4.90723587,50.26298083,83.74],[4.90726487,50.26294984,83.7],[4.90802011,50.26222695,83.82],[4.90805277,50.26220229,83.86],[4.90994343,50.26095436,84.06],[4.90996376,50.26093836,84.07],[4.91044059,50.26022586,87.54],[4.91046392,50.26021453,87.59],[4.91248222,50.26068758,87.01],[4.91251022,50.26068891,86.91],[4.91217222,50.25986025,83.33],[4.91264298,50.25876051,83.12],[4.91265664,50.25873251,83.07],[4.91354415,50.255936,83.79],[4.91355715,50.255914,83.74],[4.91557903,50.25332113,82.94],[4.91560503,50.25329114,82.95],[4.91831226,50.25073958,83.07],[4.91833225,50.25072125,83.07],[4.91971352,50.24916434,83.76],[4.91972752,50.24914768,83.76],[4.92031371,50.24817283,83.3],[4.9203297,50.24814283,83.29],[4.92065359,50.24732329,83.39],[4.92066225,50.24728229,83.39],[4.92090196,50.24467795,84.67],[4.92090762,50.24463329,84.61],[4.92117947,50.2437338,84.26],[4.92117914,50.24370747,84.29],[4.92055029,50.24263063,83.57],[4.92053163,50.24260164,83.53],[4.91884292,50.24091892,84.76],[4.91881059,50.24089626,84.79],[4.91751039,50.24022475,84.42],[4.91746573,50.24020442,84.45],[4.9164615,50.23986353,84.39],[4.91642717,50.23983987,84.38],[4.91637885,50.23975655,84.4],[4.91638884,50.23973189,84.4],[4.91684741,50.23936032,86.96],[4.91685641,50.23934199,86.96],[4.91680706,50.23903109,89.55],[4.91678573,50.23901643,89.75],[4.91623356,50.23869923,93.98],[4.91621356,50.23869057,94.27],[4.9135931,50.23773038,111.64],[4.91357111,50.23772239,111.64],[4.91290557,50.23737855,116.38],[4.91288991,50.23736522,116.51],[4.91116314,50.23561908,134.75],[4.91115048,50.23560308,134.92],[4.91088963,50.23505791,139.89],[4.91088464,50.23504025,140.03],[4.91075582,50.23414818,147.66],[4.91074782,50.23413119,147.78],[4.91008039,50.23357673,153.88],[4.91006673,50.23356207,154.04],[4.91004775,50.2333218,155.38],[4.91006575,50.23330881,155.43],[4.91039201,50.23320589,156.8],[4.91041801,50.2332029,156.93],[4.91208272,50.23312008,164.96],[4.91210805,50.23312441,165.08],[4.91519867,50.23482836,182.57],[4.915225,50.23483669,182.65],[4.9188096,50.23532925,200.74],[4.91883193,50.23533158,200.83],[4.91901855,50.23533256,201.86],[4.91903788,50.2353239,202],[4.91905288,50.23521628,203.34],[4.91904789,50.23521262,203.43],[4.91932587,50.23539627,203.91],[4.91935453,50.23540593,204.03],[4.92039304,50.2355684,209.32],[4.9204207,50.23557106,209.43],[4.92114159,50.23553778,212.91],[4.92116792,50.23553379,213.06],[4.92611414,50.23466124,227.83],[4.92617247,50.23466058,227.86],[4.93042939,50.23527842,230.15],[4.93047205,50.23528508,230.25],[4.93392989,50.23597658,238.53],[4.93395789,50.23598191,238.52],[4.93710908,50.23632647,246.05],[4.93714474,50.2363308,246.12],[4.93821925,50.23658263,249.21],[4.93825658,50.23658529,249.32],[4.94001403,50.23656399,252.65],[4.94004703,50.236558,252.75],[4.94079727,50.23617945,255.36],[4.94084027,50.23616479,255.46],[4.94253647,50.23572759,253.76],[4.94260546,50.23573158,253.53],[4.94502909,50.23643582,265.69],[4.94505509,50.23644481,265.81],[4.94630719,50.23704391,269.83],[4.94633852,50.23705491,269.91],[4.94811889,50.237401,272.6],[4.94815322,50.23740966,272.69],[4.94936272,50.23788912,276.79],[4.94940405,50.23789945,276.91],[4.95615718,50.23892862,272.38],[4.95621817,50.23893228,272.37],[4.96408241,50.23923681,278.33],[4.96414207,50.23923814,278.29],[4.96797845,50.23899939,271.88],[4.96803378,50.23900039,271.75],[4.96836375,50.23910301,271.06],[4.96839941,50.23912934,270.93],[4.96866201,50.23946696,269.85],[4.96869434,50.23946962,269.8],[4.97042876,50.23924518,275.6],[4.97043576,50.23924352,275.77],[4.98854659,50.23811231,253.15],[4.98860592,50.23810932,253.2],[4.98886818,50.23805837,253.5],[4.98887217,50.23805837,253.49],[4.98875384,50.23802138,253.52],[4.98875483,50.23802072,253.51],[4.99019333,50.23802311,255.33],[4.99025666,50.23802078,255.27],[4.9904243,50.23790781,253.97],[4.99043896,50.23788182,253.95],[4.99073753,50.23715359,252.61],[4.99076353,50.23711559,252.52],[4.99209201,50.2353771,245.72],[4.992109,50.2353391,245.55],[4.99143941,50.23472721,245.04],[4.9914634,50.23470988,244.98],[4.9985637,50.23270654,203.67],[4.9985937,50.23269655,203.66],[4.9987453,50.23242064,206.01],[4.9987473,50.23241798,206.17],[5.00119877,50.23148519,215.4],[5.00123143,50.23146853,215.34],[5.0013764,50.23120723,214.42],[5.00141373,50.2311659,214.2],[5.00170471,50.23097559,212.62],[5.00176804,50.23094693,212.29],[5.00334729,50.2305897,206.53],[5.00342028,50.23056204,206.29],[5.00429088,50.23017645,202.88],[5.00433354,50.23015479,202.54],[5.00468245,50.22981552,196.94],[5.00470178,50.22979819,196.64],[5.00503905,50.22967389,194.79],[5.00509638,50.22965723,194.55],[5.00746717,50.22940343,178.84],[5.00751016,50.22939243,178.53],[5.00779011,50.22913815,177.17],[5.00780244,50.22911582,177.11],[5.00774413,50.22893288,176.88],[5.00774812,50.22893222,176.86],[5.00780739,50.22907216,176.95],[5.00780073,50.22909349,176.98],[5.00754484,50.22940007,177.2],[5.00753684,50.22939241,177.19],[5.00760581,50.2293101,177.23],[5.00760981,50.22930644,177.25],[5.00761715,50.22947141,177.13],[5.00763581,50.22949774,177.12],[5.00797576,50.22969202,178.29],[5.00799509,50.22969468,178.4],[5.00935987,50.22934029,182.35],[5.0096632,50.22926529,185.05],[5.00915731,50.2293885,182.65],[5.00913932,50.2293935,182.54],[5.00915028,50.22948178,181.79],[5.00915428,50.22948477,181.77],[5.01203999,50.22945482,183.89],[5.01208665,50.22945782,183.99],[5.01280255,50.22972705,183.46],[5.01285288,50.22973971,183.4],[5.01365678,50.22984031,182.87],[5.01370477,50.22984331,182.9],[5.01687703,50.22967231,183.34],[5.01691369,50.22967065,183.35],[5.01751028,50.22971892,183.31],[5.01754528,50.22972458,183.34],[5.01832151,50.22996579,183.41],[5.01834751,50.22998112,183.44],[5.01897465,50.23063762,184.9],[5.01899598,50.23065695,185.03],[5.01928126,50.23082423,186.2],[5.01931492,50.23083823,186.34],[5.02292242,50.23184406,192.51],[5.02295975,50.23185239,192.61],[5.02569038,50.2318828,195.78],[5.02572571,50.23188513,195.82],[5.02750779,50.23226456,198.71],[5.02754478,50.23226755,198.77],[5.03038678,50.23217917,201.52],[5.03043311,50.23218483,201.53],[5.03157431,50.23240704,201.11],[5.0316143,50.23242037,201.1],[5.03257713,50.2329209,201.68],[5.03261479,50.23293789,201.67],[5.033568,50.23326877,199.69],[5.03359566,50.23326244,199.61],[5.03377087,50.23282759,203.92],[5.0337742,50.23281993,204.06],[5.03419581,50.23223598,209.25],[5.03408815,50.23204632,212.77],[5.03167246,50.23110102,228.46],[5.0316598,50.23109469,228.57],[5.03142559,50.23093478,231.09],[5.03141693,50.23092712,231.21],[5.03107743,50.23042357,237.58],[5.03105577,50.23040524,237.66],[5.03007894,50.22980006,239.74],[5.03006861,50.22977373,239.75],[5.03026421,50.22926153,240.01],[5.03027821,50.2292372,240.02],[5.03187662,50.22692946,257.73],[5.03188295,50.22692013,257.86],[5.03238116,50.22595425,269.19],[5.03238282,50.22594259,269.31],[5.0322356,50.22570168,270.93],[5.03222894,50.22569902,271.01],[5.02950033,50.22490604,273.54],[5.02947567,50.22489404,273.13],[5.03137982,50.22434485,269.59],[5.03142882,50.22431919,269.35],[5.03146615,50.22420887,268.96],[5.03144315,50.22417287,268.91],[5.0307236,50.22367465,265.46],[5.03070727,50.22366532,265.34],[5.03080593,50.223634,264.18]]}}]}