{"type":"FeatureCollection","features":[{"type":"Feature","properties":{"name":"20260415 Cicloturismo","time":"2026-04-15T07:30:40Z"},"geometry":{"type":"LineString","coordinates":[[11.982297,57.69945333,20],[11.98227603,57.69940302,18.93],[11.98229236,57.69939236,18.4],[11.98302492,57.69904414,17.79],[11.98307158,57.69904447,17.79],[11.98337322,57.69913311,17.66],[11.98342922,57.6991531,17.6],[11.98563664,57.70003385,5.46],[11.9856963,57.70004618,5.86],[11.98636823,57.70006215,11.2],[11.98643789,57.70006548,11.6],[11.98745181,57.70016974,7.66],[11.9875208,57.70017373,7.26],[11.98842773,57.70014576,6.73],[11.98851239,57.70014909,6.73],[11.99147421,57.70036991,3.46],[11.99154421,57.70037491,3.6],[11.9916912,57.70041656,4],[11.99171786,57.70044289,4],[11.99174951,57.70067687,3.86],[11.99174051,57.70071787,3.8],[11.99158621,57.70098583,3.33],[11.99157055,57.70102449,3.26],[11.99140198,57.70172842,2],[11.99138598,57.70177075,1.93],[11.99132534,57.70189641,2.13],[11.99129801,57.70193674,2.26],[11.99100538,57.7022757,3.93],[11.99097772,57.70231503,4.13],[11.99082476,57.70259298,4.06],[11.9908071,57.70263264,4],[11.99055284,57.70327788,2.26],[11.99053884,57.70331821,2.13],[11.99031795,57.70408479,2.6],[11.99030196,57.70412445,2.73],[11.99010132,57.70436975,3.6],[11.99008599,57.70440274,3.66],[11.99005836,57.70472836,4],[11.99005237,57.70476636,4],[11.98989075,57.70535194,3.6],[11.98987509,57.70539593,3.8],[11.98960381,57.70588655,5.6],[11.98958348,57.70593388,5.73],[11.98932992,57.70667581,3.53],[11.98931192,57.7067188,3.6],[11.9892266,57.70683613,4.93],[11.98918194,57.70686846,5.53],[11.98888997,57.7069891,10.2],[11.98882198,57.7070001,11.13],[11.98845801,57.70702642,13.93],[11.98837935,57.70702841,13.86],[11.98746874,57.70701477,8.6],[11.98738641,57.70701543,8.06],[11.98707677,57.70706041,6.66],[11.98700144,57.7070704,6.46],[11.98668812,57.7070744,5.6],[11.98660679,57.7070734,5.4],[11.98582484,57.70704478,4.13],[11.98575618,57.70703945,4.06],[11.98538857,57.70695784,3.93],[11.98536858,57.70695551,3.86],[11.98447737,57.70693688,3.73],[11.98442171,57.70693688,3.93],[11.98358643,57.70698616,5.93],[11.98350743,57.70699216,5.93],[11.98277581,57.70708713,5.8],[11.98269148,57.70709513,5.8],[11.98209718,57.70710908,10.13],[11.98201385,57.70710974,10.46],[11.98135588,57.70707111,10.13],[11.98127055,57.70706878,9.6],[11.97948164,57.7070771,5.66],[11.97938665,57.7070771,5.33],[11.97781943,57.70703349,3.46],[11.9777691,57.70703415,3.66],[11.97727281,57.70719309,6.13],[11.97720881,57.70720275,6.13],[11.97542894,57.7072194,5.8],[11.97536894,57.70721973,5.53],[11.9750153,57.70730569,4.13],[11.97495497,57.70731202,3.93],[11.97383471,57.70734166,11.8],[11.97376505,57.70734166,12.26],[11.97174651,57.70730609,7.93],[11.97169018,57.70730842,7.86],[11.97159753,57.70733108,7.86],[11.9715742,57.70735207,7.93],[11.97159818,57.70744472,9.2],[11.97160118,57.70746672,9.2],[11.97152452,57.70751237,11.2],[11.97147319,57.70751403,11.53],[11.96780212,57.70699563,2.33],[11.96776179,57.70698997,2.26],[11.96707817,57.70681404,2.73],[11.96701317,57.70680238,2.86],[11.96360571,57.70626891,5.6],[11.96352205,57.70625625,5.2],[11.9627481,57.70617397,6.73],[11.96267077,57.7061753,7.2],[11.9614975,57.70629556,9.06],[11.96143184,57.70630489,8.73],[11.96066825,57.70646547,6.8],[11.96063692,57.70648413,7.46],[11.96060593,57.70655112,9.46],[11.96061059,57.70657545,9.93],[11.96071389,57.70673043,10.86],[11.96072889,57.70676043,10.53],[11.96082786,57.70702339,11.46],[11.96084619,57.70706338,11.6],[11.96103848,57.707457,15.93],[11.96105981,57.70749433,16],[11.96126544,57.70777962,11.86],[11.96126643,57.70780062,10.66],[11.96115779,57.70786093,6.53],[11.96110946,57.70787193,5.73],[11.96046552,57.70795687,2.8],[11.96042852,57.70795354,2.93],[11.96029656,57.70787856,4.26],[11.9602919,57.70787523,4.4],[11.96014025,57.70770292,5.33],[11.96010359,57.70766793,5.26],[11.95963364,57.70726231,2.73],[11.95959031,57.70721898,2.53],[11.9593407,57.70676136,2.13],[11.9592937,57.7067287,2.53],[11.95911672,57.70665472,3.26],[11.95906606,57.70662606,3.26],[11.95869243,57.70634811,5.66],[11.95863977,57.70631878,5.53],[11.95803115,57.7061795,3.26],[11.95796949,57.7061585,2.93],[11.95732721,57.70582555,1.26],[11.95727721,57.70579555,1.26],[11.95701258,57.70556893,1.33],[11.95698359,57.7055396,1.4],[11.95685896,57.70533696,1.86],[11.9568353,57.70530163,1.93],[11.95671731,57.70520131,2.13],[11.95667065,57.70516898,2.2],[11.95621404,57.70492838,2.46],[11.95621004,57.70492739,2.4],[11.95628668,57.7049224,3.26],[11.95628968,57.70492107,3.93],[11.95555442,57.70451981,6.66],[11.95550342,57.70448948,6.53],[11.95408422,57.7035923,6],[11.95405489,57.70355464,6.2],[11.9540329,57.70329501,5.86],[11.9540189,57.70325135,5.8],[11.95367496,57.70287806,8.6],[11.95368262,57.70283707,8.66],[11.95380527,57.70271875,8.8],[11.9538586,57.70268109,8.8],[11.95458419,57.70222782,4],[11.95462952,57.70219449,3.6],[11.95466318,57.7021585,3.6],[11.95468351,57.70212084,3.4],[11.95468518,57.70204318,3.26],[11.95466918,57.70200452,3.33],[11.95441821,57.70174856,5],[11.95436255,57.7017159,5.53],[11.95421623,57.70166524,6.66],[11.95413323,57.70164758,6.66],[11.95383959,57.70161593,10.53],[11.95378926,57.70160327,11.4],[11.95364762,57.7015053,12.06],[11.95361829,57.70147164,12],[11.9535983,57.70135799,11.8],[11.95360996,57.701318,11.73],[11.95377427,57.70102903,7],[11.95377493,57.7009847,6.8],[11.95362265,57.70062242,5],[11.95360099,57.70059009,5],[11.95355366,57.70053077,5],[11.95352267,57.70050577,5],[11.95337603,57.70044213,4.33],[11.9533667,57.70043847,4.33],[11.9533154,57.70032683,4.8],[11.9533064,57.70030483,5.06],[11.95326677,57.70016152,5.73],[11.95327176,57.70014286,5.86],[11.95346038,57.70002723,8.8],[11.95346671,57.70000523,8.8],[11.95339042,57.69983227,11.66],[11.95337676,57.69981127,12.13],[11.95325112,57.69971096,14.33],[11.95321913,57.69969063,15.13],[11.95305115,57.69962066,16.53],[11.95299849,57.69960666,16.86],[11.95243854,57.69949238,15.6],[11.95240354,57.69948705,15.4],[11.95207662,57.69948104,15.66],[11.95205562,57.69946538,16.86],[11.9508699,57.69740897,9.53],[11.95086591,57.69736697,9],[11.95096253,57.69705501,7.86],[11.95097752,57.69701601,8.06],[11.9521095,57.69415205,18.73],[11.95212683,57.69410772,19.4],[11.95235041,57.69335546,17.93],[11.95235874,57.69331247,16.93],[11.9523897,57.69275488,15.2],[11.95238737,57.69271522,15.4],[11.95227246,57.6919633,23.73],[11.9522598,57.69192064,23.73],[11.95196621,57.69136771,17.33],[11.95194021,57.69132905,17],[11.95185655,57.6912194,16],[11.95182022,57.69118607,16],[11.95156024,57.69098111,15.86],[11.95153391,57.69095045,15.8],[11.95142828,57.6906935,14.93],[11.95142861,57.69065884,14.86],[11.95145892,57.69055252,14.73],[11.95147858,57.69051686,14.6],[11.9515689,57.69041354,14.4],[11.95161756,57.69038588,14.4],[11.95174754,57.69033857,14.06],[11.95176554,57.69033391,14.06],[11.95256512,57.69024496,14.4],[11.95263678,57.69022563,14.53],[11.95269911,57.6901993,14.86],[11.95275177,57.69016764,14.86],[11.95286275,57.69004932,15.46],[11.95288408,57.69000599,15.86],[11.95289574,57.689922,16.06],[11.95288575,57.68988167,16.26],[11.95275377,57.68970502,16.46],[11.95273311,57.68967036,16.46],[11.95260583,57.68924708,15.26],[11.9526005,57.68920742,15.13],[11.95260416,57.68916842,15],[11.95261749,57.68913043,15],[11.95272346,57.68898411,14.4],[11.95273079,57.68894445,14.4],[11.95267149,57.68856517,14],[11.95267116,57.68852551,14],[11.95272608,57.68736568,14.86],[11.95272509,57.68732535,15],[11.95270879,57.68705771,16.6],[11.95270346,57.68701205,16.86],[11.95265181,57.68682374,18.06],[11.95263215,57.68677641,18.4],[11.95213224,57.68596583,19.86],[11.95209524,57.68592183,19.73],[11.95093741,57.68467829,22.6],[11.95089875,57.68463829,22.86],[11.95026084,57.68404537,22.73],[11.95021584,57.68400804,22.8],[11.94932826,57.68330215,19.2],[11.94928093,57.68326549,19.2],[11.94853101,57.68275522,20.2],[11.94847935,57.68272289,20.26],[11.94765741,57.68221598,19.06],[11.94760242,57.68218465,19],[11.94572959,57.6812035,19.06],[11.94566493,57.68116917,19.13],[11.9451833,57.68086356,19.33],[11.94512797,57.68082323,19.46],[11.94492564,57.68066458,20],[11.94488064,57.68062192,20.13],[11.94447836,57.68014564,20.2],[11.94444237,57.68010431,20.06],[11.9438198,57.67945504,18.66],[11.94378347,57.67941738,18.66],[11.94321389,57.67889577,19.73],[11.94316789,57.67885744,19.86],[11.94276928,57.67855414,21.26],[11.94271495,57.67851748,21.4],[11.94149907,57.67778559,22.73],[11.94144941,57.67775393,23.2],[11.94098414,57.67740765,28.2],[11.94094715,57.67737666,28.8],[11.94043024,57.67686409,29.4],[11.94040125,57.67683176,29],[11.94002732,57.6763245,24.66],[11.94000199,57.67628317,24.13],[11.93984636,57.67598454,22.8],[11.9398267,57.67594121,22.53],[11.9396041,57.67534427,21],[11.93958544,57.67530528,21],[11.93940614,57.6750743,20],[11.93938215,57.6750333,20],[11.93942015,57.67487398,20.26],[11.93943181,57.67483365,20.4],[11.93942248,57.67470733,20.53],[11.93941182,57.67466367,20.53],[11.93902293,57.67365245,22.13],[11.93900493,57.67360946,22.13],[11.93797079,57.67169668,15.93],[11.93795113,57.67164802,15.86],[11.93779918,57.67120641,17],[11.93778419,57.67115808,17.6],[11.93755963,57.67030652,20.26],[11.93754497,57.67025952,20.26],[11.93735068,57.66993222,17.06],[11.93733102,57.66988222,16.6],[11.93674325,57.66788742,17.6],[11.93672792,57.66784342,17.6],[11.93661861,57.6677451,17.6],[11.93656395,57.66773544,17.6],[11.93587202,57.66779037,16.86],[11.93581469,57.66778971,16.73],[11.93570403,57.66777472,16.46],[11.9356577,57.66775773,16.33],[11.93560037,57.66770808,16.26],[11.93558704,57.66767909,16.13],[11.93548878,57.66719516,16.66],[11.93549011,57.66716483,16.73],[11.9355021,57.6671365,16.79],[11.93552876,57.6671125,16.93],[11.93566208,57.66706252,16.79],[11.93569674,57.66704053,16.79],[11.93575472,57.66695522,16.53],[11.93575306,57.66693823,16.46],[11.93557611,57.66674862,16],[11.93556245,57.66671963,16],[11.93534454,57.66594774,16.93],[11.93533421,57.66591041,16.86],[11.93512769,57.66492021,15.53],[11.93512136,57.66487855,15.53],[11.93517998,57.66438293,16.33],[11.93518364,57.66434227,16.4],[11.93508634,57.66409363,16.86],[11.93508535,57.6640593,16.93],[11.93513432,57.66383165,17.26],[11.93514631,57.66379366,17.33],[11.9352003,57.66373066,17.46],[11.93523163,57.66371167,17.6],[11.93575755,57.66368368,17.06],[11.93581754,57.66367735,16.93],[11.93587387,57.66366302,16.79],[11.93591986,57.66363969,16.66],[11.93596585,57.66356804,16.4],[11.93596751,57.66352604,16.4],[11.93551635,57.66196086,13.86],[11.93550135,57.66191253,13.86],[11.93530407,57.66143091,13.86],[11.93528541,57.66139058,13.93],[11.9348362,57.66062835,15.6],[11.93481787,57.66060102,15.6],[11.93475121,57.66055903,15.6],[11.93470288,57.6605477,15.53],[11.93429324,57.66052341,15.33],[11.93425691,57.66051208,15.26],[11.9341416,57.66031911,16.06],[11.93410194,57.66029612,16.26],[11.93394095,57.66025947,16.86],[11.93388096,57.66025847,17.06],[11.93270142,57.6603397,18],[11.93265476,57.6603407,18],[11.93253311,57.66029338,18],[11.93252611,57.66027138,18],[11.93255176,57.66023439,18],[11.93258476,57.66022339,18],[11.9329224,57.66018876,18],[11.93294773,57.66016543,18],[11.93292242,57.6599658,18],[11.93292176,57.65993847,18],[11.93297539,57.65979885,18],[11.93298538,57.65978252,18],[11.93299005,57.65979785,18],[11.93288306,57.65980951,18],[11.93287407,57.65985317,18],[11.93287341,57.65988017,18],[11.93291039,57.65999981,17.93],[11.93292639,57.66002914,17.86],[11.93303803,57.66017544,17.13],[11.93308236,57.6601961,16.93],[11.93319502,57.66021609,16.53],[11.93325735,57.66021908,16.33],[11.93404596,57.6601708,15.26],[11.93411662,57.66017979,15.26],[11.93428227,57.66025278,15.46],[11.9343156,57.66028644,15.53],[11.93439925,57.66050075,16.13],[11.93442858,57.66052341,16.4],[11.93452291,57.66054773,16.93],[11.9345799,57.66055139,17.2],[11.93471055,57.66050507,17.66],[11.93471654,57.66047308,18.06],[11.93440027,57.65981448,18.2],[11.93438128,57.65977082,18.2],[11.93426932,57.65938551,18.73],[11.93426332,57.65934585,18.86],[11.93429593,57.65703079,13.06],[11.9342896,57.65698946,13.26],[11.93423795,57.65686413,13.86],[11.93420829,57.65682314,14.06],[11.93398666,57.65660083,15.66],[11.93395833,57.65656283,15.86],[11.93387901,57.65635319,16.6],[11.93386702,57.65630953,16.73],[11.93250471,57.65039482,11.4],[11.93249405,57.65034816,11.33],[11.93249271,57.6500745,11.06],[11.93251437,57.65001517,11],[11.93277534,57.64968985,10.66],[11.93280567,57.64963985,10.53],[11.93281366,57.64949654,10.13],[11.93279667,57.64944988,10],[11.93246206,57.64876528,11.2],[11.93243173,57.64871695,11.4],[11.93228707,57.64852996,11.73],[11.93224474,57.64848463,11.46],[11.93199675,57.64826565,10.93],[11.93194009,57.64822332,10.73],[11.93163644,57.64802468,10.4],[11.93157378,57.64798868,10.26],[11.93124647,57.64783404,10.06],[11.93118247,57.64780705,10.13],[11.92964725,57.64727549,8.2],[11.92957925,57.64725216,8],[11.92918929,57.64708753,7.06],[11.92912629,57.6470552,6.8],[11.92888165,57.64690288,5.53],[11.92882099,57.64685822,5.53],[11.92857301,57.64664692,4.33],[11.92850768,57.64658759,4.06],[11.92839602,57.64645894,3.8],[11.92834969,57.64638995,3.46],[11.92827803,57.64621662,3.2],[11.92824704,57.64610463,3.06],[11.92820606,57.64568699,2.46],[11.92820639,57.64562299,2.46],[11.92821605,57.645563,2.46],[11.92824238,57.64551,2.46],[11.92832171,57.64542401,2.46],[11.92836837,57.64539035,2.46],[11.92913798,57.64511341,1.2],[11.92919964,57.64508541,1.2],[11.93033989,57.6445575,1.8],[11.93039922,57.64452784,1.93],[11.93084785,57.64425855,1.46],[11.93088584,57.64422522,1.46],[11.93138513,57.64358365,2.13],[11.93140846,57.64354365,2.13],[11.93173005,57.64269907,2.6],[11.93174138,57.64265774,2.6],[11.93180133,57.64216447,3.26],[11.93180067,57.64212348,3.4],[11.93163629,57.63966811,5.93],[11.93163496,57.63963045,6.13],[11.93170924,57.6392325,7],[11.93170558,57.63919584,6.86],[11.93161528,57.6389942,7.06],[11.93160329,57.6389622,7.06],[11.9313784,57.63816131,9.46],[11.93136174,57.63812398,9.46],[11.93011609,57.63566239,14.4],[11.93010209,57.63562873,14.33],[11.92997483,57.63518179,12.73],[11.9299685,57.63514346,12.53],[11.92994087,57.63463521,12],[11.92994453,57.63459788,12],[11.93004714,57.63407225,12],[11.93005913,57.63402659,11.86],[11.93025705,57.63341864,10.8],[11.93027571,57.63337431,10.8],[11.93130578,57.63111754,9.73],[11.93132577,57.63107754,9.8],[11.9314984,57.63074359,10.4],[11.93152239,57.63070493,10.4],[11.9317297,57.63050029,10.8],[11.93174836,57.63046363,10.8],[11.93205397,57.62978336,8.6],[11.93207263,57.62973403,8.39],[11.93210062,57.62954772,8.2],[11.93210828,57.62950172,8.2],[11.93219525,57.62927142,8.2],[11.93221491,57.62922509,8.2],[11.93318932,57.62711697,5.86],[11.93320731,57.62707398,5.73],[11.93323563,57.62694066,5.93],[11.93323463,57.62689467,5.93],[11.93313705,57.6260211,6],[11.93315071,57.62598677,6],[11.93325236,57.62591978,6],[11.93329336,57.62590812,6],[11.93360265,57.62585915,6],[11.93364831,57.62584382,6],[11.93382129,57.62570285,6],[11.93383862,57.62566652,5.93],[11.93395789,57.62523158,5.6],[11.93396455,57.62519058,5.6],[11.93400049,57.624601,6.93],[11.93400148,57.62456234,7],[11.93395088,57.6241494,8.26],[11.93394355,57.62411274,8.46],[11.93378831,57.62357981,10],[11.93377698,57.62354515,10],[11.93353473,57.62304389,10.6],[11.93351073,57.62300823,10.6],[11.92863334,57.61610152,12.66],[11.92860368,57.61605853,12.53],[11.92837737,57.61580389,11.66],[11.92833071,57.6157619,11.6],[11.9277291,57.61531528,10.93],[11.92766844,57.61527829,11],[11.92696815,57.61494168,10.4],[11.92690582,57.61492002,10.4],[11.92609822,57.61469444,7.73],[11.92602456,57.61467745,7.33],[11.92414335,57.61433289,3.46],[11.92406602,57.61431489,3.2],[11.92355939,57.61417494,2.4],[11.92349006,57.61415261,2.33],[11.92289877,57.61393766,1.53],[11.92283977,57.61391167,1.53],[11.92242181,57.61370738,0.86],[11.92236448,57.61367472,0.73],[11.92189686,57.61336777,0.13],[11.92185087,57.61333111,0.13],[11.92148124,57.61299183,0.13],[11.92144791,57.61295484,0.13],[11.92116331,57.61254158,1],[11.92115865,57.61253425,1.33],[11.92116794,57.61248297,4.4],[11.9212236,57.61257963,4.8],[11.9212956,57.6100653,5.2],[11.92133055,57.60974468,5.46],[11.92133288,57.60970402,5.46],[11.92165969,57.60807119,3.26],[11.92166968,57.60802719,3.2],[11.92170265,57.60769222,3.53],[11.92170531,57.60764923,3.66],[11.92170499,57.60720527,5.2],[11.92169799,57.60716061,5],[11.92149277,57.60639169,3.06],[11.92148411,57.60635036,3.33],[11.9214165,57.60581708,3.73],[11.92141816,57.60577709,3.93],[11.92151746,57.60541582,5.66],[11.92153179,57.60537516,5.66],[11.92186467,57.60455359,8.8],[11.92187367,57.60450893,8.46],[11.92187701,57.60327671,4.26],[11.92188667,57.60322872,4.26],[11.92196765,57.60299542,3.93],[11.92199098,57.60294942,3.86],[11.92231761,57.60249646,3.66],[11.92235294,57.60245146,3.8],[11.9230352,57.60183754,2.26],[11.92308086,57.60179155,2.13],[11.92349348,57.60129561,4.13],[11.92352481,57.60124762,4.4],[11.92376242,57.60073868,7.06],[11.92378441,57.60069402,7],[11.92410869,57.60011475,4.66],[11.92412835,57.60007209,4.53],[11.92425965,57.59974579,3.46],[11.92427398,57.59969846,3.46],[11.92432061,57.59936317,3.13],[11.92432194,57.59931518,3],[11.92430497,57.59902356,3],[11.92429597,57.5989739,3.06],[11.92418667,57.5986296,3.86],[11.92416901,57.59858094,4],[11.9238564,57.59804166,4.93],[11.92382507,57.59799933,4.93],[11.92361976,57.59774868,4.93],[11.92358143,57.59770702,4.93],[11.92325013,57.59738807,5.4],[11.9232038,57.59735008,5.4],[11.92214958,57.59669718,8.39],[11.92211025,57.59666352,8.66],[11.92208059,57.59662819,8.66],[11.92206126,57.59658953,8.73],[11.92201329,57.59637255,8.8],[11.92199063,57.59632856,8.73],[11.92170034,57.59596159,6.53],[11.92167335,57.59592026,6.26],[11.92154373,57.59562763,4.33],[11.92153007,57.59558664,4],[11.92147145,57.59523467,4],[11.92146912,57.59518801,4.13],[11.92149575,57.59485938,4.33],[11.92150408,57.59481272,4.33],[11.92162936,57.59442943,4.46],[11.92165069,57.59439043,4.33],[11.92371533,57.59135176,3.93],[11.92374532,57.59130776,4],[11.92408959,57.59083615,3.86],[11.92412259,57.59079449,3.86],[11.92435222,57.59055152,3.73],[11.92439488,57.59051252,3.73],[11.92485882,57.59014091,3.93],[11.92490815,57.59010458,4.19],[11.9252748,57.58986629,3.46],[11.92533313,57.5898353,3.46],[11.92597208,57.5895227,2.86],[11.92604074,57.5894927,3],[11.927082,57.58907943,4.46],[11.92715,57.5890491,4.53],[11.92793494,57.58865117,4.86],[11.9279946,57.58861684,4.8],[11.92850821,57.58825488,4.46],[11.92855254,57.58821855,4.4],[11.9290688,57.58772428,3.53],[11.92910546,57.58768295,3.46],[11.92926277,57.58746165,3.13],[11.92928977,57.58741532,3],[11.92955971,57.58687105,2.13],[11.92957537,57.58682639,2],[11.92999186,57.58513893,4.4],[11.93000852,57.58509894,4.4],[11.93025312,57.58469265,4.66],[11.93028045,57.58465266,4.6],[11.93055307,57.58435004,3.8],[11.93059307,57.58431404,3.66],[11.93133332,57.58380611,2],[11.93139265,57.58377612,1.8],[11.93286587,57.58318924,2.4],[11.93293053,57.58316191,2.46],[11.93366979,57.58276265,2.26],[11.93371712,57.58273032,2.26],[11.93657209,57.5801377,2],[11.93661375,57.58010071,2],[11.93717033,57.57955345,1.33],[11.93720899,57.57951879,1.26],[11.93792893,57.57896119,0.8],[11.93797826,57.57892953,0.73],[11.9385622,57.57861993,0.8],[11.93860953,57.57859694,0.93],[11.93914681,57.578364,1.26],[11.93920614,57.57834134,1.26],[11.93991541,57.57810974,1.66],[11.93998207,57.57809041,1.8],[11.94071236,57.57791513,3.46],[11.94077435,57.5778968,3.53],[11.940878,57.57784248,3.46],[11.94090899,57.57780782,3.46],[11.94099358,57.57720155,2.4],[11.94100091,57.57715989,2.46],[11.94111785,57.57669062,3],[11.94113351,57.57664729,3],[11.94120682,57.57647064,3],[11.94122948,57.57642665,3],[11.94144044,57.5761257,3.33],[11.94146644,57.57608237,3.4],[11.94181669,57.57532812,2.8],[11.94183802,57.57528746,3],[11.94270087,57.57420593,6.2],[11.94272786,57.57417393,6.33],[11.94296916,57.57397597,7.4],[11.94299482,57.57394797,7.4],[11.94341672,57.57340973,10],[11.94343905,57.5733824,9.8],[11.94430119,57.57241757,16.79],[11.94432118,57.57239224,16.86],[11.9444848,57.57212662,16.73],[11.94449679,57.57209996,16.6],[11.94459341,57.57176602,16.4],[11.94459974,57.57173636,16.6],[11.94459973,57.57158871,17.86],[11.94459374,57.57156071,18.2],[11.94450678,57.57132474,20.53],[11.94448945,57.57130475,20.8],[11.94425817,57.57116014,22.2],[11.94423284,57.57113814,22.26],[11.94413721,57.57098717,22.46],[11.94411621,57.57096284,22.46],[11.94379395,57.57063391,22.66],[11.94376629,57.57061025,22.66],[11.94284346,57.56993743,25.6],[11.94281613,57.56991777,25.73],[11.94247051,57.56971315,26],[11.94244285,57.56968782,26.06],[11.94219389,57.56939453,25.73],[11.94217423,57.5693662,25.66],[11.94193065,57.5689116,25.13],[11.94191432,57.56887961,25.2],[11.9418717,57.56846135,26],[11.9418717,57.56842502,26.06],[11.94192795,57.56799673,26.86],[11.94193461,57.5679604,26.93],[11.94233283,57.56720217,27.8],[11.94235116,57.56716551,27.66],[11.94252277,57.56674156,26.86],[11.94254377,57.56670123,26.8],[11.94287503,57.56616431,26.93],[11.94290036,57.56612565,27],[11.94328264,57.56562237,27.6],[11.9433153,57.56558104,27.66],[11.94381754,57.56509713,29.53],[11.9438472,57.56506747,29.66],[11.94437879,57.56440023,32],[11.94440978,57.56437257,32.06],[11.94497339,57.56405965,34.06],[11.94501439,57.56404032,34.2],[11.94555331,57.56386607,34],[11.9455903,57.56384741,33.86],[11.94621055,57.56346482,32.46],[11.94627721,57.56342649,32.2],[11.94692516,57.56309954,30],[11.94699082,57.56306221,29.8],[11.94734946,57.56279856,28.46],[11.94739179,57.56274923,28.06],[11.94742679,57.56269923,27.86],[11.94745312,57.56264957,27.66],[11.94746612,57.56249992,26.73],[11.94745512,57.56245159,26.4],[11.94715782,57.5620463,25.6],[11.94713316,57.56198631,25.73],[11.94699728,57.56105142,26.13],[11.94700061,57.56101476,26.06],[11.9471389,57.56058982,26.86],[11.94715456,57.56054982,26.86],[11.9477277,57.5592507,28.26],[11.94775036,57.55921504,28.46],[11.94807731,57.55885077,28.53],[11.94811464,57.55881911,28.53],[11.94958917,57.55771793,22.46],[11.9496565,57.55767093,22.46],[11.94991448,57.55741929,22.6],[11.94995448,57.55736896,22.66],[11.95016344,57.55698299,23],[11.9501791,57.55693599,23.13],[11.95027936,57.55636308,25.13],[11.95028369,57.55632542,25.06],[11.95043194,57.5557338,25.06],[11.95044927,57.5556898,25.26],[11.95064556,57.55535084,25.13],[11.95067289,57.55530984,25.06],[11.95094751,57.55496922,24.2],[11.95097917,57.55493456,23.93],[11.95108049,57.55483591,23.53],[11.95111715,57.55480392,23.26],[11.95126981,57.55472593,22.33],[11.95133747,57.55470793,22.2],[11.95179112,57.55473458,21.86],[11.95190678,57.55472758,21.73],[11.9521971,57.55462894,21.33],[11.95226376,57.55457828,21.2],[11.95249474,57.55430864,20.86],[11.95253173,57.55425764,20.73],[11.953095,57.55340673,20.73],[11.95312766,57.55336374,20.86],[11.95317132,57.55332641,21],[11.95322798,57.55329742,21.13],[11.95343664,57.55326177,21.4],[11.95350064,57.55324878,21.4],[11.95363162,57.5531798,21.4],[11.95366162,57.55315081,21.53],[11.95427216,57.55241927,19.66],[11.95429715,57.55238528,19.66],[11.95464374,57.55181203,19.53],[11.9546534,57.55177637,19.4],[11.95470935,57.55126578,18.46],[11.95470836,57.55122779,18.53],[11.95469738,57.55107414,18.86],[11.95469172,57.55103548,18.93],[11.95458744,57.55064385,19],[11.95458578,57.55060219,18.93],[11.95460344,57.55051953,18.86],[11.95462144,57.5504782,18.86],[11.95485473,57.55011857,18.86],[11.95486873,57.55007824,18.86],[11.95486607,57.55003958,19],[11.95484274,57.55000559,19],[11.95471575,57.54992594,19],[11.95468809,57.54989195,19.13],[11.95466743,57.54981129,19.4],[11.95465244,57.54976796,19.53],[11.95458078,57.54968897,19.79],[11.95452645,57.54965597,19.93],[11.95418148,57.54952766,20.33],[11.95410682,57.549505,20.4],[11.94734725,57.54749511,14.8],[11.94729592,57.54747578,14.73],[11.94726293,57.54745012,14.66],[11.9472526,57.54741946,14.6],[11.94732157,57.54723282,14.26],[11.94732058,57.54719182,14.2],[11.94723729,57.54694551,14.2],[11.94723396,57.54690585,14.26],[11.94728127,57.54664754,14.93],[11.94727961,57.54661454,15.06],[11.94723496,57.54655922,15.33],[11.9471963,57.54653556,15.4],[11.94690233,57.54639591,15.66],[11.94684567,57.54637625,15.8],[11.94660869,57.54636958,16.13],[11.94656803,57.54638924,16.13],[11.94640808,57.54660753,14.66],[11.94639242,57.54662519,14.66],[11.94638907,57.54668549,13.06],[11.94639173,57.54669015,12.8],[11.94493775,57.54614783,12.46],[11.94484342,57.5461315,12.46],[11.94328354,57.54605897,15.2],[11.94320521,57.54605431,15.6],[11.94235294,57.54597604,15.8],[11.94228595,57.54597205,15.53],[11.94171433,57.54600704,15.06],[11.94165133,57.54598905,15.13],[11.94137302,57.54580241,14.46],[11.94131536,57.54577308,14.33],[11.94018777,57.54533051,12.33],[11.94012778,57.54529985,12.33],[11.93969516,57.5450449,12.26],[11.93964283,57.54501257,12.33],[11.9392452,57.54472662,13.2],[11.93919887,57.54469029,13.4],[11.93888524,57.544402,14.6],[11.93885025,57.54436634,14.73],[11.93863062,57.54410805,15],[11.93860462,57.54407039,15],[11.93845835,57.54357544,13.4],[11.93844569,57.54353611,13.26],[11.93837104,57.5433908,13],[11.93835505,57.54335947,13],[11.93841936,57.54319983,12.8],[11.93841803,57.54316017,12.73],[11.93834046,57.54233692,13.2],[11.93833813,57.54229059,13.33],[11.93814814,57.53771634,10.2],[11.93814681,57.53766768,10.26],[11.93816611,57.53732772,11.06],[11.93817411,57.53727839,11.2],[11.93826806,57.53692709,11.8],[11.93828806,57.53687676,11.93],[11.93854334,57.53642247,11.4],[11.93857933,57.53637214,11.2],[11.93901793,57.53587653,9.06],[11.93906993,57.53582987,8.53],[11.94053913,57.53474634,6.26],[11.94059912,57.53470401,6.33],[11.94190801,57.53383277,6.46],[11.94196134,57.53379511,6.4],[11.94285459,57.5331162,5.33],[11.94290859,57.53307321,5.06],[11.94346853,57.53246959,3.73],[11.94351419,57.53241393,3.66],[11.94381482,57.5319573,4.33],[11.94384581,57.53190131,4.33],[11.9441131,57.5313007,2.86],[11.94413143,57.53124804,2.66],[11.94529808,57.52749544,4.86],[11.94531307,57.52744678,5],[11.94537969,57.52710847,5.6],[11.94538535,57.52706081,5.66],[11.94540099,57.5264502,6.26],[11.94539733,57.52640454,6.33],[11.94532103,57.5259586,7],[11.94531403,57.5259156,7],[11.94488018,57.52191435,8.13],[11.94487719,57.52186736,8.06],[11.94491749,57.52129077,7.73],[11.94492482,57.52124244,7.73],[11.94502278,57.52091048,8.6],[11.94503944,57.52086482,8.8],[11.94527336,57.5203412,10],[11.94529436,57.5202962,10.06],[11.94549499,57.51993823,10.86],[11.94552865,57.51989424,11.06],[11.94649087,57.51888969,11.66],[11.94653486,57.51884403,11.66],[11.94714345,57.51812178,6.46],[11.94717344,57.51808779,6.26],[11.94819832,57.51702158,5.33],[11.94824532,57.51697158,5.33],[11.95024541,57.51477584,9.26],[11.95028274,57.51473418,9.26],[11.95044105,57.51451553,7.66],[11.95046471,57.51446954,7.6],[11.95059433,57.51408159,6.13],[11.95060732,57.5140306,5.86],[11.95063163,57.51368398,4.53],[11.95062897,57.51363532,4.26],[11.95053901,57.51319102,4.26],[11.95051668,57.51314169,4.26],[11.94946486,57.51118626,6.73],[11.94943787,57.51113693,6.73],[11.94878164,57.51000139,4.06],[11.94874431,57.5099494,3.73],[11.94851666,57.50970442,2.4],[11.948463,57.50965843,2.13],[11.9480227,57.50934212,1.13],[11.94795004,57.50929912,1.06],[11.94740274,57.50901849,1.53],[11.94732175,57.50898216,1.66],[11.94659147,57.50872255,4.53],[11.94654647,57.50870022,4.93],[11.94652481,57.50867256,5.86],[11.94652647,57.50864123,5.86],[11.94658378,57.50850892,7],[11.94658911,57.50847459,7.4],[11.94669276,57.50838593,7.13],[11.94675576,57.5083656,6.8],[11.94763303,57.50824631,3.2],[11.94771336,57.50822232,3.2],[11.94922724,57.50761576,2],[11.94929123,57.50758343,2],[11.94951587,57.50739445,2],[11.94955386,57.50735579,2.06],[11.95075334,57.50604529,0.46],[11.95079067,57.5060053,0.33],[11.95099532,57.50582333,0.06],[11.95104932,57.50580334,0.06],[11.95130763,57.50578502,0.06],[11.95138129,57.50579101,0.06],[11.9539248,57.50612989,4.06],[11.9540028,57.50613989,3.8],[11.95440377,57.50615654,3.2],[11.95448143,57.50614654,3.06],[11.95493406,57.50596924,1.8],[11.95499105,57.50593758,1.66],[11.95562098,57.505508,1.53],[11.95567298,57.50548134,1.93],[11.95944285,57.50373446,19.33],[11.95948684,57.50371413,19.06],[11.9599428,57.50349152,18.33],[11.95999013,57.50346519,18.33],[11.96034443,57.50322657,18.06],[11.96039576,57.50319958,17.93],[11.96114102,57.50287897,11.66],[11.96120368,57.50286031,11.4],[11.96201895,57.50271904,7.86],[11.96212228,57.50270638,7.6],[11.9630599,57.50264209,7.33],[11.96317489,57.50264009,7.6],[11.96380186,57.50264807,8.86],[11.96390052,57.50265373,9],[11.96568375,57.50282663,5.13],[11.96577575,57.50283429,5],[11.96601174,57.5028123,4.8],[11.9660664,57.50278164,4.8],[11.9682005,57.50027089,1.2],[11.96825049,57.50022156,1.13],[11.96844148,57.50009091,1],[11.96851681,57.50005225,1],[11.96907244,57.49982763,0.8],[11.96914143,57.49979497,0.73],[11.96929575,57.49967532,0.53],[11.96931608,57.49962833,0.46],[11.96931907,57.49958,0.4],[11.96930874,57.49953201,0.33],[11.96925242,57.49943936,0.2],[11.96921143,57.49939537,0.13],[11.96798854,57.49832449,0.46],[11.96794254,57.49828383,0.46],[11.96760592,57.49795722,1.33],[11.96756892,57.49791822,1.46],[11.96745394,57.49776024,1.6],[11.96744394,57.49771991,1.6],[11.96755757,57.49746561,1.6],[11.96759923,57.49742528,1.6],[11.96802554,57.49721733,2.13],[11.96805887,57.49718034,2.26],[11.96812416,57.49672538,3.6],[11.96813649,57.49669505,3.66],[11.96857867,57.49596949,2.26],[11.968588,57.49593083,2.13],[11.96859299,57.49578118,1.6],[11.96858533,57.49574485,1.46],[11.96840272,57.49538225,1],[11.96839173,57.49534525,1],[11.96823752,57.49443241,0.66],[11.96823219,57.49439675,0.66],[11.96813026,57.49405713,2.13],[11.96811893,57.49402447,2.33],[11.96800529,57.49379249,4.33],[11.9679833,57.49376083,4.73],[11.96770469,57.49344155,7.46],[11.96769903,57.49341056,7.53],[11.96771468,57.49297,8.86],[11.96771568,57.49296767,8.93],[11.96850767,57.49149401,9],[11.968579,57.49145669,9],[11.96861899,57.49144003,9.06],[11.96881463,57.49138837,9.33],[11.96887096,57.49138304,9.53],[11.96941324,57.49140768,11.93],[11.96946757,57.49140934,12.13],[11.9698202,57.49138303,13.06],[11.96988286,57.49137604,13.13],[11.97199103,57.49107086,13.06],[11.97206402,57.49106153,13.26],[11.97269863,57.4910256,14.46],[11.97275263,57.49101827,14.46],[11.97362621,57.49082902,19.66],[11.97369721,57.49082103,19.6],[11.97469081,57.49072809,15.13],[11.97477047,57.49072276,14.66],[11.97536476,57.49071643,15.06],[11.97545009,57.49071077,15.2],[11.97617572,57.49061882,14.13],[11.97626738,57.49061082,14],[11.97670935,57.49061448,13.46],[11.97679168,57.49062381,13.6],[11.97700967,57.4906648,14.26],[11.97707166,57.49068113,14.53],[11.97782326,57.4909204,17.86],[11.97787659,57.4909394,17.6],[11.97846318,57.49125066,13.53],[11.97853184,57.49127466,12.93],[11.9786915,57.49129931,12.06],[11.97877816,57.49129665,11.8],[11.97929945,57.49121966,9.86],[11.97938078,57.49123399,9.6],[11.97955576,57.49134197,9.33],[11.97959875,57.4913893,9.33],[11.97999671,57.49193857,10.53],[11.98003371,57.4919879,10.46],[11.98020836,57.49217555,10.13],[11.98027402,57.49221288,10.13],[11.98035335,57.49224321,10.13],[11.98044601,57.4922642,10.13],[11.98134631,57.49235082,9.39],[11.98146564,57.49236515,9.13],[11.98191362,57.49245647,6.86],[11.98201595,57.49248813,6.13],[11.98239526,57.49264977,4],[11.98248926,57.4926961,3.8],[11.98424815,57.49360833,2.53],[11.98434015,57.49364766,2.53],[11.98490178,57.49386663,3.06],[11.98499411,57.49390029,3.33],[11.98636437,57.4943442,6.6],[11.9864287,57.49436519,6.53],[11.98656369,57.49438685,6.4],[11.98662869,57.49438086,6.33],[11.98679035,57.49432787,6.13],[11.98684801,57.49431288,6],[11.98706433,57.49429756,5.8],[11.98715166,57.49430222,5.73],[11.98930687,57.49453774,4.6],[11.98936987,57.49454274,4.33],[11.99189404,57.49463658,6.93],[11.99196537,57.49463991,6.8],[11.99378089,57.49478378,3.73],[11.99384055,57.49477745,3.66],[11.99405787,57.49467414,3.46],[11.9940982,57.49463314,3.53],[11.99501807,57.49338429,4.46],[11.99505673,57.49334329,4.46],[11.9952387,57.49319797,4.4],[11.99528736,57.49316798,4.19],[11.99561166,57.49301734,3],[11.99568099,57.49299601,2.8],[11.9961023,57.49296137,2.13],[11.9961853,57.49296603,2.06],[11.99966976,57.49338246,3.46],[11.99974776,57.49339279,3.66],[12.00001574,57.49337913,4.73],[12.0000474,57.49335413,5],[12.00001309,57.49305617,6.33],[12.00000043,57.49301618,6.4],[11.99934201,57.49114913,5.8],[11.99933402,57.49110814,5.66],[11.99929273,57.49075619,5.6],[11.9992904,57.49070986,5.6],[11.99929767,57.48972733,5.6],[11.99929734,57.489686,5.46],[11.99926305,57.48912639,4.26],[11.99925339,57.48908273,4.19],[11.99915709,57.48887376,4.33],[11.9991281,57.48883443,4.4],[11.9988938,57.48860346,4.86],[11.99887914,57.48857247,5],[11.9988848,57.48854314,5.13],[11.9989078,57.48851581,5.26],[11.99906011,57.48841416,5.6],[11.99908811,57.48838283,5.66],[11.99915008,57.48818486,6.46],[11.99916207,57.4881572,6.53],[11.99922139,57.48808288,6.73],[11.99925138,57.48806122,6.8],[12.00052524,57.48742907,10.4],[12.00055824,57.48740974,10.6],[12.00081284,57.48724181,11.46],[12.0008365,57.48722548,11.53],[12.00131872,57.48682626,15.2],[12.00134238,57.4868096,15.06],[12.00185693,57.48650137,19.06],[12.00188792,57.48648537,18.93],[12.00250516,57.4862038,22.26],[12.00253282,57.48619147,22.4],[12.00373999,57.48575297,28.53],[12.00377499,57.48574097,28.73],[12.00569337,57.48515621,36.93],[12.0057377,57.48514422,37],[12.00780016,57.48468175,40.53],[12.00785582,57.48467042,40.59],[12.00844844,57.48459613,39.66],[12.00850944,57.48459646,39.53],[12.00915606,57.48468306,39.2],[12.00923039,57.48468406,39.2],[12.00969935,57.4845741,39.13],[12.00978701,57.48455244,39],[12.01038965,57.48449114,38.86],[12.01044731,57.48448081,38.8],[12.01049663,57.48444348,38.66],[12.01049896,57.48441815,38.59],[12.01039569,57.48410221,38.53],[12.01038903,57.48407355,38.66],[12.01037871,57.48399423,39.06],[12.01038071,57.48397124,39.2],[12.01040869,57.48392992,39.33],[12.01044135,57.48391492,39.46],[12.010586,57.48391557,39.66],[12.01063533,57.48392823,39.73],[12.01124822,57.48412779,40.73],[12.01125255,57.48412945,40.8],[12.01075622,57.48401145,40.93],[12.00951856,57.48384812,40.93],[12.00951523,57.48376013,40.8],[12.00954189,57.48373414,40.73],[12.00977919,57.48365917,39.53],[12.00981085,57.48365351,39.4],[12.01040979,57.48385977,39.46],[12.01048112,57.48388343,39.53],[12.01137636,57.48413369,37.06],[12.01144436,57.48414635,36.8],[12.01363158,57.48430391,29.4],[12.01375624,57.48431757,28.93],[12.01532484,57.48458185,21.8],[12.0154615,57.48461185,21.8],[12.01628681,57.48482382,18.33],[12.01642414,57.48486348,17.86],[12.02054932,57.48611836,8.13],[12.02069998,57.48615969,7.86],[12.02100563,57.48623301,7.2],[12.02116129,57.48626101,6.93],[12.02203027,57.48636231,6.6],[12.02217193,57.48637197,6.66],[12.02354856,57.48634533,6.4],[12.02364922,57.486333,6.33],[12.02537343,57.48594211,7.86],[12.02543443,57.48592778,8.06],[12.02602202,57.48576483,8.8],[12.02606435,57.48575083,8.86],[12.02741555,57.48514496,13.2],[12.02745955,57.48512697,13.53],[12.02843611,57.48481439,14.86],[12.02848344,57.48481872,15.26],[12.02917535,57.48509663,17.33],[12.02922301,57.48511329,17.33],[12.03111312,57.48572041,25.66],[12.03115712,57.48573607,25.8],[12.03212602,57.48611227,33.93],[12.03217068,57.48613127,33.8],[12.03261462,57.48637186,34.46],[12.03265695,57.48638952,34.53],[12.03354748,57.48666308,35.66],[12.03359181,57.48667308,35.73],[12.03644453,57.4867283,39.53],[12.03650352,57.48673196,39.26],[12.03780075,57.48684653,37.66],[12.03785574,57.48685219,37.66],[12.03896933,57.48701076,37.4],[12.03902833,57.48702075,37.46],[12.04009989,57.48724868,38.93],[12.04015655,57.48726168,39.06],[12.04086314,57.48745029,39.86],[12.04092513,57.48746762,39.86],[12.04338563,57.48829243,37.53],[12.04344729,57.48831109,37.53],[12.04405991,57.4884617,37.93],[12.04412357,57.4884757,38],[12.04444556,57.48850601,38.26],[12.04450489,57.48851701,38.13],[12.04479352,57.48862898,38.2],[12.04484785,57.48864564,38.26],[12.04539847,57.48875959,39.06],[12.04546613,57.48876925,39.2],[12.04657072,57.48886585,39.8],[12.04665138,57.48886818,39.8],[12.04784331,57.48884023,38.53],[12.04794697,57.48884023,38.26],[12.04921391,57.48887116,36.06],[12.04931991,57.48887349,36],[12.04972022,57.48884017,36.13],[12.04981588,57.48883884,36.2],[12.05139814,57.48905375,37.26],[12.0515118,57.48907108,37.33],[12.05346102,57.48940063,39.46],[12.05356201,57.48941596,39.8],[12.05419163,57.48948025,40],[12.05429929,57.48948825,39.93],[12.05516692,57.48951021,37.86],[12.05527358,57.48950955,37.53],[12.05666785,57.48944328,31.66],[12.05677951,57.48943595,31.4],[12.05736448,57.48938564,30.86],[12.05748614,57.48936664,31.06],[12.05818178,57.48917368,32.33],[12.05830577,57.48915635,32.33],[12.061133,57.48909712,18],[12.06127133,57.48909046,17.79],[12.06191931,57.48905382,16.73],[12.06203297,57.48904582,16.73],[12.0626106,57.48892986,16.26],[12.06270626,57.48892786,16],[12.06307724,57.48897084,15.66],[12.0631709,57.4889745,15.66],[12.0640342,57.48897819,15.06],[12.06413853,57.48897952,15],[12.06535848,57.48892558,11.06],[12.06546914,57.48892492,10.73],[12.07158589,57.48896608,4.73],[12.07167022,57.48896641,4.6],[12.07232318,57.48891345,3.86],[12.07239184,57.48891212,3.73],[12.07391474,57.48906869,3.13],[12.07399674,57.48907669,3.13],[12.07489502,57.48910001,5.33],[12.07497135,57.48910001,5.53],[12.07517567,57.48907969,6.26],[12.07523833,57.48906736,6.4],[12.07712148,57.48856052,7.26],[12.07716114,57.48854652,7.4],[12.0772228,57.48849253,7.8],[12.07721414,57.48847154,7.86],[12.07661822,57.48783531,4.46],[12.07659389,57.48780865,4.46],[12.0758074,57.48687645,7],[12.07578641,57.48685145,7.13],[12.07534113,57.4864195,6.53],[12.07530047,57.48637417,6.33],[12.07514682,57.48619719,5.66],[12.07511983,57.48616119,5.6],[12.07509317,57.48608454,5.4],[12.07511317,57.48606654,5.33],[12.07709299,57.48556208,3.4],[12.07712698,57.48555375,3.4],[12.07736156,57.48531947,3.2],[12.07736889,57.48531281,3.2],[12.07750488,57.48540014,3.2],[12.07771152,57.48534416,3.86],[12.07775518,57.48533617,4.19],[12.07789051,57.48536116,4.8],[12.0779365,57.48538315,5],[12.07805949,57.48547281,5.4],[12.07809182,57.48550614,5.6],[12.07836976,57.4858671,6.13],[12.07839742,57.4858941,6],[12.07868537,57.48603574,3.53],[12.07873537,57.4860484,3.26],[12.07891702,57.48607406,2.66],[12.07898935,57.48607539,2.53],[12.0799063,57.48606574,3.4],[12.07999396,57.48607773,3.53],[12.08090387,57.48631431,3.66],[12.08095453,57.48633164,3.6],[12.0813938,57.48658092,2.2],[12.0814418,57.48658758,2.13],[12.08153779,57.48657126,2.06],[12.08158145,57.48655293,2.13],[12.0819144,57.48636962,2.8],[12.08195373,57.48634296,3.06],[12.08229401,57.48601137,5.66],[12.082323,57.48598771,5.93],[12.08248831,57.4859114,5.93],[12.08251697,57.48588607,5.73],[12.08428469,57.48412638,5],[12.08431002,57.48410038,5.13],[12.08435768,57.48404672,5.33],[12.08437334,57.48401872,5.33],[12.08434202,57.48389408,5.46],[12.08433636,57.48386108,5.53],[12.08438668,57.48375276,5.73],[12.08441934,57.48371676,5.73],[12.08482297,57.48348046,5.6],[12.08486797,57.48344746,5.53],[12.08808853,57.48090525,14.8],[12.08812052,57.48087259,14.73],[12.08846312,57.48047233,13.73],[12.08848245,57.48043967,13.6],[12.0885101,57.48037669,13.53],[12.08851509,57.48034603,13.53],[12.08848778,57.48019539,13.53],[12.08850844,57.48016039,13.53],[12.08887272,57.47977345,14.2],[12.08889271,57.47973679,14.26],[12.08894936,57.47934017,15.73],[12.08897135,57.47930284,15.93],[12.08958489,57.47857596,20.4],[12.08960022,57.47854697,20.66],[12.08961788,57.47842799,21.6],[12.08961189,57.47839833,21.8],[12.08947063,57.47810172,23],[12.0894613,57.47807672,22.93],[12.08946629,57.47800407,22.73],[12.08948228,57.47798007,22.66],[12.08957626,57.47791475,22.33],[12.08962425,57.47789976,22.26],[12.08985957,57.47787211,22],[12.08992023,57.47786345,22],[12.09007455,57.47780846,22],[12.09011455,57.47778313,22.06],[12.09069577,57.47712456,23.93],[12.09072243,57.47709557,24],[12.09111436,57.47671096,24.73],[12.09114102,57.47668363,24.8],[12.09123732,57.47651731,25.06],[12.09126665,57.47649198,25],[12.09172492,57.47625469,25],[12.09176791,57.4762277,25],[12.09272878,57.47555715,26.53],[12.09277344,57.47552549,26.73],[12.09430753,57.47431773,32.13],[12.09434619,57.47428107,32.26],[12.09513706,57.47348818,25.33],[12.09518639,57.47342552,25.13],[12.09597393,57.47208098,20.86],[12.09601159,57.47201832,20.73],[12.09611124,57.47176334,20.06],[12.0961459,57.47170135,19.93],[12.09680283,57.47090275,17.46],[12.09686382,57.47084509,17.2],[12.09737078,57.47046979,15.4],[12.09744844,57.4704158,14.73],[12.09930501,57.46921823,8.53],[12.09941234,57.4691489,8.33],[12.09999264,57.4687286,7.26],[12.1000773,57.4686626,7.2],[12.10421995,57.46526661,8.39],[12.10427295,57.46522395,8.66],[12.10549783,57.46434907,6.6],[12.10555316,57.46430574,6.4],[12.10608941,57.46373415,5.4],[12.10610874,57.46371549,5.46],[12.10613739,57.46372481,5.73],[12.1061274,57.46373847,5.8],[12.10599011,57.46386644,5.73],[12.10598411,57.46387077,5.6],[12.10602043,57.46388376,5.46],[12.10602142,57.4638831,5.4],[12.10623538,57.46353782,5.26],[12.10626238,57.46349816,5.33],[12.10637969,57.46338251,5.53],[12.10643302,57.46334718,5.6],[12.10656034,57.46329052,5.8],[12.10663067,57.46327319,5.8],[12.10690299,57.46325988,6],[12.10696932,57.46326354,6],[12.10757992,57.46340381,6.46],[12.10758558,57.46340348,6.53],[12.1075819,57.46343913,6.8],[12.10759956,57.46345813,6.86],[12.10768187,57.46345546,7],[12.10770953,57.4634488,7],[12.10797348,57.46332284,7.13],[12.10801014,57.46330851,7.13],[12.1085021,57.46315622,7.53],[12.10855276,57.46313823,7.53],[12.10929566,57.46284333,9],[12.10932532,57.46283034,9],[12.10935198,57.46280702,9],[12.10935198,57.46279736,9],[12.10932001,57.46275739,8.46],[12.10931868,57.46275673,8.39],[12.10931934,57.46275739,8.26],[12.10956567,57.46270406,8.13],[12.11007694,57.46247877,7.13],[12.11012427,57.46245611,7.06],[12.11066056,57.46216351,7.26],[12.11070989,57.46213651,7.26],[12.11100919,57.46191955,7.26],[12.11106618,57.46189555,7.2],[12.11197444,57.46169563,7],[12.1120441,57.46167764,7],[12.11306469,57.46137072,7.46],[12.11313868,57.46135239,7.46],[12.11398262,57.46120178,7.26],[12.11405695,57.46118712,7.26],[12.1159268,57.46078157,10.53],[12.11598813,57.46076824,10.73],[12.11735336,57.46040571,12.33],[12.11741869,57.46038671,12.6],[12.11986649,57.45952625,12.6],[12.11994115,57.45950092,12.53],[12.12324362,57.45843944,12.93],[12.12332128,57.45841378,12.86],[12.1262831,57.45740935,13.53],[12.12636143,57.45738336,13.46],[12.1268944,57.45717374,13],[12.12697406,57.45714641,12.93],[12.12920059,57.45641255,13.66],[12.12927458,57.45638789,13.6],[12.13060515,57.45585464,13.66],[12.13067548,57.45582531,13.66],[12.13167607,57.45535373,14.26],[12.1317384,57.45532174,14.26],[12.13370357,57.45422555,14.73],[12.13376423,57.45418989,14.73],[12.13476981,57.45353299,13.4],[12.13482947,57.45349533,13.4],[12.13521176,57.45315471,12.66],[12.13524575,57.45310805,12.6],[12.1352934,57.45275342,11.86],[12.13532406,57.45270509,11.73],[12.13593601,57.45233715,10.4],[12.13599567,57.45229082,9.86],[12.13631797,57.45190885,8.33],[12.13635663,57.45184919,8.26],[12.13650427,57.45154355,8.46],[12.13652793,57.45148222,8.46],[12.13692715,57.45015934,8.86],[12.13694514,57.45010801,8.86],[12.13724741,57.44945343,9.46],[12.13726674,57.44941543,9.66],[12.13757102,57.44896683,10.4],[12.13760102,57.44892883,10.4],[12.13820358,57.4482373,11.73],[12.13823358,57.44820731,11.73],[12.13988371,57.44685481,10.93],[12.13993004,57.44681815,10.86],[12.14121293,57.4458986,10.06],[12.14126493,57.44585994,10.06],[12.14345573,57.44412517,9.39],[12.14350973,57.44408284,9.39],[12.14401368,57.44372755,9.06],[12.14406601,57.44368689,9.06],[12.14465229,57.44314258,8.39],[12.14469362,57.44310058,8.26],[12.14501724,57.44271929,8.13],[12.1450559,57.44267896,8.13],[12.14599347,57.44181009,7.8],[12.1460388,57.44176976,7.8],[12.14815795,57.44013726,6.4],[12.14820828,57.44009826,6.2],[12.14865457,57.43968598,5.46],[12.14870556,57.43964665,5.46],[12.15000411,57.43875078,5.93],[12.1500551,57.43871079,6],[12.15028474,57.43845183,6.6],[12.1503254,57.43841017,6.66],[12.1506397,57.43812854,7.06],[12.15068403,57.43809021,7.13],[12.15116497,57.43776728,7.53],[12.15120163,57.43773228,7.53],[12.15171656,57.437198,6.13],[12.15174656,57.43716334,6.13],[12.1518962,57.43692605,6.6],[12.15192019,57.43690039,6.73],[12.15195552,57.43688206,6.86],[12.15200052,57.4368724,7],[12.15234482,57.43687472,7.93],[12.15238482,57.43684939,7.93],[12.15277341,57.43635646,8],[12.1528064,57.43632247,8],[12.15314767,57.43601285,8.46],[12.15318666,57.43597985,8.53],[12.15370993,57.43559823,8.93],[12.15374059,57.43557357,8.86],[12.15396322,57.43533962,8.26],[12.15398721,57.43532029,8.26],[12.15413151,57.43525099,8.53],[12.1541535,57.435248,8.6],[12.15428748,57.43526897,8.86],[12.15429681,57.4352703,9],[12.15431613,57.43530996,9],[12.15463712,57.43504363,9],[12.15457947,57.43496864,9],[12.15456948,57.43494231,9],[12.15458681,57.43489165,9],[12.15460847,57.43486565,9],[12.155352,57.43426207,10.06],[12.15538299,57.43423407,10.13],[12.15566527,57.43386481,10.93],[12.15569493,57.43383315,11],[12.15635917,57.43323892,11.6],[12.15638916,57.43320993,11.66],[12.15673177,57.43281998,13.26],[12.1567581,57.43278632,13.4],[12.15711466,57.43219277,15.53],[12.15713132,57.43215911,15.26],[12.15732325,57.43163485,19.73],[12.15733158,57.43160052,20.2],[12.15739917,57.43110493,23],[12.15739851,57.43107394,23.2],[12.15738056,57.43077599,23],[12.15737723,57.43074599,23],[12.15729029,57.43037504,23.26],[12.15728863,57.43035938,23.53],[12.15722497,57.43031505,23.8],[12.15716267,57.43000308,24.06],[12.15715134,57.42997209,24.2],[12.1565429,57.42870729,24.2],[12.15653024,57.42868063,24.13],[12.1564766,57.42850899,24],[12.15646427,57.42848,24],[12.15560086,57.42684559,24.66],[12.15558553,57.42681593,24.86],[12.15529698,57.4261727,27.33],[12.15528199,57.42613904,27.33],[12.15514373,57.42572778,27.46],[12.15512873,57.42569312,27.46],[12.15491813,57.42532185,26.33],[12.1549028,57.42528719,26.26],[12.15458391,57.424524,28.4],[12.15457158,57.42448901,28.46],[12.15451229,57.42403141,28.8],[12.15451196,57.42399742,29],[12.15458125,57.42362884,30.6],[12.15459191,57.42359618,30.4],[12.15476785,57.42325024,30.53],[12.15478885,57.42321825,30.73],[12.1553944,57.42244638,27.2],[12.15543106,57.42240272,26.8],[12.15590134,57.42189643,22.4],[12.15593534,57.42183477,22.06],[12.15671887,57.42011493,20.73],[12.15673586,57.4200686,20.6],[12.15680849,57.41978896,19.66],[12.15681715,57.4197423,19.6],[12.15687043,57.41922971,19],[12.15688209,57.41920871,19],[12.15702207,57.41915806,18.73],[12.15706773,57.41915306,18.66],[12.15856893,57.41907753,21.8],[12.15862193,57.41907687,22.13],[12.1611187,57.41920499,27.86],[12.16117869,57.41920732,27.66],[12.16180598,57.41919835,25.73],[12.16187264,57.41919602,25.53],[12.16447114,57.41895652,17.33],[12.1645668,57.41895219,17.46],[12.16511777,57.41896117,18.26],[12.16520643,57.4189655,18.4],[12.16591738,57.41903978,18.2],[12.16598471,57.41903745,18.06],[12.16609704,57.41901013,17.79],[12.16614037,57.41898647,17.6],[12.16621202,57.41888015,16.53],[12.16620869,57.41883382,16.06],[12.1661367,57.41873183,14.66],[12.16606537,57.41868217,14.66],[12.16543873,57.4183812,11.93],[12.16533007,57.41832054,11.53],[12.16496142,57.41803623,10.53],[12.16489042,57.41795757,10.4],[12.16369594,57.4159551,10.4],[12.16366461,57.41590611,10.4],[12.16257543,57.41446165,7],[12.16254777,57.41441699,7],[12.1624698,57.41423268,7],[12.16246014,57.41418635,7],[12.16247847,57.41404536,7],[12.16250147,57.41399903,7],[12.16295675,57.41359007,7],[12.16299508,57.41355274,7],[12.16305606,57.41343943,7],[12.16304107,57.41340244,7],[12.16288208,57.41333645,7],[12.16281075,57.41333179,7],[12.16194216,57.4133441,7],[12.16188116,57.41333577,7],[12.16165184,57.41327846,6.93],[12.16159951,57.41325847,6.93],[12.1613852,57.41312849,6.93],[12.16135021,57.41309783,6.93],[12.1592735,57.41109417,6],[12.15923784,57.41106051,5.93],[12.15398159,57.40617562,8.26],[12.1539476,57.40614096,8.53],[12.15375197,57.40587067,10.26],[12.15373864,57.40583701,10.53],[12.15369171,57.4050445,16.06],[12.15368771,57.40502317,16.2],[12.15350877,57.40465858,16.26],[12.15348811,57.40463592,16.26],[12.1529715,57.40423033,12.53],[12.15292117,57.40420434,11.86],[12.1516719,57.4037674,6.8],[12.15155991,57.40372574,6.73],[12.15126093,57.40358408,6.26],[12.15117294,57.40353375,6.06],[12.15094862,57.40337377,5.53],[12.15088229,57.40331844,5.4],[12.14090468,57.39404907,4.13],[12.14085935,57.39400707,4.13],[12.14063404,57.39379177,4.06],[12.14059338,57.39374811,4],[12.14049507,57.3935668,4],[12.14048574,57.39352114,4],[12.14051707,57.39334483,4],[12.1405484,57.39330317,4],[12.14063005,57.39322484,4.06],[12.14067738,57.39318985,4.13],[12.14084636,57.3931082,4.33],[12.14090835,57.39308587,4.4],[12.14346683,57.39247772,4],[12.14354549,57.39245906,4],[12.14394979,57.39237942,4.26],[12.14403245,57.39236809,4.33],[12.14743091,57.39196371,12.66],[12.14747324,57.39195738,12.73],[12.14772089,57.39190008,13.06],[12.14776122,57.39188675,13.13],[12.14802751,57.39176345,13.6],[12.14806051,57.39174079,13.66],[12.14825613,57.39153249,14.4],[12.14827146,57.39150416,14.46],[12.1483111,57.3912632,15.86],[12.14830244,57.39123254,16],[12.147214,57.38960673,15],[12.14719434,57.38957007,15],[12.14714303,57.38939509,16],[12.14714103,57.3893631,16.33],[12.14718267,57.38913414,20.13],[12.14719333,57.38910715,20.73],[12.14744395,57.38876853,23.4],[12.14746728,57.38874654,23.2],[12.14762625,57.3886159,22.8],[12.14765691,57.38859457,22.73],[12.14803486,57.38837395,23],[12.14806219,57.38835662,23],[12.14813979,57.38824168,17.4],[12.15090512,57.38623969,17],[12.15095044,57.38601271,16.6],[12.15095177,57.38595572,16.46],[12.15090213,57.38567907,15.8],[12.1508778,57.38562574,15.66],[12.15073582,57.38541709,14.93],[12.15068916,57.3853671,14.8],[12.15039485,57.38513047,14.6],[12.15032685,57.38508847,14.53],[12.14939426,57.38464953,16.33],[12.1493226,57.38461787,16.53],[12.14864965,57.38437024,17.2],[12.14857099,57.38434791,17.2],[12.14774804,57.3841833,16],[12.14766138,57.38417364,15.93],[12.14532653,57.38402413,17.46],[12.1452272,57.38401613,17.33],[12.14446492,57.3839035,16.46],[12.14437559,57.38388184,16.6],[12.14378629,57.3836702,16.46],[12.14370663,57.38363587,16.53],[12.14202707,57.38286565,13.73],[12.14195241,57.38283299,13.33],[12.14121912,57.38256936,9.8],[12.14112912,57.38254203,9.46],[12.13432285,57.38083303,3.53],[12.13423319,57.3808137,3.4],[12.13377022,57.38073806,3.06],[12.13367756,57.38072873,3],[12.13155867,57.3805525,2.8],[12.13147534,57.38053417,2.73],[12.13110602,57.38039619,2.4],[12.13104702,57.38035819,2.33],[12.1308997,57.38023187,2.13],[12.13085837,57.38018787,2.06],[12.13076172,57.37999956,2.13],[12.13075006,57.3799499,2.2],[12.13066242,57.37948429,3.2],[12.13066708,57.37943263,3.33],[12.13083269,57.37893634,3.6],[12.13084502,57.37888668,3.53],[12.13103156,57.37791011,4.13],[12.13104589,57.37786945,4.19],[12.13120117,57.37755982,4.93],[12.13122417,57.37752082,5.06],[12.13213803,57.37620299,6.06],[12.13216436,57.37616333,6.26],[12.13264192,57.37537709,9.6],[12.13266125,57.3753391,9.66],[12.13276155,57.37503981,10],[12.13276321,57.37500282,10],[12.13267293,57.37461921,10],[12.13269192,57.37459188,10],[12.13354151,57.37426395,9.8],[12.13361117,57.37423262,9.8],[12.13387682,57.37409931,9.86],[12.13393881,57.37406398,9.93],[12.13427344,57.37383368,9.93],[12.13432277,57.37379402,9.93],[12.13469006,57.37340138,10],[12.13472205,57.37335638,10],[12.13492502,57.37302908,9.53],[12.13494835,57.37298309,9.53],[12.13506566,57.37266279,9.6],[12.13508799,57.37261746,9.73],[12.13519898,57.3724868,9.93],[12.13525264,57.37244714,10],[12.1360026,57.3720442,9.93],[12.13606493,57.37200687,9.93],[12.13773746,57.37094637,11.93],[12.13778779,57.37091704,12],[12.13863138,57.37059277,10.86],[12.13869604,57.37056211,10.8],[12.13988961,57.3698932,12.46],[12.13994027,57.36986187,12.53],[12.14089285,57.36905899,12.53],[12.14094018,57.36901666,12.66],[12.1412718,57.36865703,13.73],[12.1413068,57.3686117,13.8],[12.14150878,57.36829441,14],[12.14153178,57.36825042,14.06],[12.14158176,57.36803044,13.86],[12.1415741,57.36798645,13.93],[12.14153944,57.36789779,14.06],[12.14151078,57.36785446,14.13],[12.14114948,57.36749016,14.33],[12.14111149,57.3674475,14.46],[12.1408412,57.36707221,15.4],[12.14081987,57.36703121,15.4],[12.14074591,57.36677257,15.06],[12.14073658,57.36672691,15.06],[12.14067963,57.3662173,13.93],[12.14068363,57.36616964,13.93],[12.14072362,57.36597133,13.4],[12.14073995,57.36591967,13.33],[12.14085092,57.36566237,13.46],[12.14088125,57.36561271,13.53],[12.14130787,57.36516542,15.13],[12.14134987,57.36512609,15.33],[12.14163717,57.36491746,15.86],[12.14166816,57.36488413,15.86],[12.14166749,57.36469782,15.4],[12.14165549,57.36465816,15.26],[12.14160184,57.3645775,14.86],[12.14155885,57.36453784,14.6],[12.14132121,57.36439853,14.06],[12.14125188,57.36436787,14],[12.14045892,57.36412991,14.13],[12.14039526,57.36410225,14.13],[12.14022562,57.36387927,14.66],[12.14016729,57.36385228,14.66],[12.13846173,57.36336041,12.46],[12.13838507,57.36334375,12.13],[12.13599551,57.36297185,8.46],[12.13586552,57.36295052,8.39],[12.13528787,57.36282255,8],[12.13518654,57.36279322,8.06],[12.13447058,57.36256395,9.26],[12.13441759,57.36254329,9.39],[12.13298706,57.36185841,9.73],[12.13292707,57.36183208,9.66],[12.13165516,57.36134584,9],[12.1315885,57.36132118,9],[12.13090489,57.3610809,8.93],[12.13082956,57.36105824,8.93],[12.12939633,57.36067366,7],[12.12932134,57.360646,7],[12.12873071,57.36037303,7.46],[12.12867338,57.3603397,7.46],[12.12818544,57.35997041,7.13],[12.12813545,57.35993675,7.06],[12.12738619,57.35947449,8.13],[12.1273332,57.35944516,8.26],[12.12655161,57.35903756,8.93],[12.12649728,57.3590119,8.86],[12.12594066,57.3587993,8.26],[12.12587333,57.35877764,8.2],[12.12536204,57.35864734,8.26],[12.12528904,57.35863035,8.26],[12.12467142,57.35852673,7.53],[12.12458976,57.35851607,7.4],[12.12323586,57.35840548,5.06],[12.12315587,57.35839582,5],[12.12243725,57.3583985,4.8],[12.12235959,57.35839317,4.8],[12.12166397,57.35830487,4.8],[12.12158631,57.35829154,4.8],[12.12084701,57.3581286,5.26],[12.12077468,57.35810927,5.33],[12.11972078,57.35775767,6.2],[12.11964812,57.35773867,6.2],[12.1183492,57.3574711,5.26],[12.1182812,57.35745277,5.2],[12.11809321,57.35739145,5.06],[12.11803855,57.35736979,5.13],[12.1179399,57.3572798,5.4],[12.11794156,57.35724347,5.4],[12.11838649,57.35663856,5.93],[12.11841448,57.35660256,5.93],[12.11887707,57.3561093,5.2],[12.1189054,57.35607164,5.13],[12.11915766,57.35568535,4.6],[12.11918165,57.35565002,4.6],[12.11927961,57.35542672,4.6],[12.11930494,57.35538839,4.6],[12.11977587,57.35478977,5],[12.11980387,57.35474877,4.93],[12.12027112,57.35395787,4.73],[12.12029511,57.35391021,4.8],[12.12031044,57.35371723,5],[12.1203141,57.35366924,4.93],[12.12036508,57.35352692,4.73],[12.12039208,57.35347959,4.66],[12.12074868,57.35293764,4.66],[12.12078067,57.35289431,4.8],[12.12122427,57.35239171,5.93],[12.1212536,57.35234871,6],[12.12167583,57.35155645,6],[12.12170249,57.35151912,6.06],[12.12189145,57.3512955,6.6],[12.12191845,57.35127884,6.66],[12.12224039,57.35122855,6.33],[12.12223073,57.35126388,6.26],[12.12205642,57.35127019,6],[12.12200942,57.35127385,6],[12.12178878,57.35133915,6],[12.12173745,57.35134048,6.13],[12.12164112,57.35132216,6.2],[12.12160446,57.35130483,6.26],[12.12157747,57.35125784,6.46],[12.1215888,57.35123318,6.46],[12.12281195,57.35007303,7.86],[12.12284928,57.35003703,7.86],[12.12342422,57.34958676,7.93],[12.12347188,57.34955443,7.93],[12.12438414,57.34911921,7.46],[12.1244458,57.34908721,7.4],[12.12668027,57.3478524,7.8],[12.1267316,57.34782741,7.66],[12.12682892,57.34779076,7.4],[12.12687725,57.34778576,7.33],[12.12706124,57.34784107,7.26],[12.12710923,57.34785607,7.26],[12.12726788,57.34782907,7.53],[12.12730487,57.34780974,7.6],[12.13316099,57.34429697,9.2],[12.13321432,57.34426564,9.39],[12.13601473,57.34272488,12.93],[12.13606972,57.34269522,12.93],[12.13722663,57.34211164,13.26],[12.13728629,57.34208331,13.26],[12.13815789,57.34170339,13.26],[12.13822355,57.34167706,13.26],[12.13943179,57.34122646,11.73],[12.13949912,57.34120146,11.86],[12.14856182,57.33799342,13.86],[12.14864115,57.33796409,13.86],[12.1500777,57.33733586,11.26],[12.1501507,57.3372982,11.06],[12.15121062,57.33664195,9.26],[12.15127095,57.33659596,9.26],[12.15188024,57.33608467,9.39],[12.15193057,57.33603901,9.26],[12.1522992,57.33565372,8.06],[12.1523392,57.33560439,7.86],[12.15275812,57.33497946,5.73],[12.15278812,57.33492646,5.66],[12.15335868,57.33376124,5.66],[12.15338567,57.33370691,5.73],[12.15368963,57.33319763,6],[12.15372163,57.33314697,6],[12.15394594,57.332847,6.46],[12.15398527,57.33279967,6.53],[12.15451023,57.33221907,7.26],[12.15454422,57.33217174,7.13],[12.15458321,57.33206842,7],[12.15458754,57.33201376,6.8],[12.15455556,57.33180278,6.4],[12.15455956,57.33175345,6.53],[12.15465221,57.33161647,6.26],[12.1547052,57.33157814,6.2],[12.15483086,57.33151415,6.46],[12.15489952,57.33148816,6.6],[12.15564181,57.33125756,5.66],[12.15571347,57.3312249,5.53],[12.15651005,57.33072995,3.13],[12.15657638,57.33069295,3.13],[12.15760062,57.33017303,0.6],[12.15767128,57.3301407,0.53],[12.16521603,57.32690662,6.53],[12.16526036,57.32687796,6.46],[12.16530902,57.32681031,6.73],[12.16530302,57.32677598,6.73],[12.16522303,57.32671833,6.73],[12.16515903,57.32669967,6.73],[12.1638261,57.32649174,5.66],[12.16374444,57.32647708,5.6],[12.16271452,57.32625547,3.66],[12.16264752,57.32623014,3.6],[12.16238021,57.3260705,3.8],[12.16234622,57.32603217,3.8],[12.16220661,57.32568223,6],[12.16218961,57.32564423,6.2],[12.1620503,57.32550625,7],[12.16199964,57.32547892,7.26],[12.161814,57.32542993,7.26],[12.161744,57.32542527,7.2],[12.16128902,57.32545257,6.2],[12.16121236,57.32544824,6.06],[12.16069207,57.32535427,5.53],[12.16062474,57.32533594,5.6],[12.16046176,57.32526829,6],[12.16042177,57.3252403,6.13],[12.16013782,57.32493567,8.13],[12.16009683,57.32490601,8.26],[12.15988784,57.3248087,8.46],[12.15982818,57.32478937,8.46],[12.15950588,57.32471606,8.06],[12.15943822,57.32470573,8.06],[12.15916424,57.32469174,8],[12.15909458,57.32469573,7.93],[12.15842696,57.3247627,6.4],[12.15835463,57.32477236,5.93],[12.15738172,57.32492963,1.86],[12.15730739,57.32493996,1.86],[12.15702241,57.32495163,1.93],[12.15696375,57.3249443,2.06],[12.1567951,57.32488299,2.46],[12.1567731,57.32485766,2.46],[12.15674643,57.32456839,3],[12.1567351,57.32453306,3],[12.1565478,57.3243411,3.4],[12.1565338,57.32430877,3.53],[12.15656479,57.32417213,4.06],[12.15659045,57.32413947,4.19],[12.15701207,57.32383888,5.73],[12.15703007,57.32381155,5.8],[12.15712766,57.32335895,4.4],[12.15713632,57.32331896,4.19],[12.157089,57.32311632,3.4],[12.15707101,57.32307666,3.26],[12.1569117,57.32282703,3],[12.15689804,57.32280037,3],[12.15688006,57.3226734,3],[12.15688172,57.32267573,3],[12.15684807,57.32272636,3],[12.15685573,57.32274069,3],[12.15684407,57.32268208,3],[12.15682908,57.32034642,3.06],[12.15719036,57.31998115,4.19],[12.15722736,57.31995115,4.4],[12.15789458,57.31948791,6.46],[12.15793024,57.31946125,6.53],[12.15895612,57.3185924,6.46],[12.15899378,57.31856107,6.6],[12.15957238,57.31816047,7.4],[12.15961238,57.31812247,7.4],[12.15974804,57.31796517,7.4],[12.1597717,57.31792551,7.46],[12.15978803,57.31770587,7.6],[12.15979903,57.31767654,7.6],[12.16015565,57.31737691,7.13],[12.16019298,57.31733392,7.13],[12.16109885,57.31602374,7.13],[12.16113951,57.31598908,7.2],[12.16138782,57.31592913,7.33],[12.16142615,57.31592647,7.26],[12.16231642,57.31594546,6.2],[12.16239041,57.31595379,6.2],[12.16407325,57.31633702,10.73],[12.16413191,57.31634868,10.8],[12.16505883,57.31646394,12],[12.16512616,57.31646593,12.13],[12.16558979,57.31645694,12.6],[12.16565712,57.31644961,12.66],[12.1666434,57.31626567,14.26],[12.16671206,57.31625434,14.33],[12.16728134,57.31618738,14.4],[12.167354,57.31618139,14.4],[12.16777963,57.31616443,14.8],[12.16784696,57.31616509,14.93],[12.16862486,57.31619906,17.2],[12.16867419,57.31620172,17.13],[12.16938211,57.31632264,15],[12.16943044,57.3163333,15],[12.17048831,57.31663716,15],[12.17055431,57.31665482,15],[12.17124526,57.31679711,15.33],[12.17135426,57.3168121,15.33],[12.17516667,57.31698383,15],[12.175175,57.31698516,15],[12.17518967,57.31697516,15],[12.17520166,57.31692483,15],[12.17540531,57.31692749,14.8],[12.17545597,57.31691683,14.8],[12.17555995,57.31683752,14.8],[12.17557961,57.31680219,14.8],[12.17594582,57.31572364,15.4],[12.17596048,57.31567798,15.4],[12.17609974,57.31508472,12.33],[12.17611074,57.31505139,11.93],[12.17632604,57.31472208,9],[12.17635003,57.31465808,8.66],[12.17636436,57.31446076,7.93],[12.17635503,57.31439743,7.73],[12.17620474,57.31392914,7.2],[12.17620907,57.31386781,7.26],[12.17639737,57.31363217,7.6],[12.17642737,57.31358517,7.6],[12.17663034,57.31314055,7.06],[12.17665967,57.31309289,6.93],[12.17688797,57.3128116,6.6],[12.1769303,57.31276727,6.6],[12.17698029,57.31272694,6.6],[12.17704362,57.31269261,6.6],[12.1773026,57.31263595,6.73],[12.17739926,57.31262929,6.8],[12.17893418,57.31261268,7.06],[12.17902484,57.31261068,7.13],[12.18015878,57.31255841,6.73],[12.18023811,57.31253775,6.53],[12.18061974,57.31233612,6.26],[12.18067107,57.31229613,6.33],[12.18096769,57.3118975,8.2],[12.18101969,57.31185184,8.46],[12.18114402,57.31178052,8.86],[12.18121102,57.31175419,9.06],[12.18162465,57.31162889,9.66],[12.18167731,57.31160389,9.73],[12.18198193,57.31136093,10],[12.18200459,57.31133094,10.06],[12.18217252,57.311029,10.86],[12.18217552,57.31100001,10.93],[12.18215254,57.31091969,10.93],[12.18213555,57.31089103,10.93],[12.18204389,57.31078972,11.13],[12.18199789,57.31075373,11.4],[12.18166524,57.31060842,12.6],[12.18158391,57.31058809,12.86],[12.18097895,57.31050845,13.66],[12.18089462,57.31049479,13.53],[12.18066196,57.3104278,12.73],[12.18059563,57.31039514,12.53],[12.17995837,57.30988454,11.2],[12.17991438,57.30985055,11.13],[12.17910949,57.30938833,12.73],[12.17908383,57.30936967,13.13],[12.17892986,57.30922338,15.13],[12.17891053,57.30920205,15.4],[12.17874691,57.30896409,16.33],[12.17871492,57.30894443,16.26],[12.17783564,57.30879451,15],[12.17775965,57.30877818,14.86],[12.17639573,57.30841358,12.46],[12.17629074,57.30839025,12.4],[12.17509613,57.30824597,11.33],[12.17499114,57.30823131,11.13],[12.1743525,57.30810268,9.6],[12.17427117,57.30807969,9.53],[12.17404618,57.30798805,9.46],[12.17397619,57.30795305,9.39],[12.17338424,57.30761942,7.73],[12.17331824,57.30758576,7.46],[12.17251928,57.3073088,6.86],[12.17245062,57.30727814,6.93],[12.17234829,57.30720415,7],[12.17231529,57.30716215,7],[12.17222132,57.30693783,7.2],[12.17219432,57.3068935,7.2],[12.17205833,57.30677785,6.73],[12.171992,57.30674752,6.53],[12.17149038,57.30660455,5.13],[12.17140272,57.30658289,5],[12.1710504,57.30654925,3.86],[12.1709674,57.30653726,3.53],[12.17049609,57.3063553,2.6],[12.17040676,57.30633297,2.6],[12.16966615,57.30632963,3.46],[12.16959549,57.3063193,3.8],[12.16947183,57.30628531,4.26],[12.16942017,57.30626365,4.4],[12.16925552,57.30616001,5.33],[12.16922653,57.30612968,5.66],[12.168576,57.30512911,7.4],[12.16855067,57.30508511,7.33],[12.16836005,57.30473347,7.46],[12.16833905,57.30468914,7.53],[12.1681971,57.30432051,7.26],[12.16818211,57.30427385,7],[12.16811247,57.30403754,6.73],[12.16810281,57.30398888,6.66],[12.16804352,57.30354827,5],[12.16803986,57.30349927,4.8],[12.16809246,57.30272335,2.86],[12.16809446,57.30267835,2.8],[12.16807615,57.30254369,2.8],[12.16805749,57.30249736,2.86],[12.16779152,57.3021424,3.26],[12.16775952,57.30209541,3.46],[12.16757923,57.30169012,4.86],[12.16755524,57.30164546,5.06],[12.16718931,57.30109017,6.33],[12.16715731,57.30104484,6.33],[12.16596215,57.29967801,7.4],[12.16593415,57.29963335,7.4],[12.16584284,57.29940337,7.2],[12.16583751,57.29935337,7.13],[12.16589848,57.29904707,6.2],[12.16590981,57.29899274,6.06],[12.16590281,57.29888174,5.8],[12.16587681,57.29882708,5.6],[12.16579082,57.29872476,5.26],[12.16573816,57.29867743,5.13],[12.16539752,57.29843647,4.33],[12.16534519,57.29839581,4.26],[12.16517087,57.29821817,3.86],[12.16514921,57.29817084,3.73],[12.16515254,57.29807418,3.46],[12.16518287,57.29802885,3.33],[12.16557218,57.29783387,2.53],[12.16561984,57.29779388,2.33],[12.16565117,57.29774888,2.13],[12.16566717,57.29770055,1.93],[12.1656745,57.29750424,1.8],[12.16567916,57.29745525,1.73],[12.1657418,57.2972616,1.46],[12.16576846,57.29721427,1.4],[12.16613642,57.29686864,0.86],[12.16617908,57.29682531,0.73],[12.16631172,57.296639,0.6],[12.16633238,57.29658934,0.6],[12.16635866,57.29538809,2],[12.16635866,57.2953451,2],[12.16631207,57.2948185,2.06],[12.16630241,57.29479184,2.13],[12.16610244,57.29456453,2.4],[12.16606144,57.29452754,2.53],[12.16459794,57.29334803,4.19],[12.16455461,57.29331037,4.06],[12.16388836,57.29264444,5.4],[12.1638537,57.29260211,5.4],[12.16364906,57.29229848,4.93],[12.16362273,57.29225482,4.86],[12.16345577,57.29188087,3.26],[12.16343744,57.29183288,3.13],[12.16336614,57.29159257,2.46],[12.16335648,57.29154458,2.33],[12.16331819,57.29110096,2],[12.16331553,57.29105163,2],[12.16340313,57.2904257,2.06],[12.16341646,57.29037771,2.06],[12.1636534,57.28985709,2],[12.1636794,57.28981043,2],[12.16405201,57.28927814,2.06],[12.16408667,57.28923248,2.13],[12.16523684,57.28784031,3],[12.16527217,57.28779531,3],[12.16610271,57.28665278,7.33],[12.16613604,57.28660612,7.33],[12.16664328,57.28584888,5.46],[12.16666661,57.28580988,5.46],[12.16740171,57.28448575,7.13],[12.16741937,57.28445275,7.2],[12.16758431,57.28406812,8],[12.16759497,57.28403679,8],[12.16767025,57.28370285,8.46],[12.16767924,57.28367986,8.53],[12.16785019,57.28342356,8.93],[12.16786785,57.28338756,8.93],[12.16803011,57.28290598,9],[12.16803844,57.28287365,9.06],[12.16805142,57.28259801,9.6],[12.16805808,57.28256235,9.66],[12.16830894,57.28153054,9.33],[12.16831094,57.28149721,9.33],[12.16829428,57.28143322,9.33],[12.16827562,57.28140489,9.33],[12.16816064,57.28128657,9.33],[12.16812865,57.28125057,9.26],[12.16810599,57.28116692,9.13],[12.16812899,57.28112626,9.13],[12.16833664,57.28104794,9],[12.1684383,57.28103961,9],[12.16936526,57.2810846,8.8],[12.16937692,57.28111026,8.66],[12.16933059,57.28116526,8.53],[12.16928326,57.28118792,8.46],[12.16898828,57.28127256,8.46],[12.16893862,57.28129522,8.46],[12.16881098,57.28141319,8.8],[12.16879099,57.28144685,8.93],[12.1685961,57.28240809,8.53],[12.16859077,57.28244709,8.46],[12.16859376,57.28252242,8.46],[12.16861176,57.28255675,8.46],[12.16870008,57.28259874,8.46],[12.16876041,57.28260407,8.46],[12.16895773,57.28258275,8.53],[12.16902639,57.28256776,8.53],[12.17831573,57.28047307,12.2],[12.17836006,57.28046541,12.06],[12.17857504,57.28047641,11.2],[12.17862637,57.2805004,11.26],[12.17905034,57.28082702,12.53],[12.17911967,57.28085035,12.73],[12.17949397,57.28083136,13.6],[12.17955563,57.28081536,13.73],[12.17974228,57.28070206,15.06],[12.17975927,57.28067607,15.26],[12.1798269,57.28048709,17],[12.1798389,57.28046543,17.33],[12.18012181,57.2800495,19.66],[12.18013514,57.28002484,19.66],[12.18046197,57.27924999,22.53],[12.18047097,57.279227,22.6],[12.18061219,57.27862743,23.73],[12.18061652,57.2785991,23.8],[12.18059554,57.27817715,23.6],[12.18059587,57.27814616,23.6],[12.18064486,57.27802385,23.33],[12.18067219,57.27799486,23.2],[12.18082551,57.27788255,23.06],[12.18087184,57.27785622,23.2],[12.18130113,57.27764661,22.4],[12.18134779,57.27761595,22.2],[12.18184108,57.27722069,20.6],[12.18188441,57.27718169,20.4],[12.18210405,57.27693939,21.06],[12.18213205,57.27689806,21.26],[12.18236498,57.27645746,24.2],[12.18238631,57.27642847,24.26],[12.18256027,57.27626916,25.2],[12.18259393,57.27624617,25.26],[12.18277757,57.27613986,25.6],[12.1828169,57.27612187,25.66],[12.18329352,57.27593827,28.66],[12.18333585,57.27592361,28.73],[12.18444273,57.27561372,27],[12.18449272,57.27559473,26.86],[12.18458771,57.27555141,26.6],[12.18463037,57.27552508,26.4],[12.18472669,57.27542876,25.66],[12.18474568,57.2753921,25.53],[12.18477535,57.27518845,24.6],[12.18476135,57.27514379,24.4],[12.18470836,57.27504947,24],[12.1846667,57.27500381,23.6],[12.18455438,57.27492149,23.4],[12.18448939,57.27488416,23.26],[12.18216687,57.27373797,17.53],[12.18206521,57.27369364,17.6],[12.18080861,57.27331836,20.4],[12.18073761,57.27329336,20.66],[12.17987901,57.27286377,21.2],[12.17983635,57.27284244,21.13],[12.17868845,57.27238019,19.53],[12.17862812,57.27235253,19.6],[12.17829982,57.27216923,19.46],[12.17825582,57.2721359,19.4],[12.17760426,57.27157665,19.13],[12.17759093,57.27154499,19.06],[12.17759659,57.27147567,18.79],[12.17761025,57.27143834,18.66],[12.17774356,57.27119169,18.4],[12.17776956,57.27114803,18.33],[12.17896696,57.26931363,17.86],[12.17899996,57.26925597,17.73],[12.17924792,57.26872436,17],[12.17927058,57.26866836,17],[12.17945852,57.26808377,16.86],[12.17947085,57.26803211,16.79],[12.17951415,57.26762249,15.93],[12.17951282,57.26757183,15.8],[12.17941422,57.26704021,14.26],[12.17939689,57.26698588,14.13],[12.17924959,57.26664792,12.66],[12.17921893,57.26658859,12.4],[12.17873865,57.26580965,9.73],[12.17870299,57.26574299,9.6],[12.17856102,57.26534602,9.2],[12.17854769,57.26528169,9.13],[12.17847745,57.26408349,9],[12.17847845,57.26402216,9.13],[12.17859438,57.26313555,9.73],[12.17860304,57.26307722,9.6],[12.17871898,57.26240926,8.33],[12.17873231,57.26235426,8.33],[12.1788856,57.26197063,8.33],[12.17891493,57.26191564,8.33],[12.18034112,57.26004214,6.4],[12.18037945,57.25998614,6.4],[12.18067208,57.25946818,6.86],[12.18070107,57.25941119,6.93],[12.18084904,57.2590089,7.06],[12.18086637,57.25895224,7.13],[12.1809933,57.25823564,8.39],[12.18099629,57.25818165,8.39],[12.18092066,57.25745037,8.2],[12.18091733,57.25739837,8.2],[12.18103528,57.25704108,7.2],[12.18103295,57.25698675,7.06],[12.18053887,57.25460298,8],[12.18053021,57.25455065,8],[12.18050757,57.25418435,8],[12.18050957,57.25413369,8],[12.18058483,57.25343475,8.13],[12.18059116,57.25338575,8.13],[12.18066346,57.25309211,7.66],[12.18067979,57.25304278,7.53],[12.18084408,57.25265417,6.6],[12.18087141,57.25260618,6.6],[12.18214217,57.25062471,7.33],[12.18216883,57.25058672,7.26],[12.18246979,57.25038209,7.2],[12.18249345,57.2503471,7.26],[12.18267038,57.24991383,8],[12.18267771,57.24989283,8],[12.18271898,57.24970055,7.26],[12.18271365,57.24967955,7.2],[12.18260333,57.2496309,6.4],[12.18256034,57.24963024,6.2],[12.18229172,57.24972954,3.86],[12.18038639,57.24709955,3.66],[12.18181193,57.24578571,5.66],[12.18185992,57.24574605,5.73],[12.18293814,57.24505016,6.73],[12.18299447,57.2450175,6.8],[12.18325813,57.24492085,7.13],[12.18333146,57.24490752,7.26],[12.18397477,57.24487153,8.73],[12.1840511,57.24484887,8.93],[12.18549134,57.24426194,10.86],[12.18556,57.24422995,10.8],[12.18666223,57.24351307,12.13],[12.18671656,57.24348007,12.26],[12.18732352,57.24324878,12.66],[12.18739018,57.24321612,12.6],[12.18847576,57.2425032,11.53],[12.18853476,57.24246654,11.53],[12.1891797,57.24217159,11.13],[12.18924903,57.24213593,11.13],[12.18973198,57.24172732,12.2],[12.18978698,57.24169633,12.26],[12.19040658,57.24149672,11.2],[12.19047858,57.24147073,10.93],[12.19073222,57.24134508,10],[12.19078855,57.24131109,9.93],[12.19091087,57.24119478,10.06],[12.1909372,57.24115112,10.13],[12.19104918,57.24078481,12.13],[12.19103485,57.24073981,12.26],[12.1909222,57.24061249,12.26],[12.19087187,57.2405725,12.2],[12.19026391,57.24015757,10.33],[12.19025258,57.24012091,10.2],[12.19028291,57.24004959,9.93],[12.1903189,57.24001193,9.8],[12.19058388,57.23979596,9.2],[12.19062554,57.2397453,9.13],[12.19077285,57.23944833,9],[12.19081685,57.23941534,9],[12.19094517,57.23938602,8.93],[12.1910215,57.23938369,8.86],[12.19213277,57.23944995,8],[12.19218276,57.23945261,8],[12.19291197,57.23942371,6.46],[12.19296696,57.23941905,6.4],[12.19394855,57.23924545,5.4],[12.19401554,57.23923079,5.33],[12.1945665,57.23905318,5],[12.1946245,57.23902885,5],[12.19478548,57.23894986,5.06],[12.19483214,57.2389182,5.13],[12.1951741,57.23861425,5.26],[12.19522143,57.23857625,5.26],[12.19550074,57.23840528,5.2],[12.19556074,57.23837295,5.13],[12.19581106,57.23825665,5.06],[12.19587972,57.23823099,5.06],[12.19647767,57.23806704,4.8],[12.19655233,57.23804471,4.73],[12.19683398,57.23793141,4.4],[12.19689931,57.23789942,4.4],[12.19913113,57.23662224,3.73],[12.19918946,57.23658525,3.66],[12.20178989,57.23484709,2.33],[12.20185055,57.23480143,2.33],[12.20308843,57.23366586,2.4],[12.20313509,57.23362353,2.4],[12.20348306,57.23335156,2.33],[12.20354139,57.23331823,2.33],[12.20405637,57.23321726,2.53],[12.20416336,57.23321393,2.6],[12.20477766,57.23333723,2.93],[12.20484599,57.23334122,3],[12.20494064,57.2333229,3],[12.2049753,57.23330857,2.93],[12.20519159,57.23317627,2.46],[12.20522758,57.23315428,2.4],[12.20562319,57.23277734,2],[12.20565985,57.23274368,2],[12.20612111,57.23237642,2],[12.2061251,57.23237076,2],[12.20882086,57.23049838,2.73],[12.20888252,57.23045538,2.8],[12.21021705,57.22942146,2.33],[12.21028204,57.2293758,2.33],[12.21445871,57.22652646,2.13],[12.21451971,57.2264838,2.13],[12.21533466,57.22586453,2.6],[12.21539165,57.2258192,2.66],[12.21626623,57.22508428,2.4],[12.21631956,57.22503762,2.4],[12.21743177,57.22395741,1.93],[12.21747877,57.22390842,1.86],[12.21803239,57.22330482,2.26],[12.21807739,57.22325349,2.33],[12.21878263,57.22238923,2.86],[12.21881996,57.2223399,2.86],[12.21952885,57.22126569,3.13],[12.21955885,57.22121536,3.13],[12.22004875,57.2202818,5],[12.22007608,57.22022847,5.06],[12.22035935,57.21960686,3.66],[12.22037968,57.21955953,3.6],[12.2207909,57.218303,2.33],[12.22080656,57.218248,2.33],[12.2209935,57.21736039,3.06],[12.22100416,57.21730506,3.13],[12.22105846,57.21691275,3.6],[12.22106312,57.21685576,3.66],[12.22116498,57.21524489,1.8],[12.22117231,57.21519823,1.8],[12.22122263,57.21511457,1.93],[12.22126796,57.21508091,2],[12.22167493,57.2149766,2.33],[12.22174426,57.2149546,2.4],[12.22186291,57.21489794,2.6],[12.22191024,57.21486428,2.73],[12.2219739,57.21478796,2.93],[12.2219869,57.2147463,3],[12.22193758,57.21461231,3],[12.22189325,57.21456765,3],[12.22169094,57.21445233,3],[12.22161228,57.21441834,3],[12.22134963,57.21433902,2.93],[12.2212523,57.21432236,2.86],[12.22053901,57.21424573,3],[12.22045468,57.2142264,3],[12.22026469,57.21414575,3],[12.22022003,57.21411642,3],[12.22012039,57.21399077,3],[12.22011273,57.21395711,3],[12.22014071,57.2137728,3.13],[12.22015437,57.21373281,3.2],[12.22089245,57.21167871,4.93],[12.22090345,57.21163038,4.93],[12.22094242,57.21133241,5.53],[12.22095241,57.21128308,5.73],[12.22115666,57.21047818,7],[12.22116265,57.21043785,7],[12.22130709,57.20856838,9],[12.22130643,57.20852772,8.93],[12.22118653,57.20763116,8.33],[12.22117687,57.20758316,8.39],[12.22094793,57.20691024,10.4],[12.22092727,57.20686458,10.73],[12.22050235,57.20608101,10.6],[12.22047269,57.20604035,10.26],[12.2202644,57.20580372,8.86],[12.2202244,57.20576772,8.86],[12.2198991,57.20553808,8.2],[12.2198401,57.20551275,8.2],[12.21931148,57.20537279,8.39],[12.21925482,57.20536846,8.46],[12.2187902,57.20550375,9.6],[12.21873521,57.20551841,9.6],[12.21842357,57.20556505,9.6],[12.21835791,57.20557038,9.53],[12.21400627,57.20577164,16.79],[12.21395961,57.20577263,16.93],[12.21319736,57.20573973,19.6],[12.21315137,57.2057364,19.6],[12.2122568,57.20556014,20],[12.21220814,57.20555248,20],[12.21175419,57.20552086,19.79],[12.2116922,57.2055202,19.79],[12.21146987,57.20554052,19.79],[12.21138587,57.20555751,19.73],[12.2108589,57.20573947,18.93],[12.21079424,57.20575946,18.86],[12.21057526,57.20579245,18.73],[12.21048993,57.20579112,18.6],[12.21020794,57.20574747,18.2],[12.21011361,57.20572114,18.06],[12.20913633,57.20532686,16.66],[12.209036,57.2053042,16.73],[12.2077284,57.20519462,15.6],[12.20763007,57.20518596,15.33],[12.2070411,57.20509998,14.46],[12.20695311,57.20507732,14.53],[12.20672512,57.20498433,14.46],[12.20666546,57.204946,14.46],[12.20650715,57.20477402,13.8],[12.20646449,57.20473703,13.6],[12.20627184,57.20468404,12.26],[12.20619118,57.20468537,12.26],[12.20527856,57.20484499,9.39],[12.2051709,57.20486832,9.06],[12.20422462,57.20511829,7.33],[12.20414696,57.20515362,7.2],[12.20378932,57.20545026,6.13],[12.20374066,57.20548825,6],[12.20254918,57.20634106,7.33],[12.20252318,57.20636105,7.33],[12.20222458,57.20662429,6.86],[12.20221725,57.20663095,6.86],[12.20223458,57.20665928,6.86],[12.20225058,57.20666728,6.86],[12.20232756,57.20665395,6.86],[12.20234555,57.20663629,6.8],[12.20236853,57.20653698,6.66],[12.20237753,57.20650998,6.6],[12.20247251,57.20640933,6.06],[12.20250317,57.206384,5.93],[12.20423597,57.20509156,9],[12.20423398,57.20508757,9],[12.20312478,57.20539612,8.06],[12.20306279,57.20541212,8.33],[12.20244518,57.20554539,10.86],[12.20238685,57.2055424,11.26],[12.2021402,57.20547375,12.73],[12.20209721,57.20545409,12.93],[12.20040245,57.20461634,24.86],[12.20036079,57.20460834,25.26],[12.19817462,57.2046862,19.26],[12.19809396,57.2046862,18.93],[12.19615407,57.20460061,10],[12.19605574,57.20457895,9.2],[12.19485812,57.20416634,8.26],[12.19475746,57.20412434,8.26],[12.19424517,57.20378772,9],[12.19419718,57.20375939,8.73],[12.19362388,57.20348877,7.4],[12.19356755,57.20345844,7.2],[12.19318559,57.20319315,7.26],[12.19315193,57.20316449,7.13],[12.19277568,57.20271226,9.2],[12.19274935,57.20268193,9.46],[12.19259604,57.20257094,9.73],[12.19254438,57.20254728,9.86],[12.19166481,57.20228869,10.6],[12.19160982,57.20227803,10.53],[12.1907816,57.20222743,9.26],[12.1907346,57.2022071,9.33],[12.19062828,57.20211613,9.46],[12.19061228,57.20208047,9.6],[12.19055668,57.20169554,11.53],[12.19055135,57.20167021,11.66],[12.19050269,57.20160023,11.86],[12.19046303,57.2015849,11.86],[12.18910311,57.20164817,10],[12.18900478,57.20166483,10],[12.18845149,57.20180313,12.06],[12.18837249,57.20182979,12.33],[12.18773787,57.20209906,11.93],[12.18768821,57.20211539,11.6],[12.18712359,57.20224535,9.39],[12.1870516,57.20225534,9.39],[12.18558073,57.20237589,8.33],[12.18551807,57.20237955,8.33],[12.18487544,57.20235557,8.13],[12.18481678,57.20234324,8.26],[12.18439347,57.2022136,9],[12.18433448,57.20219027,9.26],[12.18269262,57.2014314,6.2],[12.18261863,57.20139374,6.06],[12.18199333,57.20103447,6.66],[12.181929,57.20099481,6.8],[12.18121607,57.20050188,8.13],[12.18116407,57.20046989,8.2],[12.1805318,57.20013127,7.06],[12.18046681,57.20010561,6.93],[12.17929455,57.1997477,5.06],[12.17921856,57.19973271,5.06],[12.17877925,57.19970373,5.46],[12.17871492,57.19970773,5.53],[12.17840397,57.19979335,5.86],[12.17839831,57.19979601,5.8],[12.17831268,57.19971571,5.93],[12.17827102,57.19970371,5.93],[12.17740676,57.19961776,5.46],[12.1773281,57.1996041,5.4],[12.17627251,57.19934985,5.33],[12.17619751,57.19932819,5.13],[12.17584686,57.19919621,4.4],[12.1757872,57.19916588,4.4],[12.174463,57.19839369,7.46],[12.174412,57.19837269,7.6],[12.1734521,57.19808245,8.06],[12.17338544,57.19806446,8.13],[12.17134296,57.19755128,17.13],[12.17127863,57.19753062,17.86],[12.17109664,57.19745564,19.79],[12.17104264,57.19742598,20.26],[12.17068867,57.19715836,20.33],[12.17064334,57.19712536,20.26],[12.17041736,57.19700305,20],[12.1703487,57.19697839,19.93],[12.16982507,57.19689009,20.13],[12.16975141,57.19688243,20.26],[12.16857283,57.19681051,16.26],[12.16850917,57.19680152,15.86],[12.16768124,57.19656627,13.66],[12.16761358,57.19655761,13.6],[12.16658363,57.19659725,11.46],[12.16650464,57.19658692,11.33],[12.16636431,57.19655393,11.2],[12.16630298,57.19653227,11.13],[12.16549771,57.19617067,10.2],[12.16544838,57.19615767,10.13],[12.16400284,57.19597478,9.33],[12.16393418,57.19596745,9.26],[12.16331957,57.19595947,9],[12.16330624,57.19595881,9],[12.1628277,57.19585394,9.73],[12.1628237,57.19585427,9.93],[12.16543462,57.19616487,11],[12.16548662,57.19617486,11],[12.16571093,57.19623317,11.26],[12.16576426,57.19625183,11.33],[12.16653854,57.19656942,14.06],[12.1666182,57.19658342,14],[12.16773414,57.19656411,15.26],[12.16779147,57.19657644,15.6],[12.16826107,57.19676038,18.93],[12.1682964,57.19677204,19.06],[12.16884931,57.19685263,14.53],[12.16885664,57.19685396,13.73],[12.16887396,57.19689893,9.66],[12.16887196,57.19689993,9.13],[12.17409347,57.1982648,5.66],[12.17416847,57.19828813,5.6],[12.17444945,57.19839678,5.4],[12.17451444,57.19842811,5],[12.17583735,57.19916699,5.4],[12.17590335,57.19920132,5.4],[12.17626566,57.19934696,5.4],[12.17634365,57.19936996,5.46],[12.1776429,57.19965254,5.66],[12.17771523,57.19966187,5.66],[12.17922943,57.19974071,6.66],[12.17928176,57.19974937,6.93],[12.18049296,57.20007956,8],[12.18050362,57.20007989,8],[12.18064489,57.19997696,15.4],[12.17579823,57.19766363,16],[12.17599385,57.197481,16.86],[12.17600818,57.19745501,17.13],[12.17627439,57.19673784,18.86],[12.17629105,57.19670918,18.6],[12.1767693,57.19613594,14.8],[12.1767953,57.19609861,14.6],[12.17709724,57.19546135,13.26],[12.17712757,57.19541602,13.2],[12.17737854,57.19521071,13.06],[12.17744287,57.19517305,12.93],[12.17915808,57.19421353,12.8],[12.17921541,57.1941962,12.8],[12.17940507,57.19420253,12.8],[12.17946807,57.19421952,12.8],[12.18030867,57.1945178,12.33],[12.18038433,57.19453913,12.2],[12.18067997,57.1945488,11.66],[12.1807413,57.19452747,11.53],[12.18436537,57.19228406,8.13],[12.1844197,57.1922504,8.26],[12.18570454,57.19150322,4.53],[12.1857562,57.19147456,4.4],[12.18748829,57.19089743,2],[12.18748995,57.1908961,2],[12.1877819,57.19082582,2],[12.18777524,57.19083415,2],[12.18737529,57.19095445,2],[12.18733529,57.19095945,2],[12.18671704,57.1909475,1.86],[12.18668638,57.1909395,1.73],[12.18657176,57.19082387,0.8],[12.18654543,57.19081021,0.73],[12.18614052,57.19066729,0.66],[12.18613986,57.19066729,0.73],[12.18539187,57.1901623,1]]}}]}