{"type":"FeatureCollection","features":[{"type":"Feature","properties":{"name":"20260425 Cicloturismo","time":"2026-04-25T08:32:33Z"},"geometry":{"type":"LineString","coordinates":[[9.25050333,53.200436],[9.25024907,53.20023704],[9.25022574,53.20021138],[9.24986917,53.19969579],[9.24984884,53.19966746],[9.24918604,53.19849],[9.24917371,53.198468],[9.24921569,53.19835036],[9.24923735,53.19833437],[9.24962696,53.19818446],[9.2496163,53.19818479],[9.24941534,53.19828376],[9.24937468,53.19829375],[9.24775656,53.1986199],[9.24771123,53.19863323],[9.24668034,53.19907746],[9.24664168,53.19909646],[9.24642838,53.19926009],[9.24640572,53.19928608],[9.24593085,53.19995864],[9.24590552,53.19998497],[9.24557957,53.20017026],[9.24553491,53.20018525],[9.24362917,53.20061438],[9.24359384,53.20062238],[9.24166068,53.20077023],[9.24161702,53.20078456],[9.24130306,53.20094219],[9.24126907,53.20096552],[9.24049491,53.20165703],[9.24046158,53.20167569],[9.23976302,53.20175029],[9.23975836,53.20174396],[9.24021397,53.20170268],[9.24026696,53.20170534],[9.2404316,53.20181897],[9.2404336,53.20184897],[9.24008063,53.20411594],[9.24007497,53.20414694],[9.23988368,53.20439123],[9.23984435,53.20441156],[9.2204298,53.21114651],[9.22040014,53.21115684],[9.22019388,53.21135541],[9.22018089,53.2113644],[9.21982356,53.2113634],[9.21978957,53.21136806],[9.21927599,53.21155598],[9.21927399,53.21155532],[9.21996788,53.21131941],[9.22000321,53.21130408],[9.22009684,53.21124511],[9.22017784,53.21120611],[9.22014818,53.21115579],[9.22012485,53.21113646],[9.21584728,53.2086258],[9.21581662,53.20860814],[9.21292103,53.20701289],[9.21287837,53.20699056],[9.21219678,53.20672829],[9.21214045,53.20671396],[9.20809385,53.20593467],[9.20804885,53.20592534],[9.20714561,53.20562345],[9.20711328,53.20560312],[9.20680668,53.20533718],[9.20678269,53.20531152],[9.2065464,53.20495324],[9.20653574,53.20492225],[9.20651276,53.20477327],[9.20651642,53.20474661],[9.20664469,53.20441999],[9.20665268,53.20438966],[9.20664268,53.20418036],[9.20662735,53.20415403],[9.20569883,53.20356584],[9.20568883,53.20354185],[9.20569384,53.20332389],[9.2057065,53.2032949],[9.2060161,53.20291998],[9.20602876,53.20290165],[9.20600745,53.20283935],[9.20599246,53.20283102],[9.20420135,53.20243885],[9.20414369,53.20242986],[9.20284581,53.20234262],[9.20280282,53.20233029],[9.18885537,53.19591214],[9.18881204,53.19589314],[9.18594213,53.19443456],[9.18590013,53.19441423],[9.18474723,53.19393166],[9.18469124,53.193904],[9.18307645,53.19279983],[9.18304012,53.1927735],[9.17767312,53.18873247],[9.17762646,53.18869748],[9.17678889,53.18820622],[9.17674256,53.18818623],[9.17617094,53.18804663],[9.17611828,53.18803797],[9.17405917,53.18779355],[9.17401818,53.18778622],[9.16497331,53.18598352],[9.16492265,53.18598385],[9.16103439,53.18670814],[9.16098806,53.18671914],[9.15792874,53.18779575],[9.15788208,53.18781408],[9.15714918,53.18827665],[9.15711319,53.18828998],[9.15592965,53.18832762],[9.15588065,53.18831529],[9.15562435,53.18817066],[9.15558369,53.18814033],[9.15440814,53.18716748],[9.15440214,53.18713082],[9.15466543,53.1868272],[9.15470642,53.1867972],[9.15569727,53.18619431],[9.1557286,53.18616998],[9.15579425,53.18609066],[9.15580291,53.186062],[9.15576559,53.18598268],[9.15573893,53.18595969],[9.15284862,53.18446641],[9.15280529,53.18438241],[9.15215406,53.18413685],[9.15211373,53.18411719],[9.14512662,53.18062577],[9.14508796,53.18060677],[9.14451236,53.18040482],[9.14446837,53.18039549],[9.14286789,53.18025698],[9.14282556,53.18024965],[9.14229329,53.1800194],[9.14225629,53.17999741],[9.14063479,53.17882029],[9.14060046,53.17878963],[9.13680176,53.17474354],[9.1367731,53.17471255],[9.13622448,53.1743053],[9.13617548,53.17427964],[9.12974255,53.17159963],[9.12969522,53.17158063],[9.12584859,53.170379],[9.12580226,53.17036634],[9.12555962,53.17033969],[9.12551696,53.17034135],[9.1231246,53.17055338],[9.12307927,53.17055571],[9.12212238,53.17050374],[9.12208839,53.17049241],[9.12062931,53.16965733],[9.12059631,53.16964067],[9.11941815,53.16920248],[9.11939749,53.16918848],[9.11863903,53.16845736],[9.1184997,53.1683307],[9.11692272,53.16663036],[9.11689073,53.16659803],[9.11648512,53.16630007],[9.11642746,53.16627407],[9.11067555,53.16455825],[9.11060922,53.16453959],[9.10762777,53.16388779],[9.10755678,53.16386613],[9.10355009,53.16231711],[9.1034921,53.16230012],[9.10191321,53.16214726],[9.10186355,53.1621256],[9.10175257,53.16197995],[9.10173958,53.16193562],[9.10156266,53.1610894],[9.10154367,53.16104274],[9.10121271,53.16074112],[9.10119238,53.16071846],[9.10126629,53.16020454],[9.10126995,53.16016188],[9.10125629,53.15925232],[9.10126795,53.15921066],[9.10142793,53.15906801],[9.10149292,53.15904268],[9.10349742,53.1584932],[9.10356842,53.15847187],[9.10374874,53.15833856],[9.10374441,53.15829723],[9.10342279,53.15788427],[9.10338713,53.15784461],[9.10258557,53.15704504],[9.10254057,53.15700438],[9.09931066,53.15436377],[9.099276,53.15433511],[9.09852013,53.15357923],[9.09850647,53.1535559],[9.09682117,53.14999501],[9.09681518,53.14996768],[9.09717489,53.14820765],[9.09718022,53.14817332],[9.09731274,53.14663691],[9.09730608,53.14660891],[9.09718913,53.14643062],[9.09716413,53.14640929],[9.09687685,53.14629401],[9.09686719,53.14629268],[9.09565442,53.14445528],[9.09562743,53.14442395],[9.09546845,53.14434864],[9.09542445,53.14434631],[9.09484954,53.14440657],[9.09482555,53.1444229],[9.09516341,53.14514838],[9.09503508,53.14520404],[9.09514772,53.14502141],[9.09513506,53.14499242],[9.09487046,53.14455649],[9.0948488,53.14452783],[9.09469015,53.14441886],[9.09464415,53.1444122],[9.08838041,53.14485427],[9.08834242,53.14485793],[9.08755156,53.14485792],[9.0875299,53.14484893],[9.08652096,53.14315462],[9.08650897,53.14313229],[9.08300953,53.13626354],[9.08299654,53.13623288],[9.08297087,53.13580961],[9.08297687,53.13577495],[9.08359723,53.13385757],[9.08358123,53.13383057],[9.08199841,53.13370901],[9.08196508,53.13370502],[9.08182112,53.13360641],[9.08181879,53.13360475],[9.08087089,53.13351552],[9.08082156,53.13350886],[9.08007731,53.13333393],[9.08004065,53.13331927],[9.07914049,53.13273344],[9.07911249,53.13271378],[9.0785019,53.13249421],[9.07846024,53.13247222],[9.06991729,53.12778262],[9.06985296,53.12774996],[9.06905868,53.12739003],[9.06900135,53.1273667],[9.06768912,53.12693916],[9.06768546,53.12693817],[9.06772978,53.12675889],[9.06771679,53.12674923],[9.0672675,53.12667024],[9.06724384,53.12666424],[9.0639305,53.12561858],[9.06389317,53.12560292],[9.06073828,53.123771],[9.06069062,53.12374234],[9.06015837,53.12328241],[9.06013404,53.12324475],[9.05949389,53.12187263],[9.05947223,53.12182997],[9.0591403,53.12141769],[9.05912464,53.1213947],[9.05859878,53.12046819],[9.05857845,53.12043086],[9.05855344,53.1201979],[9.05853811,53.12015991],[9.0580909,53.11944637],[9.05807057,53.11941638],[9.05791527,53.11927374],[9.05789794,53.11924874],[9.05775399,53.11891715],[9.05774166,53.11889316],[9.05736208,53.11869356],[9.05733242,53.1186629],[9.05605632,53.11698852],[9.05602066,53.11696619],[9.03356517,53.11688634],[9.03351951,53.11688867],[9.03087878,53.11738447],[9.03082345,53.1173888],[9.02824835,53.11732592],[9.02819336,53.11732791],[9.02004436,53.11790084],[9.01997236,53.11791283],[9.01829084,53.11828437],[9.01823618,53.1183127],[9.01708368,53.11949088],[9.01705102,53.11952288],[9.01674039,53.11970351],[9.01667973,53.1197125],[9.0127897,53.11943284],[9.01273071,53.11943218],[9.00414873,53.11977091],[9.0040794,53.1197729],[9.0025222,53.1197073],[9.00245587,53.11971163],[8.99289048,53.12140443],[8.99283515,53.1213961],[8.99267851,53.1212498],[8.99266418,53.12121014],[8.99148239,53.11739637],[8.99146939,53.11736104],[8.99120743,53.11706673],[8.9911671,53.11703907],[8.98203206,53.11123807],[8.98199373,53.11122008],[8.97797524,53.10977389],[8.97793358,53.1097649],[8.9777076,53.10981655],[8.97767427,53.10983354],[8.9766608,53.11046672],[8.97665947,53.11046573],[8.97778324,53.1097772],[8.9778219,53.10976387],[8.97857681,53.10998614],[8.97860147,53.11000614],[8.97856281,53.11008112],[8.97853915,53.11009212],[8.97820493,53.11017969],[8.9782036,53.11017936],[8.97855787,53.11008806],[8.97857587,53.11007773],[8.97857121,53.10999144],[8.97856688,53.10998711],[8.97780866,53.1097059],[8.97780666,53.1097019],[8.98049169,53.10809886],[8.98053302,53.10807386],[8.98078532,53.10791289],[8.98081265,53.10789289],[8.98081865,53.10782625],[8.98080366,53.10781892],[8.97790045,53.10969913],[8.97786479,53.10970613],[8.9740802,53.10835921],[8.9740262,53.10833955],[8.97138881,53.10731318],[8.97133548,53.10730552],[8.97014564,53.10785242],[8.97010231,53.10787408],[8.96860982,53.10874492],[8.96856982,53.10876491],[8.96612712,53.10987195],[8.96607746,53.10989228],[8.96552152,53.11005856],[8.96546019,53.11006956],[8.96380495,53.1102671],[8.96374229,53.1102801],[8.9634843,53.11024611],[8.96342131,53.11022478],[8.96172948,53.10958261],[8.96168182,53.10957161],[8.95661223,53.10881731],[8.9565749,53.10884864],[8.95641872,53.10733423],[8.95639939,53.1073089],[8.95592578,53.10728724],[8.95587045,53.1072919],[8.95498454,53.10744749],[8.95492321,53.10745048],[8.95446424,53.10735452],[8.95441825,53.10732886],[8.9529464,53.1062747],[8.95288974,53.10623704],[8.94962513,53.10417839],[8.94957947,53.10415073],[8.94361849,53.10015715],[8.94357116,53.10012549],[8.9332208,53.09343236],[8.93319314,53.09341703],[8.9330265,53.09336906],[8.93298584,53.09337172],[8.93270323,53.09352033],[8.93267124,53.09354033],[8.93040014,53.09517871],[8.93034814,53.09520204],[8.9301805,53.0952197],[8.9301305,53.09520971],[8.92964857,53.09499477],[8.92963457,53.09498878],[8.92964823,53.09494045],[8.93015846,53.09515769],[8.93018112,53.09516769],[8.93031709,53.09516669],[8.93035842,53.09514769],[8.93476536,53.09202478],[8.93481902,53.09198979],[8.93550096,53.09161751],[8.93556096,53.09159085],[8.93708014,53.09098964],[8.9370998,53.09097231],[8.93709946,53.09090532],[8.93708013,53.09087699],[8.93689449,53.09077302],[8.9368565,53.09075769],[8.93501307,53.09024588],[8.93501307,53.09024555],[8.93537298,53.09023561],[8.93540764,53.09022962],[8.93557695,53.09013532],[8.93559061,53.09012533],[8.93742786,53.08852304],[8.93745285,53.08850071],[8.93791906,53.08801413],[8.93794239,53.0879888],[8.93916473,53.08610714],[8.93918306,53.08607615],[8.93979749,53.08485041],[8.93981815,53.08481775],[8.9395072,53.08469779],[8.93946421,53.08468713],[8.93699277,53.08413737],[8.93695977,53.08412771],[8.93693744,53.08399739],[8.9369501,53.08396373],[8.93725866,53.08336282],[8.937256,53.08333283],[8.93623444,53.08301793],[8.93620578,53.08300127],[8.93617513,53.08293063],[8.93617746,53.0829263],[8.93645171,53.08273071],[8.9364637,53.08272238],[8.93636439,53.08260973],[8.93632373,53.08259007],[8.92939263,53.08070729],[8.92932463,53.08068929],[8.92351383,53.07923444],[8.92348017,53.07922644],[8.92336653,53.07916281],[8.92334387,53.07914148],[8.92295532,53.07864991],[8.92292532,53.07861792],[8.92267568,53.07847828],[8.92260602,53.07845595],[8.9175964,53.07714131],[8.9175134,53.07711965],[8.91563687,53.07652945],[8.91556321,53.07651012],[8.9135837,53.07610423],[8.91353037,53.07609524],[8.91197518,53.07606192],[8.91193485,53.07606192],[8.91118093,53.07620315],[8.9111276,53.07621048],[8.90798252,53.07625568],[8.90790853,53.07625668],[8.90517873,53.07628694],[8.90514307,53.07628694],[8.90479681,53.07621235],[8.90471015,53.07618036],[8.90425754,53.07631299],[8.90419521,53.07633865],[8.90305433,53.07686657],[8.90299333,53.07688123],[8.90212672,53.07698015],[8.90206339,53.07698215],[8.90153077,53.07690918],[8.90149577,53.07689885],[8.90145544,53.07680354],[8.90145877,53.07676888],[8.90178156,53.07491141],[8.90178955,53.07485741],[8.90196141,53.07333556],[8.90196674,53.0732809],[8.9020496,53.07197571],[8.90205093,53.07193438],[8.90196163,53.07172942],[8.90192364,53.07170709],[8.89997114,53.07164849],[8.89989248,53.07164915],[8.89302759,53.07180144],[8.89293526,53.07180011],[8.89136767,53.07168053],[8.89128601,53.0716762],[8.88955813,53.07167751],[8.88947947,53.07167518],[8.88849455,53.07157325],[8.88841755,53.07156792],[8.886768,53.07154225],[8.886735,53.07154225],[8.88660703,53.07144462],[8.88657304,53.07143429],[8.88635141,53.07145928],[8.88631175,53.07145195],[8.88626077,53.07137329],[8.88626011,53.07133596],[8.88630775,53.07117031],[8.88633441,53.07112898],[8.88690735,53.07041739],[8.88694334,53.07037473],[8.88757229,53.06977549],[8.88760628,53.06973216],[8.8876916,53.06939588],[8.88766994,53.06936322],[8.88695301,53.06929823],[8.88688601,53.06930323],[8.88581542,53.06952315],[8.88577109,53.06950816],[8.88149722,53.06686933],[8.88145356,53.06684133],[8.88034433,53.06623645],[8.88030134,53.06620979],[8.8792442,53.06514333],[8.87922921,53.065126],[8.87817072,53.06433448],[8.87813639,53.06430815],[8.87590571,53.0623555],[8.87587538,53.06232684],[8.87577706,53.06225852],[8.8757444,53.06224653],[8.87556211,53.06225719],[8.87554578,53.06224886],[8.87542385,53.06196892],[8.87540052,53.06194092],[8.87439503,53.06090246],[8.8743567,53.06088247],[8.87412471,53.06084681],[8.87407638,53.06085314],[8.87363243,53.06099376],[8.87359977,53.06101109],[8.87357545,53.06105542],[8.87358178,53.06107941],[8.87374074,53.06122104],[8.87375074,53.06122604],[8.87358982,53.06105177],[8.87355383,53.06104878],[8.87209097,53.06155365],[8.87204231,53.06157031],[8.87137039,53.06169728],[8.87131473,53.06170927],[8.86726438,53.06201124],[8.86721072,53.06201423],[8.86703375,53.06197225],[8.86700075,53.06194892],[8.86672448,53.06159863],[8.86668849,53.06155997],[8.86644118,53.06139499],[8.86637952,53.061371],[8.86599388,53.06128135],[8.86592822,53.06127369],[8.8654016,53.06128166],[8.8653456,53.06128166],[8.86506896,53.06122069],[8.86503263,53.06120403],[8.864932,53.0611004],[8.86492267,53.06107374],[8.86452827,53.05947873],[8.86451927,53.05945073],[8.86438562,53.05934309],[8.86436896,53.05931876],[8.86436162,53.05911015],[8.86435596,53.05909149],[8.86396312,53.05821433],[8.86396712,53.05819167],[8.86509669,53.05797978],[8.86514935,53.05795278],[8.86523666,53.05783713],[8.86526299,53.05781114],[8.86597159,53.05734522],[8.86602625,53.05730956],[8.86854805,53.05574173],[8.86860704,53.05570474],[8.86877368,53.05547843],[8.86875702,53.05542943],[8.86853071,53.05521211],[8.86847171,53.05517311],[8.86617592,53.05379634],[8.86613092,53.05376434],[8.86116836,53.04984069],[8.86113803,53.04982003],[8.858393,53.04884331],[8.85837567,53.04882665],[8.85842032,53.04869467],[8.85845365,53.04866368],[8.85917057,53.04809444],[8.85920357,53.04806111],[8.85946217,53.04769683],[8.85947716,53.0476585],[8.85937655,53.04578505],[8.85935789,53.04574672],[8.85919659,53.04548744],[8.85916326,53.04545378],[8.85840303,53.04480922],[8.85838103,53.04477389],[8.85515358,53.03887706],[8.85513125,53.03884106],[8.85363547,53.03752229],[8.85360347,53.03749496],[8.85259332,53.03683544],[8.85257232,53.03681811],[8.85245174,53.03632956],[8.85244141,53.0363069],[8.85136046,53.03450322],[8.85134947,53.03446923],[8.85129422,53.03392595],[8.85129422,53.03388496],[8.85139479,53.03315605],[8.85139279,53.03311639],[8.85116327,53.0320122],[8.85114994,53.03197054],[8.85036021,53.02992981],[8.85034755,53.02988715],[8.8503349,53.02962486],[8.85034123,53.02958086],[8.85049283,53.02901693],[8.85049183,53.02897493],[8.85018634,53.02790474],[8.85018534,53.02787575],[8.85032466,53.02774977],[8.85036732,53.02772411],[8.85105491,53.02741151],[8.85110757,53.02737851],[8.85173648,53.02688927],[8.85172248,53.02686127],[8.85140451,53.02667898],[8.85135818,53.02666165],[8.85075523,53.02656938],[8.85071124,53.02655338],[8.85031894,53.02628977],[8.85029495,53.02626544],[8.85027862,53.0261158],[8.85029395,53.02608114],[8.85066955,53.0255502],[8.85068388,53.02550054],[8.85053056,53.02526491],[8.8504769,53.02523792],[8.84596957,53.02432295],[8.84593657,53.02429829],[8.84239596,53.0185993],[8.8423743,53.01856631],[8.83451929,53.01074059],[8.83448396,53.0107056],[8.83369514,53.00960509],[8.83366415,53.00957043],[8.832555,53.00859561],[8.83254034,53.00856695],[8.83266266,53.0084273],[8.83271099,53.00840264],[8.83434352,53.00774011],[8.83441785,53.00770845],[8.83503414,53.00735516],[8.83511147,53.00731983],[8.8399635,53.00534984],[8.8400275,53.00532651],[8.84980096,53.00236738],[8.84983129,53.00233372],[8.84984262,53.00225373],[8.84982296,53.00221407],[8.84919539,53.00136916],[8.84916606,53.00133083],[8.84791931,52.99994043],[8.84789598,52.99991044],[8.84734749,52.99903894],[8.84734683,52.99901028],[8.84772443,52.99869269],[8.84773642,52.99866103],[8.84823854,52.99706422],[8.84824987,52.99702156],[8.84853797,52.99548978],[8.84855896,52.99545879],[8.84885856,52.99522349],[8.84890989,52.9952005],[8.84996947,52.99499628],[8.85000713,52.99498495],[8.85036374,52.99469668],[8.85041507,52.99467535],[8.85168961,52.99435113],[8.8517386,52.99433047],[8.85191291,52.99419183],[8.85193591,52.9941595],[8.85198056,52.99393254],[8.85196957,52.99390188],[8.85081677,52.99260572],[8.85077344,52.99255939],[8.84351682,52.98501511],[8.84348649,52.98498412],[8.8429216,52.98430425],[8.84290727,52.98427226],[8.84291927,52.98417494],[8.8429406,52.98414595],[8.84305525,52.98408531],[8.84310358,52.98407098],[8.84641493,52.98330769],[8.84644426,52.98330403],[8.84674451,52.98348263],[8.84675317,52.98348263],[8.84656656,52.9837096],[8.8465649,52.98374093],[8.84673683,52.98401353],[8.84672517,52.98402186],[8.84639228,52.98340796],[8.84638328,52.98338463],[8.84639495,52.98332332],[8.84641128,52.98330932],[8.84651127,52.98331199]]}}]}