{"type":"FeatureCollection","features":[{"type":"Feature","properties":{"name":"20260504 Cicloturismo","time":"2026-05-04T12:01:33Z"},"geometry":{"type":"LineString","coordinates":[[4.711347,50.88269033,25],[4.71135598,50.88268269,25.06],[4.71135697,50.88268236,25.13],[4.71135098,50.88268269,25.33],[4.71134765,50.88268368,25.33],[4.71122635,50.88276963,25.6],[4.71119835,50.88278962,25.6],[4.71100805,50.88296559,25.93],[4.71097539,50.88299592,26.13],[4.71084641,50.8831039,26.53],[4.71081642,50.88312689,26.6],[4.71078442,50.88314388,26.6],[4.71073077,50.88315921,26.6],[4.71071311,50.88316021,26.6],[4.71035484,50.88300294,25.46],[4.71031685,50.88298628,25.4],[4.71016222,50.88293296,25.13],[4.71012589,50.8829183,25.06],[4.7099206,50.88282632,24.66],[4.70988694,50.88281166,24.6],[4.70945,50.88267438,23.33],[4.70941534,50.88266138,23.33],[4.70918136,50.88255142,23.8],[4.70914903,50.88253543,24],[4.70907937,50.88250977,24.4],[4.70904571,50.88249577,24.6],[4.70887972,50.88241946,25.13],[4.70884573,50.8824048,25.2],[4.70813785,50.88214122,25.66],[4.70810419,50.88212889,25.73],[4.70781058,50.88199694,25.8],[4.70778325,50.88199028,25.73],[4.70775792,50.88198995,25.66],[4.70773426,50.88199328,25.6],[4.70768427,50.88200994,25.2],[4.70766094,50.8820226,25],[4.70758298,50.88208258,24.4],[4.70751798,50.88211857,24.2],[4.70734967,50.8822532,24],[4.70731268,50.88228053,24.2],[4.70723269,50.88233619,25.53],[4.70719103,50.88236318,26.2],[4.7071447,50.88238584,26.73],[4.70709304,50.8824015,27.26],[4.70703738,50.88240816,27.6],[4.70697872,50.88240617,28.06],[4.70692072,50.88239784,28.53],[4.7067574,50.8823452,29.93],[4.70670107,50.88232654,30.2],[4.70664208,50.88231455,30.46],[4.70658142,50.88230989,30.46],[4.70652043,50.88231189,30.46],[4.7064591,50.88231922,30],[4.70626878,50.88235454,28.4],[4.70620412,50.88236787,27.66],[4.7059448,50.88242618,25.53],[4.70587847,50.88243584,24.8],[4.70581181,50.88244084,24.06],[4.70574748,50.88244183,23.33],[4.70562616,50.88242684,22.13],[4.70556783,50.88241551,21.66],[4.70545818,50.88238552,21],[4.70540585,50.88236786,20.73],[4.70525554,50.88230521,20.66],[4.70520888,50.88228255,20.66],[4.70472562,50.88202928,23.8],[4.70468429,50.88200762,24.06],[4.70436265,50.881825,24.93],[4.70432132,50.88180167,25],[4.70406669,50.88169569,24.53],[4.70402703,50.88167836,24.46],[4.70378206,50.8815404,24.93],[4.70374606,50.8815224,25],[4.70347744,50.88140443,25.66],[4.70344078,50.88138943,25.8],[4.70312983,50.88123649,27.26],[4.7030935,50.88121883,27.46],[4.70251357,50.88091056,30.53],[4.70247324,50.8808889,30.8],[4.7022306,50.88078226,31.6],[4.70219427,50.88076627,31.6],[4.70207095,50.88072962,31.6],[4.70202962,50.88071796,31.73],[4.70191631,50.88067497,31.4],[4.70188032,50.88065998,31.06],[4.70167801,50.88056034,30.73],[4.70164568,50.88054501,30.6],[4.70151404,50.88048937,30.06],[4.70148038,50.88047371,30.06],[4.70141472,50.88043972,30.06],[4.70138272,50.88042072,30.06],[4.70129307,50.8803624,29.33],[4.70126441,50.88034207,28.93],[4.70111977,50.88022945,27.86],[4.70109944,50.88021179,27.73],[4.70098747,50.88009881,27.06],[4.70096414,50.88008215,27],[4.70090382,50.88004717,27],[4.70088949,50.88003984,27],[4.70081951,50.88000953,27],[4.70079218,50.8799972,27],[4.70059188,50.87992289,27.53],[4.70055422,50.87991789,27.73],[4.70051422,50.87991789,28],[4.70047323,50.87992155,28.26],[4.7004319,50.87993055,28.53],[4.70038957,50.87994521,28.8],[4.69943997,50.88034612,28.06],[4.69938998,50.88036645,27.66],[4.69900969,50.88051273,25.46],[4.69896436,50.88052972,25.26],[4.69869673,50.88064035,24.26],[4.6986514,50.88065834,24.26],[4.69849941,50.88070699,24.26],[4.69844542,50.88071765,24.2],[4.69839076,50.88071965,24.13],[4.69833877,50.88071132,24.06],[4.69829444,50.88069299,24],[4.69826045,50.88066566,24],[4.69824179,50.880633,24],[4.69823746,50.88059667,24],[4.69824712,50.88056001,24],[4.6983321,50.88041404,24],[4.69834909,50.88037604,24],[4.69836075,50.88033704,24],[4.69836775,50.88029771,24],[4.6983784,50.88018407,24.4],[4.6983784,50.88014807,24.53],[4.69837641,50.88011374,24.66],[4.69837042,50.88008041,24.8],[4.69833843,50.87999209,25.4],[4.6983241,50.87996543,25.8],[4.69830577,50.87993944,25.8],[4.69828078,50.87991744,26],[4.69821212,50.87988878,26.53],[4.69816979,50.87988545,26.8],[4.69802947,50.87990744,27.13],[4.69798181,50.87992077,27.2],[4.69784349,50.87997208,27.33],[4.6977945,50.87998941,27.4],[4.69764117,50.8800374,27.6],[4.69758851,50.88005339,27.66],[4.69738419,50.88011437,27.86],[4.69733386,50.88012936,27.93],[4.69702155,50.88020968,28],[4.69697089,50.88022268,27.93],[4.69667125,50.88028165,27.06],[4.69662259,50.88029098,26.86],[4.69634695,50.88033595,26.26],[4.69630462,50.88034361,26.13],[4.69618563,50.8803736,26.4],[4.6961463,50.88038093,26.53],[4.69593567,50.88041023,27.6],[4.69589268,50.88041823,27.53],[4.6956807,50.88046687,29.6],[4.69563704,50.88047487,29.93],[4.69533208,50.88050684,31.73],[4.69528909,50.88051217,31.86],[4.69477847,50.88054778,29.06],[4.69473647,50.88055144,28.8],[4.69387955,50.88065136,27.73],[4.69381389,50.88065869,27.93],[4.69375023,50.88066335,28.13],[4.69369157,50.88066136,28.4],[4.69363991,50.8806497,28.46],[4.69359658,50.88063104,28.53],[4.69349326,50.88054405,29.53],[4.6934596,50.88051239,29.86],[4.69335995,50.88040674,31.06],[4.69333062,50.88037275,31.13],[4.69321597,50.88023211,31.2],[4.69318831,50.88019745,31.2],[4.69309234,50.88005847,31.46],[4.69306968,50.88002381,31.4],[4.69299436,50.87992916,32],[4.69296736,50.8798995,32.2],[4.69278237,50.87972252,33.66],[4.69275238,50.87969286,33.93],[4.69253109,50.87949656,35],[4.69250409,50.87946956,35],[4.69240246,50.87932225,34.8],[4.69238213,50.87929225,34.73],[4.69220217,50.87910229,33.26],[4.69218284,50.8790803,33],[4.6919789,50.87871604,28.66],[4.69196024,50.87868471,28.33],[4.69188725,50.87859706,27.06],[4.69186125,50.87856973,26.6],[4.69177893,50.87843776,25.06],[4.69175893,50.87840477,24.93],[4.69172061,50.87834011,24.66],[4.69170328,50.87830811,24.6],[4.69162863,50.87815413,24.4],[4.6916103,50.8781248,24.46],[4.69149965,50.87798448,25.06],[4.69147799,50.87795715,25.2],[4.69140268,50.87784285,25.6],[4.69137935,50.87781386,25.66],[4.69135202,50.87778453,25.73],[4.69132136,50.87775554,25.8],[4.6912537,50.87770122,26],[4.69121937,50.87767422,26.13],[4.69090574,50.87744926,26.2],[4.69087175,50.87742526,26.13],[4.69084076,50.8773996,26.06],[4.69079443,50.87733928,25.93],[4.6907811,50.87730462,25.8],[4.69076677,50.87723163,25.53],[4.69076544,50.87719397,25.4],[4.69076876,50.87685535,25],[4.69076942,50.87681869,25],[4.69077675,50.8767107,24.86],[4.69077675,50.87667737,24.8],[4.69077309,50.87664471,24.73],[4.69074444,50.87654572,24.53],[4.69073511,50.87651039,24.46],[4.6907178,50.87639907,24.46],[4.6907158,50.87636041,24.46],[4.69073742,50.8757585,26.13],[4.69074275,50.8757255,26.13],[4.69078207,50.87562352,26],[4.69080006,50.87558986,25.93],[4.6911013,50.87506062,24.6],[4.69111696,50.87502963,24.46],[4.69116161,50.87493531,24.26],[4.69117527,50.87490298,24.2],[4.69122758,50.87475001,23.86],[4.69123991,50.87471835,23.8],[4.69130589,50.87459671,23.93],[4.69132355,50.87456505,24],[4.69136754,50.87446406,24.13],[4.69138353,50.87442973,24.2],[4.69147284,50.87425942,24.53],[4.6914885,50.87422676,24.6],[4.69151682,50.87412811,24.66],[4.69152181,50.87409478,24.66],[4.69152248,50.87402812,24.66],[4.69151715,50.87399713,24.6],[4.69143721,50.87363917,23.4],[4.69143055,50.87360884,23.33],[4.69139926,50.8734262,23.4],[4.69139393,50.87339621,23.46],[4.69135261,50.8732539,23.8],[4.69134595,50.87322824,23.86],[4.69134196,50.87320358,23.93],[4.69134196,50.87318059,24],[4.69134896,50.87316026,24],[4.69136362,50.8731416,24],[4.69138362,50.8731256,24],[4.69141028,50.87311261,24],[4.69151726,50.87308996,23.8],[4.69155926,50.87308663,23.73],[4.69169858,50.87309095,23.53],[4.69174824,50.87309128,23.46],[4.69210421,50.87308566,22.8],[4.69215487,50.87308467,22.73],[4.69261147,50.87307038,22.53],[4.69265446,50.87306972,22.53],[4.69278245,50.87305574,22.73],[4.69282444,50.87304408,22.86],[4.6928641,50.87302842,23],[4.69289943,50.87300843,23.13],[4.69294509,50.87295777,23.33],[4.69295875,50.87292944,23.4],[4.69299873,50.8727758,23.73],[4.69300539,50.8727428,23.8],[4.69301804,50.87263949,24.2],[4.6930217,50.87260649,24.26],[4.69302934,50.87243018,24.53],[4.69303967,50.87240518,24.53],[4.69305933,50.87238519,24.53],[4.69311766,50.87236354,24.53],[4.69315399,50.87235721,24.53],[4.69323565,50.87234755,24.4],[4.69327898,50.87234322,24.33],[4.69351496,50.87232924,24],[4.69356362,50.87232691,24],[4.69365961,50.87232591,24],[4.69370794,50.87232757,24],[4.69400958,50.87234319,24],[4.69405991,50.87234319,24],[4.69513217,50.87231195,25],[4.6951835,50.87231029,24.86],[4.69528449,50.8723083,24.46],[4.69533482,50.87230764,24.26],[4.69543214,50.87231329,23.86],[4.69547647,50.87232328,23.73],[4.6955158,50.87233861,23.6],[4.69554979,50.8723586,23.46],[4.69560679,50.87240825,23.26],[4.69563145,50.87243558,23.2],[4.69579574,50.87264487,23.6],[4.6958184,50.87267487,23.8],[4.69589937,50.87279552,24.6],[4.69592503,50.87282385,24.73],[4.69595703,50.87285118,24.86],[4.69599469,50.87287384,25],[4.69603769,50.87289017,25.06],[4.69608335,50.8728995,25.13],[4.69697425,50.87291911,23.4],[4.69700791,50.87291878,23.26],[4.69709423,50.87291213,23],[4.69711856,50.87290947,23.06],[4.6973105,50.87287485,24.33],[4.69733483,50.87287352,24.53],[4.69816302,50.87289641,28.13],[4.69817568,50.87289042,28.2],[4.69817868,50.87288009,28.26],[4.69813236,50.87280644,28.53],[4.6981187,50.87278311,28.6],[4.69809738,50.87273246,28.86],[4.69808839,50.87270613,29],[4.69806276,50.87255682,29.53],[4.69805976,50.87252583,29.6],[4.69805943,50.87229655,30],[4.69806109,50.87226789,30],[4.69808539,50.8720236,28.4],[4.69808839,50.87199294,28.2],[4.69808806,50.87189495,27.6],[4.69809072,50.87186296,27.4],[4.69811236,50.87169999,27.26],[4.69811336,50.87166666,27.4],[4.69809372,50.87146102,28.2],[4.69809006,50.87142469,28.33],[4.69806375,50.87127237,28.86],[4.69805942,50.87123538,29],[4.69804513,50.87099541,29.66],[4.69804113,50.87096275,29.8],[4.69800349,50.87083544,30.73],[4.6979995,50.87080345,30.8],[4.69799485,50.8707048,31],[4.69799485,50.8706718,31.06],[4.69800283,50.87054081,30.8],[4.69800483,50.87050781,30.8],[4.69799617,50.87047481,30.8],[4.69798084,50.87044315,30.8],[4.69788188,50.87030483,30.53],[4.69787522,50.87027884,30.6],[4.69786724,50.87015253,31.2],[4.69786424,50.87012687,31.33],[4.69783825,50.87005021,31.53],[4.69783492,50.87002422,31.6],[4.6978316,50.86988224,31.93],[4.69783226,50.86985024,32],[4.69782394,50.86976225,32],[4.69782194,50.86973459,32],[4.69778101,50.86947498,30.8],[4.69777868,50.86945598,30.6],[4.69778068,50.86931369,29.2],[4.69778035,50.86929303,29],[4.69777404,50.86917606,28.6],[4.69777305,50.8691604,28.46],[4.69777039,50.86914507,28.33],[4.69776573,50.86913141,28.2],[4.69769542,50.86908543,27.73],[4.69769476,50.86907143,27.66],[4.69770475,50.8690571,27.6],[4.6977614,50.86903177,27.46],[4.69780206,50.86902111,27.4],[4.6980417,50.86897347,27.86],[4.69809036,50.86896314,27.93],[4.69848665,50.86886852,26.53],[4.69849598,50.86886653,26.26],[4.69832602,50.8686949,25.4],[4.69829702,50.8686619,25.46],[4.69827836,50.86863124,25.53],[4.6982737,50.86860725,25.6],[4.69827836,50.86859059,25.66],[4.69834502,50.86854759,25.8],[4.69877998,50.86841631,27.06],[4.69883531,50.86839665,27.26],[4.69929127,50.86820102,29.8],[4.69933093,50.86818336,30.2],[4.69972321,50.8680311,32.46],[4.6997632,50.86801644,32.59],[4.70018715,50.86789782,32.8],[4.70021414,50.86788583,32.86],[4.70023313,50.8678685,32.93],[4.70025845,50.86780318,33.13],[4.70026911,50.86777885,33.2],[4.7003161,50.86770187,33.4],[4.70033476,50.86767554,33.46],[4.7004384,50.86755956,34],[4.70045773,50.86753756,34],[4.70076199,50.86716897,33.8],[4.70077998,50.86714698,33.73],[4.70116421,50.8666964,32.26],[4.70118654,50.86666974,32.06],[4.70140848,50.86636177,29.86],[4.70144048,50.86632444,29.6],[4.70163612,50.86613247,28.46],[4.70167878,50.86609448,28.26],[4.70172611,50.86605782,28.06],[4.7018441,50.86599316,27.66],[4.70191343,50.86596383,27.4],[4.70198709,50.8659355,27.33],[4.70206542,50.86590984,27.26],[4.70222774,50.86586686,27.13],[4.70230974,50.86584853,27],[4.70247206,50.86581888,26.8],[4.70255172,50.86580522,26.8],[4.70347131,50.86566396,25.6],[4.70353397,50.86565097,25.53],[4.70442056,50.86540604,25.73],[4.70447156,50.86539138,25.8],[4.70492186,50.86527644,25.46],[4.70497086,50.86526311,25.33],[4.70533115,50.8651578,24.6],[4.70536848,50.86514714,24.6],[4.70555211,50.86510551,25.13],[4.70559544,50.86509518,25.26],[4.70615638,50.86499491,26.4],[4.70620404,50.86498558,26.53],[4.70656465,50.86489995,26],[4.70660965,50.86489195,25.86],[4.70697163,50.86484566,25],[4.70701663,50.86483933,25.06],[4.70733594,50.86478936,25.66],[4.70738194,50.86478236,25.8],[4.7077409,50.8647164,26.73],[4.70778756,50.86471007,26.8],[4.70788055,50.86470575,26.93],[4.70792654,50.86470741,27],[4.70819917,50.86473571,27],[4.7082425,50.86474004,27],[4.70845181,50.86476801,26.93],[4.70849314,50.864774,26.86],[4.70875044,50.86482697,26.86],[4.70879644,50.86483363,26.86],[4.70902277,50.86485194,26.86],[4.70906743,50.86485627,26.86],[4.70923973,50.86488892,27],[4.70928239,50.86489458,27],[4.70964468,50.86492653,27.73],[4.70968301,50.86493252,27.86],[4.71025961,50.86496978,28.33],[4.71029694,50.86497111,28.26],[4.71059056,50.86497144,28],[4.71062922,50.86497144,28],[4.71090286,50.86498039,27.86],[4.71094052,50.86498072,27.8],[4.7110865,50.86497807,27.53],[4.71111883,50.86497741,27.46],[4.71114749,50.86497108,27.4],[4.71117115,50.86495775,27.33],[4.71118814,50.86494076,27.26],[4.71120114,50.86491977,27.2],[4.71122246,50.86484478,27],[4.71122612,50.86482145,27.06],[4.71122811,50.86479379,27.2],[4.71123377,50.86474513,27.26],[4.71122411,50.8647258,27.33],[4.71120145,50.8647068,27.4],[4.71116612,50.86469047,27.46],[4.71087381,50.86462915,27.53],[4.71080548,50.86461349,27.53],[4.71059716,50.86455851,27.33],[4.71052716,50.86453985,27.26],[4.70983623,50.86432959,26.26],[4.70978323,50.86431393,26.26],[4.70946359,50.86423131,26.2],[4.7094256,50.86422265,26.26],[4.70936294,50.86420133,26.33],[4.70935128,50.86418933,26.4],[4.70935694,50.86418234,26.46],[4.70937494,50.86418201,26.53],[4.70940127,50.86418734,26.6],[4.70967624,50.86426798,27.33],[4.7097299,50.86428464,27.4],[4.7101872,50.86444692,27.66],[4.71023453,50.86446292,27.6],[4.71045618,50.86452822,27.26],[4.71049718,50.86453955,27.2],[4.71064348,50.86459085,26.86],[4.71065414,50.86459585,26.93],[4.7108738,50.86461485,27.06],[4.71109577,50.86464648,27.46],[4.71112043,50.86464848,27.53],[4.71118675,50.86463782,27.86],[4.71120408,50.86462716,28],[4.71124939,50.86457351,28.4],[4.71126039,50.86454818,28.46],[4.71126705,50.86452018,28.53],[4.71126971,50.86448885,28.66],[4.7112797,50.86431488,29.33],[4.71128536,50.86427955,29.46],[4.71131301,50.86417624,29.93],[4.71132367,50.86414258,30.13],[4.71137764,50.86400293,30.93],[4.71139397,50.86396794,31.06],[4.71143063,50.86389895,31.4],[4.71145129,50.86386729,31.6],[4.71156126,50.86374731,32.4],[4.71158826,50.86371565,32.33],[4.71168091,50.86359301,32.26],[4.71170324,50.86356202,32.26],[4.71175423,50.8634637,32.26],[4.71176589,50.8634297,32.2],[4.7118132,50.86325974,31.86],[4.71182253,50.86322475,31.93],[4.71192313,50.86277016,31.26],[4.71193246,50.8627375,31.2],[4.71194044,50.8626112,31],[4.71194343,50.86258154,31],[4.71199374,50.86236892,31.4],[4.71200107,50.86233826,31.53],[4.71203137,50.86217195,31.93],[4.71203803,50.86213796,32],[4.71204801,50.86203431,32.13],[4.71205334,50.86199931,32.13],[4.71209366,50.861863,32.33],[4.71210465,50.86183134,32.33],[4.71211731,50.86180168,32.33],[4.7121553,50.86174936,32.59],[4.71217896,50.86172637,32.73],[4.71220395,50.86170538,32.86],[4.71223228,50.86168605,33],[4.71238725,50.86160274,34.33],[4.71241558,50.86158575,34.53],[4.71300048,50.8611982,39],[4.71303414,50.86117654,39],[4.71320411,50.86108156,39.66],[4.71323544,50.8610659,39.8],[4.71350637,50.86097029,41],[4.7135357,50.8609613,41],[4.71387531,50.86086968,41],[4.71390364,50.86086202,41],[4.71409495,50.86080305,41.4],[4.71412194,50.86079372,41.46],[4.71427725,50.86072975,42],[4.71430291,50.86071842,42.13],[4.71444988,50.86064379,42.6],[4.71447354,50.8606308,42.66],[4.71491677,50.86035555,44.2],[4.71493743,50.86034289,44.26],[4.71512672,50.8602166,45.53],[4.71514772,50.86020294,45.66],[4.71581592,50.85979576,48],[4.71583991,50.85978143,48],[4.71616551,50.85960315,47.86],[4.7161875,50.85959116,48],[4.71703504,50.859171,48.73],[4.7170627,50.859155,48.73],[4.71719268,50.8590717,48.73],[4.71721834,50.85905437,48.73],[4.71736297,50.85894707,48.86],[4.71738663,50.85892807,48.86],[4.71758157,50.8587671,49],[4.7176069,50.8587451,49.13],[4.71776054,50.85859445,49.66],[4.71778853,50.85856379,49.66],[4.71796083,50.85835816,49.66],[4.71798283,50.8583235,49.53],[4.71808979,50.85807654,49],[4.71809512,50.85806455,49],[4.71818842,50.85794925,49],[4.71820842,50.85791826,49.33],[4.71877465,50.85694572,50.93],[4.71879431,50.85691272,51.06],[4.71918784,50.85627617,50.66],[4.7192055,50.85624718,50.4],[4.71963402,50.85551466,51],[4.71965268,50.85548233,50.93],[4.71981597,50.85522202,51.6],[4.71983563,50.85519003,51.73],[4.71990761,50.85506373,52.06],[4.71992394,50.8550324,51.93],[4.71994193,50.85497008,51.66],[4.71995026,50.85493975,51.53],[4.71999757,50.85484343,51.13],[4.72001723,50.85480843,51],[4.72016354,50.85456647,50],[4.72018287,50.85453348,49.93],[4.72032281,50.85427753,49.8],[4.72033947,50.8542482,49.8],[4.72044544,50.85408156,50.13],[4.7204631,50.85405523,50.33],[4.72053442,50.8539246,50.8],[4.72054975,50.85389927,50.86],[4.72058574,50.85384895,51],[4.72060173,50.85382296,51.13],[4.72067137,50.85369032,51.53],[4.7206867,50.85366433,51.53],[4.72085465,50.8534067,51.73],[4.72087131,50.85337971,51.73],[4.72095495,50.85326273,51.93],[4.72097328,50.85323207,52],[4.72115089,50.85287948,51.93],[4.72116622,50.85285148,51.8],[4.72131151,50.85261153,51.33],[4.7213285,50.85258453,51.4],[4.72137882,50.85247789,51.13],[4.72139248,50.8524539,51.06],[4.72162676,50.85206231,53.33],[4.72164176,50.85203565,53.4],[4.72169773,50.85189667,53.2],[4.72170772,50.85187101,53.13],[4.72173569,50.85178271,52.8],[4.72174235,50.85176405,52.66],[4.72177866,50.85170306,52.26],[4.72179499,50.85167906,52.13],[4.72187265,50.85157376,52.13],[4.72188798,50.85154743,52.2],[4.72201359,50.85128581,52.93],[4.72202225,50.85126081,53.06],[4.72202391,50.85120482,53.26],[4.72202058,50.85117549,53.33],[4.72199194,50.85104585,53.33],[4.72198795,50.85102552,53.33],[4.72198761,50.85099153,53.33],[4.72199427,50.85097887,53.33],[4.7220056,50.85096888,53.33],[4.7220196,50.85096255,53.26],[4.72207292,50.85095356,53.2],[4.72209225,50.85094457,53.2],[4.72216224,50.85087325,53.46],[4.7221869,50.85085159,53.46],[4.72227756,50.85078827,53.46],[4.72230356,50.85076261,53.46],[4.72231589,50.85073562,53.46],[4.7223139,50.85070796,53.6],[4.72229225,50.85065564,53.8],[4.72228292,50.85062865,53.86],[4.72227992,50.85057499,54],[4.72229492,50.850555,54.06],[4.72248955,50.85049202,54.8],[4.72252988,50.85047036,55],[4.72256554,50.85044503,55.2],[4.72259553,50.85041703,55.4],[4.72264618,50.85035604,55.53],[4.72266951,50.85032471,55.6],[4.72280747,50.85011573,56],[4.72282613,50.85008807,56],[4.72295843,50.84985243,55.53],[4.72298043,50.84981477,55.46],[4.723271,50.84933184,55],[4.72329233,50.84929818,55],[4.72346826,50.84898057,55],[4.72348525,50.84895091,55.06],[4.72363555,50.84871662,55.6],[4.72365421,50.84868729,55.66],[4.72409277,50.84804507,56.06],[4.72411176,50.84801774,55.93],[4.72450699,50.84749816,55.73],[4.72452632,50.84747383,55.8],[4.72499784,50.84682795,56],[4.7250215,50.84680295,56],[4.72520147,50.84662797,56.4],[4.7252268,50.84660431,56.46],[4.72535944,50.84649033,56.93],[4.72538577,50.84646833,57.06],[4.72557541,50.84633171,57.66],[4.7256004,50.84631438,57.73],[4.72573239,50.84622942,58],[4.72576005,50.84621309,58],[4.726067,50.84604413,58],[4.72609799,50.8460288,58],[4.72660388,50.84579957,59],[4.72662821,50.84578791,59],[4.72683083,50.84570627,59.26],[4.72685582,50.84569494,59.33],[4.72719439,50.84553502,60.4],[4.72721905,50.84552336,60.46],[4.727404,50.8454194,61.4],[4.72742666,50.8454054,61.53],[4.72758596,50.84529044,62.6],[4.72760462,50.84527611,62.73],[4.72775059,50.84515515,63.33],[4.72777059,50.84513782,63.46],[4.72791954,50.84496422,64.66],[4.72793554,50.84494423,64.73],[4.72797853,50.84488225,64.93],[4.72799153,50.84486192,65],[4.7280485,50.84475895,65],[4.72806016,50.84473862,65],[4.72810647,50.84461733,65],[4.72811313,50.84459667,65],[4.72816508,50.84430738,65.46],[4.72817007,50.84428205,65.46],[4.72822835,50.8440371,65.46],[4.72823535,50.84400677,65.46],[4.72829565,50.84381279,65.86],[4.72830498,50.84377946,65.93],[4.7283756,50.84347784,66.33],[4.72838426,50.84344518,66.4],[4.72856849,50.84285295,68.4],[4.72857849,50.84282629,68.53],[4.72865878,50.84265568,69.46],[4.72867077,50.84263202,69.6],[4.72874008,50.84251638,70],[4.72875774,50.84248972,70.13],[4.72895071,50.84226477,71.13],[4.72896904,50.84224544,71.33],[4.72911169,50.84211781,72.33],[4.72913835,50.84209748,72.46],[4.73030083,50.84129871,76],[4.73032783,50.84128005,75.93],[4.73067278,50.8410341,74.86],[4.73070044,50.84101477,74.73],[4.73080777,50.84092845,74.46],[4.73083543,50.84090645,74.4],[4.73093875,50.8408088,73.6],[4.73096475,50.84078414,73.46],[4.73119506,50.84058218,72.66],[4.73122706,50.84055319,72.53],[4.73142503,50.84033824,71.73],[4.73145502,50.84030491,71.53],[4.73181665,50.8399303,68.86],[4.73185731,50.83988564,68.66],[4.73220628,50.83954501,66.33],[4.73226061,50.83949101,66],[4.73247425,50.83926236,64.86],[4.73253058,50.8392037,64.6],[4.73270722,50.83902638,63.93],[4.73276988,50.83896605,63.8],[4.7329012,50.83884573,63.4],[4.73296953,50.83878607,63.2],[4.73324252,50.83855409,62.73],[4.73331018,50.83849776,62.66],[4.73376681,50.83814579,62.13],[4.73382814,50.83810079,62.06],[4.73406612,50.83793414,61.8],[4.73412545,50.83789415,61.73],[4.73449374,50.83765718,61.13],[4.7345554,50.83761785,61.06],[4.73505101,50.83728023,61.53],[4.735101,50.83724657,61.6],[4.73538464,50.8370646,61.86],[4.7354273,50.83703694,61.86],[4.73689011,50.8360668,62.93],[4.73693311,50.83603847,63.13],[4.73795966,50.8353406,64.26],[4.73799166,50.83532061,64.33],[4.73836229,50.83511633,65.13],[4.73839895,50.835097,65.26],[4.73866124,50.83496837,66.19],[4.7386999,50.83495038,66.33],[4.73894721,50.83484308,67],[4.73898954,50.83482642,67],[4.73927949,50.83471978,67.4],[4.73931915,50.83470479,67.46],[4.7395178,50.83463914,67.8],[4.73955446,50.83462481,67.86],[4.73960845,50.83458682,68],[4.73962144,50.83456449,68],[4.73962377,50.83454249,68],[4.73961744,50.83452216,68],[4.73959545,50.83448184,68],[4.73959079,50.83446051,68],[4.73959545,50.83443951,68],[4.73961278,50.83442152,68],[4.7396791,50.83440019,68],[4.73972043,50.83439453,68],[4.73989741,50.83438288,68],[4.73993874,50.83437955,68],[4.74001106,50.83435689,68],[4.74003639,50.83433656,68],[4.74006538,50.83428757,67.86],[4.74007237,50.83426124,67.8],[4.74007868,50.83412693,67.4],[4.74007802,50.8341116,67.33],[4.7400717,50.83409161,67.19],[4.74006804,50.83408695,67.13],[4.74007103,50.8339853,67],[4.7400677,50.83396097,67],[4.74000412,50.83359772,67.06],[4.74000013,50.83357206,67.13],[4.73999314,50.83344409,66.93],[4.73999347,50.8334151,66.86],[4.73999713,50.8333851,66.8],[4.74000379,50.83335311,66.73],[4.74002478,50.83328679,66.6],[4.74003811,50.83325346,66.53],[4.74005311,50.83321913,66.46],[4.74007144,50.83318547,66.4],[4.74011676,50.83311881,66.06],[4.74014042,50.83308782,65.86],[4.74018707,50.83303649,65.73],[4.74021107,50.83301383,65.66],[4.74066664,50.8325966,64.53],[4.74069797,50.83256661,64.33],[4.74077062,50.83250161,63.93],[4.74080861,50.83246762,63.73],[4.74093493,50.83236731,63.13],[4.74097859,50.83233231,62.93],[4.74107491,50.83226232,62.66],[4.74112524,50.83222833,62.53],[4.74137889,50.83206769,61.33],[4.74142755,50.8320367,61.2],[4.74169685,50.83185506,60.06],[4.74173918,50.83182506,59.86],[4.7422991,50.83140781,58.73],[4.74234109,50.83137481,58.73],[4.74250241,50.8312415,58.73],[4.74254241,50.8312085,58.8],[4.74281036,50.83097121,59.66],[4.74285369,50.83093888,59.8],[4.74333028,50.83064562,61.66],[4.74335827,50.83062696,61.73],[4.74346626,50.83055032,62],[4.74349259,50.83053099,62.06],[4.74356258,50.83046601,62.26],[4.74358524,50.83044368,62.33],[4.74366755,50.83035736,62.6],[4.74368388,50.83033737,62.66],[4.74389015,50.83006413,63.4],[4.74390348,50.83004747,63.46],[4.74409808,50.8298262,63.93],[4.74411007,50.82981054,63.86],[4.74421802,50.82966325,63.66],[4.74422935,50.82964626,63.66],[4.7443606,50.82938501,64.66],[4.74437093,50.82936868,64.73],[4.74470415,50.82894079,65.06],[4.74472181,50.82891879,64.93],[4.74484711,50.82877783,64.73],[4.74486811,50.82875317,64.8],[4.74499607,50.82857087,65],[4.7450144,50.82854488,65],[4.74519434,50.82825894,63.86],[4.74520767,50.82823461,63.8],[4.74531597,50.82802364,63.26],[4.7453293,50.82799664,63.2],[4.74537127,50.82789633,62.86],[4.74538193,50.82787367,62.8],[4.74549388,50.82766938,62.13],[4.74551021,50.82765139,62.06],[4.7455532,50.8276204,61.86],[4.7455792,50.82760674,61.8],[4.74573117,50.82754243,61.46],[4.7457645,50.82753243,61.4],[4.74648072,50.82746821,59.93],[4.74651438,50.82746488,59.86],[4.74678369,50.82741626,59.6],[4.74681335,50.82740493,59.53],[4.74689567,50.82736495,59.53],[4.74692033,50.82735029,59.46],[4.74714129,50.82720699,59.46],[4.74716162,50.82719133,59.53],[4.74721727,50.82714367,59.73],[4.7472356,50.82712834,59.8],[4.74736322,50.82700004,60],[4.74737955,50.82698471,60],[4.74751951,50.82687173,60],[4.74753684,50.8268574,60],[4.7475665,50.82682675,60],[4.74758149,50.82681142,60.06],[4.74769246,50.82671877,60.46],[4.74771912,50.82670311,60.53],[4.74794109,50.82661481,62.2],[4.74796742,50.82660615,62.4],[4.74830469,50.82652422,65.6],[4.74833202,50.82651856,65.8],[4.74855865,50.82644393,68.6],[4.74858331,50.82643627,68.86],[4.74866996,50.82640394,69.93],[4.74868962,50.82639495,70.19],[4.74884258,50.82631566,72.86],[4.74886524,50.82630133,73.13],[4.7491315,50.82612141,75],[4.74914983,50.82610875,75],[4.74927345,50.82601045,75],[4.74929278,50.82599579,75],[4.74946506,50.82587552,73.8],[4.74948539,50.82586219,73.66],[4.74969931,50.82567791,73.93],[4.74971564,50.82566358,74.06],[4.74990926,50.82553296,75.73],[4.74992759,50.82552063,75.93],[4.75008456,50.82539202,77.6],[4.75010289,50.82537736,77.73],[4.75019586,50.82528073,77.6],[4.75021052,50.82526473,77.53],[4.7502745,50.82518509,77.19],[4.75028616,50.82516943,77.13],[4.75033013,50.82509879,76.8],[4.75034079,50.82507946,76.73],[4.75042742,50.82491051,76.13],[4.75043875,50.82489185,76],[4.75057239,50.82472254,75.53],[4.75059605,50.82469788,75.53],[4.75084701,50.82446392,74.73],[4.75087801,50.82443592,74.73],[4.7514646,50.8239453,74.46],[4.75149426,50.82391997,74.53],[4.75170489,50.82371932,74.66],[4.75172889,50.82369399,74.73],[4.75179221,50.82361468,74.93],[4.75181054,50.82358702,75],[4.75187018,50.8234767,75],[4.75188418,50.8234497,75],[4.75204377,50.82309177,75.53],[4.75205677,50.82306544,75.6],[4.75214007,50.82285648,76.4],[4.75215106,50.82283082,76.46],[4.75225537,50.82264086,77.19],[4.7522667,50.82261886,77.26],[4.75235131,50.82243856,77.8],[4.75236397,50.82241323,78],[4.7524186,50.82226258,78.93],[4.75243026,50.82223925,79.06],[4.75253191,50.82208962,80.13],[4.75254457,50.82206896,80.26],[4.75257723,50.82198732,80.8],[4.75258623,50.82196733,80.93],[4.75262389,50.82191001,81.33],[4.75263355,50.82189002,81.46],[4.75269085,50.82174773,83.06],[4.75270151,50.82172774,83.33],[4.75273649,50.82166843,84.13],[4.75274848,50.8216501,84.4],[4.7528761,50.82147814,86.53],[4.75288809,50.82145948,86.66],[4.7529364,50.82135351,87.33],[4.75294239,50.82133252,87.46],[4.75294572,50.82131119,87.6],[4.75294738,50.82129053,87.53],[4.75294073,50.82119156,86.8],[4.75294306,50.82117157,86.6],[4.75299767,50.82082863,82.33],[4.75300166,50.82079997,81.93],[4.75300365,50.82068899,80.33],[4.75300664,50.82066266,80.19],[4.75303595,50.82053269,79.53],[4.75304061,50.82050636,79.46],[4.75304093,50.82027274,79.66],[4.75304027,50.82024708,79.73],[4.75304726,50.82017442,80.06],[4.75304959,50.82015143,80.19],[4.75307823,50.82003345,80.53],[4.75308123,50.82001012,80.6],[4.75308356,50.81982317,81],[4.75308389,50.81979918,81],[4.75310219,50.81967088,81],[4.75310519,50.81964389,81],[4.75310287,50.81953691,81],[4.75310287,50.81951358,81],[4.7531305,50.81934529,81.06],[4.75313349,50.81932063,81.13],[4.75313483,50.81912102,81.73],[4.75313516,50.81910036,81.8],[4.75314647,50.8189784,81.73],[4.75314813,50.81895774,81.6],[4.75315012,50.81885376,80.93],[4.75315045,50.81883243,80.8],[4.75319373,50.81865648,80],[4.75319739,50.81863682,80],[4.75319407,50.81857617,80],[4.75319473,50.81855584,80],[4.75320571,50.81844719,80],[4.75320771,50.81842586,80.06],[4.75324632,50.81820893,80.93],[4.75324965,50.81816227,81.13],[4.75330091,50.81794269,83.06],[4.75329358,50.81789536,83.26],[4.75332922,50.81778405,83.6],[4.75333888,50.81775839,83.66],[4.75342918,50.81755474,83.46],[4.75343917,50.81752974,83.4],[4.75349613,50.81732678,82.2],[4.75350313,50.81729745,82.06],[4.75354242,50.81707815,80.6],[4.75354975,50.81705049,80.53],[4.75362705,50.81682318,79.4],[4.75364238,50.81678885,79.19],[4.75374001,50.81662988,78.19],[4.75376067,50.81659955,77.86],[4.75389064,50.81643558,76.26],[4.75391064,50.81640825,76.06],[4.7543769,50.81574403,75.86],[4.75439823,50.8157147,75.93],[4.75446389,50.81563305,76],[4.75448489,50.81560739,76],[4.75455287,50.81550308,76],[4.75457253,50.81547742,76],[4.75470083,50.81533746,76.33],[4.75472182,50.81531546,76.33],[4.75489179,50.81518717,76.46],[4.75492445,50.81516451,76.46],[4.75530907,50.81492022,76.13],[4.7553424,50.81489589,76.13],[4.75551904,50.81474359,75.93],[4.75555204,50.81471793,75.86],[4.75602931,50.81436966,75.4],[4.75606364,50.814345,75.46],[4.75643226,50.81406273,75.86],[4.75646526,50.81403807,75.86],[4.7566759,50.81388943,76.06],[4.75670956,50.8138641,76.13],[4.75680354,50.81378511,76.33],[4.75683453,50.81376045,76.4],[4.75693318,50.81369246,76.6],[4.75696451,50.81367013,76.66],[4.75708882,50.81355383,77.06],[4.75711115,50.81353084,77.13],[4.75721213,50.81340853,77.46],[4.75722979,50.81338287,77.53],[4.75724312,50.81335621,77.6],[4.75725045,50.81332955,77.66],[4.75724946,50.8132539,77.86],[4.75724213,50.81323024,77.93],[4.75722148,50.81318792,78],[4.75721015,50.81316659,78],[4.75711817,50.81302029,78],[4.75710417,50.81299663,78],[4.75705552,50.81289732,78.26],[4.75704386,50.81287299,78.33],[4.75700422,50.81275402,78.66],[4.75699389,50.81273169,78.73],[4.75686795,50.81250811,79.53],[4.75685762,50.81248811,79.6],[4.75681797,50.81239048,79.93],[4.75681098,50.81237015,80],[4.75679999,50.81228851,80],[4.75679933,50.81226852,80],[4.75681996,50.81212455,80],[4.75682662,50.81210422,80],[4.75690426,50.81197125,80.66],[4.75691659,50.81195126,80.8],[4.7570489,50.81178397,81.86],[4.75706323,50.81176531,81.93],[4.75711855,50.811685,82],[4.75713255,50.81166434,82],[4.75743575,50.81118549,81.53],[4.75744408,50.81116783,81.66],[4.75749406,50.81109753,81.8],[4.75750639,50.81107853,81.73],[4.7575497,50.81100056,81.46],[4.7575597,50.81098057,81.53],[4.75758569,50.81091725,81.33],[4.75759602,50.81089659,81.26],[4.75792654,50.81037571,82.4],[4.7579392,50.81035705,82.53],[4.75798251,50.81027874,83.06],[4.7579935,50.81025941,83.2],[4.7581138,50.81009246,83.33],[4.7581268,50.81007513,83.33],[4.7581781,50.80998349,83.33],[4.75818876,50.80996416,83.33],[4.75821708,50.80988351,83.86],[4.75822807,50.80986318,84],[4.75868924,50.80911706,85],[4.7587039,50.80909307,85],[4.75879221,50.80895243,85.8],[4.75880654,50.8089291,85.93],[4.75890386,50.8087998,86.33],[4.75891986,50.80877814,86.4],[4.75898483,50.80867483,86.86],[4.75899816,50.80865583,86.93],[4.7590498,50.80855685,87.46],[4.75906213,50.80853619,87.66],[4.75938037,50.80803331,89.4],[4.75939337,50.80801298,89.46],[4.75950866,50.80786004,89.8],[4.75951199,50.80785538,89.8],[4.75963796,50.8076374,90.2],[4.75965095,50.80761541,90.2],[4.75975425,50.8074671,90.2],[4.75977158,50.80744077,90.2],[4.75992054,50.80718348,90],[4.7599332,50.80715982,90],[4.76003381,50.80690222,90],[4.76004047,50.80687923,90],[4.7600834,50.80658099,91.4],[4.7600854,50.806561,91.46],[4.76012869,50.80637039,92.2],[4.76013202,50.80635073,92.33],[4.76014533,50.80624743,92.86],[4.76014799,50.80622644,92.8],[4.76015132,50.80613913,92.53],[4.76015431,50.80611813,92.46],[4.76017796,50.80605815,92.26],[4.76018296,50.80603816,92.2],[4.76018595,50.80590718,91.6],[4.76018728,50.80588485,91.53],[4.76021322,50.80559024,91],[4.76021555,50.80556824,91],[4.76025683,50.80525996,91],[4.76026082,50.80523597,91],[4.7602688,50.80511232,91.33],[4.7602718,50.80508732,91.4],[4.7603001,50.80493502,91.8],[4.76030676,50.80490969,91.86],[4.76046768,50.8044861,91.4],[4.76048068,50.80445511,91.33],[4.76052966,50.80436379,91.33],[4.76054532,50.80433379,91.33],[4.76056797,50.80427347,91.4],[4.7605803,50.80424481,91.46],[4.76067095,50.80405385,91.93],[4.76068328,50.80402786,92],[4.76078359,50.80386523,91.8],[4.76079725,50.8038439,91.73],[4.76083024,50.80380591,91.6],[4.76084424,50.80378725,91.53],[4.76086456,50.8037476,91.46],[4.76087756,50.80372794,91.46],[4.76098387,50.80360664,91.53],[4.76100153,50.80358631,91.6],[4.76115715,50.8034297,92.4],[4.76117614,50.80341337,92.46],[4.7612108,50.80336904,92.6],[4.76123046,50.80334438,92.66],[4.76128411,50.80329439,92.8],[4.76131044,50.8032654,92.86],[4.76143909,50.80311176,93.06],[4.76146475,50.8030811,93.13],[4.76173369,50.80279215,93.8],[4.76176002,50.80276415,93.86],[4.761876,50.8026255,94],[4.761897,50.80260151,94],[4.76201898,50.80247053,94.06],[4.76203931,50.8024492,94.13],[4.76237325,50.80214193,94.06],[4.76239891,50.80211894,93.93],[4.76247156,50.80204529,93.66],[4.76249522,50.80202129,93.6],[4.7626482,50.80189066,93.46],[4.76267286,50.80186866,93.4],[4.7630568,50.80150107,92.66],[4.7630848,50.80147508,92.6],[4.76356973,50.8010405,91.66],[4.76359639,50.80101584,91.66],[4.76366571,50.80094353,91.73],[4.76368871,50.8009202,91.8],[4.76388265,50.80074758,92],[4.76390598,50.80072558,92],[4.76395963,50.80065993,92.13],[4.76397829,50.80063893,92.2],[4.76410126,50.80052229,92.6],[4.76411992,50.80050229,92.66],[4.76414025,50.80048396,92.73],[4.76416391,50.8004673,92.8],[4.76426755,50.80040399,93],[4.76428888,50.80038566,93],[4.76434353,50.80032734,93.06],[4.76436186,50.80030935,93.13],[4.76449349,50.80018872,93.6],[4.76451182,50.80017039,93.66],[4.76457547,50.80008342,93.86],[4.76458947,50.80006676,93.8],[4.76464245,50.80001978,93.8],[4.76466044,50.80000279,93.8],[4.76470676,50.79994881,93.8],[4.76472042,50.79993248,93.8],[4.76481573,50.79985584,94],[4.76483439,50.79984018,94.2],[4.7649007,50.79977321,94.6],[4.76492136,50.79975788,94.66],[4.76517964,50.79960192,95.53],[4.76520664,50.79958693,95.53],[4.76553791,50.79942699,95.6],[4.76556824,50.79941133,95.6],[4.7660065,50.79916176,96.06],[4.7660345,50.79914576,96.06],[4.76618413,50.79908044,96.2],[4.76621279,50.79906678,96.26],[4.7663441,50.7989948,96.53],[4.7663701,50.79898014,96.6],[4.76669637,50.79875954,97.66],[4.7667207,50.79874321,97.73],[4.76687167,50.79862724,98],[4.766894,50.79861191,98],[4.76720127,50.79841164,97.8],[4.76722693,50.79839498,97.73],[4.76739722,50.79826102,97.6],[4.76742188,50.79824269,97.6],[4.76763018,50.79810374,97.93],[4.76765418,50.79808641,97.93],[4.76770617,50.79805609,97.93],[4.76773183,50.79804443,97.93],[4.76779848,50.79802111,98.06],[4.76780781,50.79801878,98.2],[4.76788081,50.79794279,98.33],[4.76811243,50.79776886,97.93],[4.76813876,50.79774953,98],[4.76831274,50.79763755,98.06],[4.76833773,50.79762022,98.2],[4.76837371,50.79758623,98.2],[4.76842337,50.79754523,98.2],[4.76848902,50.79749891,98.06],[4.76851468,50.79748225,97.93],[4.76876363,50.79734096,97],[4.76878729,50.7973233,97],[4.76889059,50.79723666,97],[4.76891159,50.797219,97],[4.7689889,50.79714169,97],[4.76900923,50.79712236,97],[4.76907988,50.79707005,96.86],[4.76910188,50.79705105,96.8],[4.76947379,50.79670513,95.26],[4.76949679,50.7966848,95.2],[4.76959442,50.79661582,95],[4.76961642,50.79659982,95],[4.76971774,50.79651519,95],[4.76973573,50.7964992,95],[4.76982103,50.79642156,95.26],[4.76983636,50.79640623,95.33],[4.76988768,50.79634292,95.6],[4.76990101,50.79632926,95.73],[4.76997631,50.79626361,96.4],[4.76999297,50.79624895,96.46],[4.77008562,50.79618296,96.86],[4.77010528,50.79616863,97],[4.7702309,50.79606466,98],[4.77024856,50.796051,98.13],[4.77057281,50.79582974,99.66],[4.77059414,50.79581474,99.73],[4.77070545,50.79574643,100.2],[4.77072778,50.7957321,100.26],[4.77088408,50.79564046,100.73],[4.77090541,50.79562947,100.8],[4.77104836,50.79556917,101],[4.77107269,50.79555984,101],[4.77123598,50.7955092,101.26],[4.77125797,50.79550321,101.4],[4.77139827,50.79547558,102.2],[4.77142193,50.79546992,102.33],[4.77166988,50.79539563,103],[4.77169421,50.7953873,103],[4.7719508,50.79527936,102.33],[4.77197546,50.79526936,102.26],[4.77227074,50.79517078,102],[4.77229407,50.79516179,102],[4.77236006,50.7951308,102],[4.77238239,50.79512081,102],[4.77250303,50.7950775,102],[4.77252769,50.79506817,102],[4.77303924,50.79485695,103],[4.77306257,50.79484662,103],[4.77334252,50.794744,103],[4.77336852,50.794733,102.93],[4.77357815,50.79463204,102.4],[4.77360515,50.79461971,102.33],[4.77379478,50.79454273,102],[4.77382178,50.79453107,102],[4.7740967,50.79438678,102],[4.77412103,50.79437412,102],[4.77427666,50.79427082,102.06],[4.77430132,50.79425516,102.13],[4.77440897,50.79419951,102.13],[4.77443363,50.79418485,102.13],[4.77447563,50.79415553,102.13],[4.77449496,50.79414053,102.13],[4.77455195,50.79408822,102.13],[4.77456528,50.79406756,102.2],[4.77457261,50.79404523,102.26],[4.77457294,50.79402257,102.26],[4.77455828,50.79397758,102.33],[4.77454428,50.79395525,102.4],[4.77394715,50.7932371,103],[4.77393116,50.79321711,103],[4.77371891,50.79290084,105.13],[4.77370825,50.79288151,105.2],[4.7736093,50.79266491,105.93],[4.77360097,50.79264525,106],[4.77356101,50.79251596,106],[4.77355502,50.79249463,106],[4.77355336,50.79238599,105.86],[4.77355103,50.79236533,105.73],[4.77351742,50.7921767,104.53],[4.77351542,50.79215571,104.4],[4.77351874,50.79206273,104],[4.7735214,50.79203773,104],[4.77354771,50.79190609,103.86],[4.77355504,50.79187576,103.73],[4.77360268,50.79170378,103],[4.77361401,50.79166245,102.8],[4.77371898,50.79141181,101.06],[4.77374297,50.79135648,100.66],[4.7739196,50.79101251,98.53],[4.77395126,50.79095252,98.13],[4.77433889,50.79024125,95.66],[4.77436822,50.79018359,95.6],[4.77444921,50.79001528,95.46],[4.77447454,50.78996062,95.46],[4.77461451,50.78964298,95.53],[4.77463617,50.78959232,95.53],[4.77474314,50.78930868,95.4],[4.77475847,50.78926435,95.26],[4.77487611,50.78887473,94.2],[4.77488844,50.7888324,94.13],[4.77493242,50.78866508,94],[4.77494175,50.78862475,94],[4.77496905,50.78837845,94],[4.77497638,50.78833812,94],[4.77505001,50.78807482,94],[4.77505501,50.78803716,94],[4.77504136,50.78787984,93.73],[4.7750397,50.78783885,93.66],[4.77504967,50.78743623,92.46],[4.77505,50.78738223,92.33],[4.77504602,50.78625502,91],[4.77504569,50.78619803,90.8],[4.77502477,50.78512212,88.26],[4.77502378,50.78506679,88.33],[4.7750331,50.78485414,88.06],[4.77503976,50.78480148,88],[4.77505209,50.78474915,87.93],[4.77509341,50.78464783,87.8],[4.77511941,50.7845985,87.73],[4.77517773,50.78449984,87.46],[4.77521006,50.78445118,87.26],[4.77538937,50.78420588,86.4],[4.77542237,50.78415422,86.26],[4.77554002,50.78393824,85.73],[4.77556602,50.78388291,85.6],[4.77565067,50.78365559,85.2],[4.77566533,50.78359726,85.13],[4.77567732,50.78353793,85.06],[4.77568598,50.78347927,85],[4.77570396,50.78324995,85],[4.77570995,50.78319529,85],[4.77574227,50.7830353,85],[4.77575826,50.78298431,85],[4.77580359,50.78288599,85],[4.77583025,50.782838,85],[4.77600921,50.78254703,85.8],[4.77603154,50.78249537,85.93],[4.77604753,50.78244304,86.06],[4.77606186,50.78233672,86.33],[4.77606186,50.78228339,86.46],[4.77605653,50.78223006,86.6],[4.7760472,50.7821774,86.66],[4.77598188,50.78192376,86.6],[4.77597122,50.78187476,86.46],[4.77596423,50.7818261,86.33],[4.77596123,50.78177844,86.2],[4.77596289,50.78173111,86.06],[4.77596989,50.78168445,85.93],[4.77598022,50.78163945,85.8],[4.77599422,50.78159512,85.66],[4.77604287,50.7814688,85.46],[4.77605953,50.7814278,85.4],[4.77619349,50.78112584,85.6],[4.77620682,50.78109418,85.6],[4.77627012,50.78097355,85.66],[4.77632945,50.78101221,85.73],[4.77623481,50.78118951,85.73],[4.77622081,50.7812155,85.8],[4.77616883,50.78133381,85.86],[4.77616883,50.78135514,85.8],[4.77620514,50.78141211,85.46],[4.7762118,50.78141577,85.46],[4.7761908,50.78137377,85.46],[4.77618247,50.78135578,85.46],[4.77618015,50.78126047,85.2],[4.77618348,50.78123414,85.2],[4.7761948,50.78118115,85.2],[4.77620146,50.78115549,85.2],[4.77630174,50.78088287,84.93],[4.7763104,50.78085421,84.86],[4.77632372,50.78076689,84.66],[4.77632106,50.78073723,84.6],[4.77628108,50.7805826,84.26],[4.77627208,50.7805496,84.2],[4.77613648,50.78013166,84.4],[4.77612449,50.78010033,84.46],[4.77605119,50.77995235,84.8],[4.77603686,50.77992402,84.86],[4.77577328,50.77945943,85],[4.77575995,50.77943077,85],[4.77573996,50.77937245,85],[4.77573397,50.77934279,85],[4.77573131,50.77925347,85],[4.77573564,50.77922414,85],[4.77578161,50.7790775,85.26],[4.77579494,50.77904851,85.33],[4.77601621,50.77865591,86],[4.77603321,50.77862492,86],[4.77614384,50.77839263,86.06],[4.7761585,50.77835897,86.13],[4.77622648,50.77819167,86.46],[4.77623781,50.77815834,86.53],[4.77632076,50.77787538,87],[4.77632909,50.77784738,87],[4.77637439,50.77774873,87],[4.77638538,50.77772473,87],[4.77646402,50.7775691,87],[4.77647902,50.77754377,87],[4.77662332,50.77733981,87.53],[4.77663665,50.77732148,87.66],[4.77668928,50.77723483,88.2],[4.77670694,50.77720917,88.33],[4.77678025,50.77711385,88.93],[4.77679824,50.77709252,89.13],[4.77727476,50.77655965,91.6],[4.77729076,50.77654066,91.73],[4.77753368,50.77627341,92.93],[4.77754867,50.77625708,93],[4.77761731,50.7762021,93.13],[4.77763231,50.77618544,93.2],[4.77768363,50.77611079,93.46],[4.77769663,50.77609279,93.53],[4.77775594,50.77602648,94.2],[4.7777676,50.77601248,94.4],[4.77778825,50.77598049,94.93],[4.77779424,50.77597316,95.06],[4.77783722,50.77593718,95.6],[4.77784955,50.77592552,95.73],[4.77822048,50.77550092,96.4],[4.77824114,50.77547693,96.46],[4.77831812,50.77541195,96.6],[4.77834612,50.77539062,96.6],[4.77837812,50.77537429,96.6],[4.77841611,50.77536363,96.6],[4.77845944,50.77535797,96.6],[4.77850743,50.77535664,96.66],[4.77871941,50.77536495,96.93],[4.77877407,50.77536861,97],[4.77899205,50.7753976,97.2],[4.77904638,50.77540493,97.26],[4.77946034,50.77544889,97.4],[4.779506,50.77545388,97.4],[4.77981163,50.77546817,97.26],[4.77985829,50.77547083,97.26],[4.78010993,50.77549248,97.6],[4.78016492,50.77549648,97.66],[4.78065121,50.77554278,98.33],[4.78071787,50.77554911,98.4],[4.78129417,50.77561606,98.33],[4.7813575,50.77562272,98.13],[4.78161615,50.77563904,97.33],[4.78168248,50.77564503,97.06],[4.78222844,50.775711,95.13],[4.7822981,50.77571966,94.93],[4.78310969,50.77580025,94],[4.78317535,50.77580524,94],[4.78370498,50.77582887,94],[4.78376998,50.77583086,94.06],[4.78476989,50.77584679,94.8],[4.78481822,50.77584745,94.73],[4.78491121,50.77584679,94.53],[4.78495754,50.77584479,94.53],[4.78500087,50.77583713,94.53],[4.7850382,50.77582313,94.53],[4.78506653,50.77580213,94.53],[4.78508486,50.7757768,94.53],[4.78509786,50.77574914,94.53],[4.78525513,50.77534954,95],[4.78526579,50.77532388,95],[4.78527477,50.77525023,95.13],[4.78528043,50.77522657,95.13],[4.78531542,50.7751316,95.13],[4.78532475,50.77510794,95.13],[4.78562129,50.77446174,94.8],[4.78563095,50.77444274,94.86],[4.78575526,50.77425045,95],[4.78576992,50.77422812,95],[4.78582957,50.77416547,95],[4.78584923,50.77414381,95],[4.78589621,50.77407383,95],[4.78591254,50.7740515,95],[4.78602785,50.77390387,94.86],[4.78604284,50.77388354,94.8],[4.78611381,50.77380989,94.53],[4.78613114,50.77379256,94.46],[4.7861678,50.77373457,94.4],[4.78618279,50.77371591,94.4],[4.78637439,50.77351264,94.93],[4.78639072,50.77349398,95],[4.78645037,50.77344433,95.13],[4.7864697,50.77342767,95.2],[4.78651068,50.77337402,95.4],[4.78652401,50.77335636,95.46],[4.78667564,50.77319874,96.06],[4.78669197,50.77318041,96.13],[4.78675096,50.77312709,96.33],[4.78676862,50.77310876,96.33],[4.78683594,50.77305711,96.33],[4.7868576,50.77303811,96.33],[4.78696424,50.77293147,96.06],[4.78698524,50.77291081,95.86],[4.7870359,50.77287016,95.46],[4.78706356,50.7728485,95.26],[4.7872932,50.77263853,94.33],[4.78733053,50.77260553,94.2],[4.78748718,50.77247789,94.06],[4.78752551,50.77244589,94.06],[4.78781481,50.77219127,93.8],[4.78785347,50.77215861,93.8],[4.78865337,50.77154604,94.4],[4.78868937,50.77151904,94.53],[4.78964453,50.77084553,98],[4.78967253,50.77082687,98],[4.79002016,50.77057727,98.66],[4.79004549,50.77055861,98.73],[4.79030741,50.770359,100],[4.79033074,50.770341,100.13],[4.79049536,50.77020637,101.13],[4.79051602,50.77018871,101.26],[4.79086196,50.76988112,102.66],[4.79088295,50.76986346,102.73],[4.79092794,50.76983146,102.86],[4.7909506,50.7698148,102.86],[4.79115655,50.76963853,102.26],[4.79117755,50.7696212,102.2],[4.7912742,50.76954989,102],[4.79129686,50.76953056,102],[4.79155348,50.76930228,101.93],[4.79157381,50.76928429,102],[4.79165112,50.76920665,102.26],[4.79167178,50.76918799,102.33],[4.79202603,50.76888839,103.6],[4.79204936,50.76886973,103.66],[4.79215467,50.76876909,103.93],[4.792175,50.76874976,103.86],[4.79236761,50.76858945,103.33],[4.79239227,50.76856845,103.26],[4.79249792,50.76848881,103],[4.79252392,50.76846815,103],[4.79269055,50.76831385,103],[4.79271388,50.76829185,103],[4.79277887,50.76822587,103],[4.79279887,50.76820321,103],[4.79286985,50.76810722,103],[4.79288218,50.76808256,103],[4.79290016,50.7680089,103],[4.79290449,50.76798424,103],[4.79293678,50.76774429,103],[4.79293645,50.76772296,103],[4.79293279,50.76770263,103],[4.79292379,50.76768463,103],[4.79288114,50.76763231,103],[4.79286048,50.76761765,103],[4.79271017,50.76756469,103],[4.79268884,50.76755736,103],[4.79266285,50.76753904,103],[4.79266918,50.76753171,103],[4.79268918,50.76752872,103],[4.79271651,50.76753205,103],[4.79287182,50.76756069,102.73],[4.79296581,50.76757702,102.66],[4.79310912,50.76759034,102.46],[4.79316245,50.76759333,102.46],[4.7932701,50.76759366,102.46],[4.79332276,50.76758966,102.46],[4.79347208,50.76756168,102.66],[4.79351674,50.76754735,102.8],[4.7935964,50.7675127,103.06],[4.79363273,50.76749537,103.2],[4.79388235,50.76736675,104],[4.79389935,50.76735709,104],[4.79410729,50.76726513,103.8],[4.79413195,50.76725247,103.8],[4.79418194,50.76722581,103.8],[4.79420593,50.76721181,103.8],[4.79424892,50.76717882,103.8],[4.79427358,50.76716383,103.8],[4.79450621,50.76703918,104],[4.79453321,50.76702585,104],[4.79478317,50.76690723,104.53],[4.7948105,50.76689323,104.6],[4.79511945,50.76675561,105],[4.79514911,50.76674395,105],[4.79528609,50.7666723,105],[4.79531309,50.7666583,105.06],[4.79555905,50.76654868,105.66],[4.79558705,50.76653569,105.73],[4.79566803,50.7664887,106.06],[4.79569503,50.76647237,106.2],[4.79577236,50.76641972,106.4],[4.79579802,50.76640172,106.46],[4.79586667,50.76634241,106.66],[4.79588866,50.76632175,106.73],[4.7962089,50.76597851,106],[4.79622723,50.76595818,106],[4.79636486,50.76582586,106],[4.79638286,50.76580753,106],[4.79644017,50.76573088,106],[4.79645416,50.76571089,106.06],[4.79669543,50.76541797,107],[4.79670976,50.76539931,107],[4.79695635,50.76505306,107.46],[4.79696968,50.76503706,107.53],[4.797028,50.76497609,107.8],[4.79704266,50.76496076,107.86],[4.7972576,50.76477917,108],[4.79727426,50.76476417,108],[4.7973769,50.76465822,108],[4.79739356,50.76464356,108],[4.79776811,50.76435001,109],[4.79778344,50.76433802,109.2],[4.79781676,50.7643137,109.53],[4.79793375,50.76423504,109.66],[4.7980614,50.76413641,110.26],[4.79808806,50.76411708,110.33],[4.79856331,50.76380183,110],[4.79858964,50.76378384,110],[4.79879961,50.76365155,109.8],[4.79882561,50.76363555,109.8],[4.79914289,50.76346927,109.4],[4.79917089,50.76345161,109.33],[4.79948884,50.76321635,108.33],[4.7995085,50.76319869,108.26],[4.7996058,50.76307639,108],[4.79961846,50.76305873,108],[4.79964177,50.76298008,108],[4.7996501,50.76296142,108],[4.79985066,50.76255619,108],[4.79986199,50.76253386,108],[4.7999576,50.76232257,108.33],[4.79996793,50.76229924,108.33],[4.80002791,50.7621836,108.33],[4.80004024,50.76216061,108.33],[4.80007955,50.76206228,108.26],[4.80009054,50.76203828,108.2],[4.80017817,50.76187465,108],[4.8001895,50.76185199,108.06],[4.80024413,50.76171569,108.46],[4.80025446,50.76169369,108.53],[4.80034175,50.76152806,108.6],[4.80035108,50.76150807,108.6],[4.80038972,50.76141242,108.6],[4.80039738,50.76139309,108.6],[4.8004197,50.76135476,108.73],[4.8004297,50.76133377,108.8],[4.80046368,50.76122212,109.2],[4.80047301,50.76120113,109.26],[4.80053565,50.76109883,109.6],[4.80054764,50.76107917,109.66],[4.8005623,50.76102518,109.73],[4.80056896,50.76101019,109.66],[4.80062326,50.76092522,109.46],[4.80063325,50.76090489,109.46],[4.80067621,50.76077026,109.6],[4.80067854,50.7607646,109.8],[4.80070486,50.76072394,110.2],[4.80071619,50.76070161,110.4],[4.80078716,50.76054864,110.66],[4.80080382,50.76051564,110.73],[4.8009651,50.76013572,111],[4.80097843,50.76010506,111],[4.80111972,50.75981213,110.66],[4.80113272,50.7597838,110.6],[4.80117137,50.75967282,110.4],[4.80118236,50.75964616,110.4],[4.80124468,50.75951752,110.46],[4.80125667,50.75949253,110.53],[4.80132463,50.75924356,110.46],[4.80133396,50.75921656,110.4],[4.80140593,50.75905159,109.2],[4.80141759,50.75902359,109.06],[4.80147522,50.75886795,108.4],[4.80148888,50.75883462,108.13],[4.8015252,50.75876796,107.6],[4.8015462,50.75873463,107.46],[4.80166884,50.75856332,106.8],[4.80169317,50.75853066,106.53],[4.80177382,50.75843368,105.66],[4.80180082,50.75840069,105.33],[4.80223607,50.75790509,101.46],[4.80226473,50.7578731,101.13],[4.80260635,50.75747181,98.8],[4.80264768,50.75742382,98.53],[4.80295231,50.7570412,97.33],[4.80298931,50.75700254,97.26],[4.8030313,50.75696688,97.2],[4.8030773,50.75693422,97.13],[4.80317462,50.75687189,97],[4.80322662,50.75684456,97.13],[4.80333528,50.7567939,97.4],[4.80339161,50.7567709,97.53],[4.80366058,50.75667393,98],[4.80370424,50.75665427,98.06],[4.80373957,50.75663261,98.13],[4.80378589,50.75658462,98.33],[4.80379622,50.75656163,98.46],[4.80379888,50.75653897,98.6],[4.80378789,50.75649464,98.6],[4.80377456,50.75647365,98.6],[4.80354797,50.75621138,99.4],[4.80353197,50.75618939,99.46],[4.80350731,50.75614007,99.6],[4.80349765,50.75611274,99.73],[4.80347933,50.75602808,100.13],[4.80347734,50.75599942,100.26],[4.80348899,50.75588411,100.6],[4.80349332,50.75585578,100.66],[4.80352497,50.75574579,100.93],[4.80353497,50.75571879,101],[4.80362127,50.75552748,102],[4.80363326,50.75549982,101.86],[4.80368757,50.75536184,101.2],[4.80369856,50.75533451,101.06],[4.80381318,50.75509889,98.06],[4.80382151,50.75507423,97.93],[4.80382484,50.75504657,97.8],[4.80382018,50.75501757,97.66],[4.80380718,50.75498858,97.53],[4.80378819,50.75495992,97.4],[4.80376386,50.75493192,97.26],[4.8037362,50.75490459,97.13],[4.80342892,50.75462428,96.6],[4.80339926,50.75459529,96.53],[4.80314363,50.75432099,95.53],[4.80311397,50.75428933,95.53],[4.80304865,50.75422867,95.53],[4.80301366,50.75419934,95.53],[4.80283103,50.75405869,95.6],[4.80279304,50.75403136,95.66],[4.80193846,50.75344679,96.73],[4.8018958,50.75341679,96.8],[4.80104658,50.75285655,98.53],[4.80100859,50.75282956,98.6],[4.80097726,50.75280056,98.66],[4.80095827,50.75276923,98.73],[4.80095494,50.75273657,98.8],[4.80096827,50.75270491,98.86],[4.80099693,50.75267592,98.93],[4.80103626,50.75264959,99],[4.80108359,50.75262659,99],[4.80119091,50.7525876,99.13],[4.80124724,50.75256927,99.2],[4.80168986,50.75244931,100.2],[4.80174452,50.75243465,100.33],[4.80200117,50.75235634,100.86],[4.80204983,50.75234035,100.93],[4.8023178,50.75223805,101.73],[4.8023588,50.75222239,101.8],[4.80262309,50.75211276,102.26],[4.80266442,50.75209743,102.33],[4.80281707,50.75205611,102.26],[4.80287273,50.75204545,102.26],[4.80304171,50.7520258,102.4],[4.80309671,50.75202314,102.46],[4.80376663,50.75203475,104.66],[4.80381996,50.75203608,104.73],[4.80407227,50.75202843,105],[4.80411526,50.75202377,105],[4.80432757,50.75199081,105.26],[4.8043779,50.75197948,105.33],[4.80528247,50.75174524,106.46],[4.8053288,50.75173291,106.6],[4.80557043,50.75167693,107.26],[4.80562143,50.75166727,107.4],[4.80583207,50.75163296,107.93],[4.80588573,50.75162463,108.06],[4.80621203,50.75158432,108.6],[4.80626703,50.75157766,108.66],[4.80708993,50.75148709,109.6],[4.80712959,50.7514821,109.73],[4.80757154,50.75144117,110.86],[4.8076072,50.75143718,110.93],[4.80764386,50.75143085,111],[4.80768152,50.75142252,111],[4.80782117,50.75137554,111],[4.80785383,50.75136054,111.06],[4.80795149,50.75129556,111.26],[4.80797982,50.7512659,111.33],[4.80813077,50.7510306,111.86],[4.8081521,50.75100694,112.06],[4.80828774,50.7508963,113.13],[4.80830907,50.75087897,113.33],[4.80843671,50.75078432,114.66],[4.80845704,50.75076932,114.93],[4.80855168,50.75070901,115.46],[4.80857468,50.75069402,115.53],[4.80877897,50.75059006,116.46],[4.80880497,50.75057873,116.6],[4.80893995,50.75052309,117.26],[4.80897028,50.75051176,117.4],[4.80916626,50.75044679,117.93],[4.80919759,50.75043546,118],[4.80960352,50.75027353,118.13],[4.80962618,50.75026553,118.2],[4.80973815,50.75020223,118.6],[4.80975915,50.75018723,118.66],[4.80991778,50.75005793,119.33],[4.80993744,50.75004027,119.4],[4.80998243,50.74998262,119.6],[4.80999676,50.74996362,119.66],[4.81003575,50.74992896,119.8],[4.81005441,50.7499123,119.86],[4.81009806,50.74985932,120],[4.81011639,50.74984299,120],[4.8102067,50.74977101,120.26],[4.81022636,50.74975535,120.33],[4.81027834,50.7497057,120.53],[4.810297,50.74969137,120.6],[4.81033799,50.74966638,120.73],[4.81035965,50.74965472,120.8],[4.81062658,50.74946711,121.46],[4.81064557,50.74945311,121.53],[4.81117504,50.7489553,122.8],[4.81119303,50.74893797,122.86],[4.81133633,50.74882502,123.93],[4.81134699,50.74881636,124.06],[4.81145163,50.7487754,125.06],[4.81147896,50.74876274,125.2],[4.81204585,50.74848919,129.39],[4.81205351,50.74848786,129.66],[4.81247279,50.74822127,132.53],[4.81249578,50.74820627,132.6],[4.81266574,50.74811031,133],[4.81268673,50.74809898,133],[4.81277204,50.748057,133],[4.81279237,50.74804701,133],[4.81289801,50.7480267,132.66],[4.81292134,50.74801971,132.46],[4.81297,50.74800205,132.06],[4.81299699,50.74799005,131.86],[4.81305732,50.74795773,131.33],[4.81309032,50.74793573,131],[4.81334996,50.74773809,128.93],[4.81340362,50.74769576,128.6],[4.81345428,50.74764843,128.2],[4.81349628,50.7475961,127.93],[4.8135576,50.74748078,127.4],[4.8135836,50.74741945,127.06],[4.81360493,50.74735612,126.73],[4.81364958,50.74717047,126.13],[4.81367691,50.74711114,125.93],[4.81371924,50.74705781,125.73],[4.8137789,50.74701115,125.53],[4.81385056,50.74697115,125.33],[4.81401422,50.74690149,124.93],[4.81410155,50.7468705,124.8],[4.81446153,50.74675585,124.33],[4.81455086,50.74672652,124.2],[4.81489151,50.74660454,123.66],[4.81497651,50.74657454,123.6],[4.81523083,50.74649255,123.26],[4.81531249,50.74646322,123.13],[4.81626109,50.74609629,120.33],[4.81633975,50.74606563,120.06],[4.81672806,50.74590699,118.46],[4.81680506,50.74587466,118.13],[4.81695272,50.74580533,117.6],[4.81702071,50.74576667,117.33],[4.81738601,50.74551003,116.13],[4.81744867,50.74547204,116.06],[4.81751166,50.74543538,116],[4.81757599,50.74540172,115.93],[4.81770798,50.7453424,115.86],[4.81777497,50.74531741,115.86],[4.81798062,50.74525008,115.86],[4.81804728,50.74522908,115.86],[4.81843492,50.74512078,116],[4.81849658,50.74510379,116],[4.81894023,50.7449945,115.73],[4.81900256,50.7449785,115.66],[4.81918121,50.74492385,115.26],[4.81923987,50.74490686,115.13],[4.81947019,50.74485222,114.06],[4.81952652,50.74483856,113.8],[4.81969616,50.74478958,112.73],[4.81975582,50.74477358,112.33],[4.81995447,50.74472859,111.13],[4.82002513,50.74471093,110.73],[4.82042543,50.74459562,108.46],[4.82051309,50.74456796,107.93],[4.82261934,50.74383005,100.66],[4.822744,50.74378672,100.6],[4.82369464,50.74346343,101.46],[4.82377297,50.7434361,101.66],[4.82408928,50.74331046,102.66],[4.82414394,50.7432888,102.86],[4.82434826,50.74321481,103.73],[4.82439859,50.74319682,103.86],[4.82526545,50.74291497,106.53],[4.82528611,50.74290764,106.6],[4.82540642,50.74285701,107.4],[4.82543542,50.74284401,107.53],[4.82558273,50.74276869,108.4],[4.82561572,50.74275136,108.6],[4.82619263,50.74240911,110],[4.82622029,50.74239178,110],[4.82634394,50.74230514,110],[4.82636627,50.74228914,110],[4.82646791,50.74220716,110],[4.82648957,50.7421905,110],[4.82672085,50.74203788,109.86],[4.82674251,50.74202289,109.8],[4.82697813,50.74185159,108.66],[4.82700946,50.74183026,108.46],[4.82715144,50.74174328,107.8],[4.82718543,50.74171962,107.53],[4.82741174,50.741523,105.93],[4.82744707,50.74149,105.8],[4.8274824,50.74145467,105.66],[4.82751806,50.74141768,105.46],[4.82761572,50.74129002,105.13],[4.82764738,50.74124302,105.06],[4.82790832,50.74079272,106],[4.82793232,50.74075306,106.2],[4.82811462,50.74048277,106.86],[4.82813628,50.74045278,106.93],[4.82836621,50.74018116,106.46],[4.82838187,50.74016617,106.4],[4.8283912,50.74015384,106.33],[4.8283892,50.74013918,106.26],[4.82838654,50.74013652,106.26],[4.82848586,50.7400632,106.33],[4.82850485,50.74004621,106.4],[4.82853849,50.7399939,106.66],[4.82854849,50.7399779,106.66],[4.82855715,50.7399619,106.73],[4.82856281,50.73994391,106.66],[4.82856048,50.73988227,106.46],[4.82856081,50.73986228,106.33],[4.82856714,50.73984362,106.2],[4.82859646,50.7398083,105.66],[4.82860979,50.7397873,105.4],[4.82861512,50.73976397,105.13],[4.82861079,50.73973731,104.73],[4.8285838,50.73967565,103.93],[4.82856347,50.73963899,103.53],[4.82842682,50.73940768,100.53],[4.82840016,50.73935168,99.93],[4.8283805,50.73929202,99.33],[4.82836817,50.73922869,98.86],[4.82835984,50.73909637,97.93],[4.8283665,50.73902771,97.46],[4.82841682,50.73881139,96.46],[4.82844148,50.73873806,96.13],[4.82891402,50.73748115,97.8],[4.82892702,50.73744782,98.26],[4.82896731,50.73728551,101.2],[4.82896631,50.73727151,101.6],[4.82895732,50.73722254,103.6],[4.82861799,50.73565188,104],[4.82855106,50.73537894,104.26],[4.8285464,50.73536261,104.33],[4.82852478,50.73521733,104.8],[4.82852145,50.735201,104.86],[4.8284815,50.73506204,106.06],[4.82847684,50.73504371,106.33],[4.82845855,50.73489475,108.46],[4.82845655,50.73487742,108.73],[4.82839229,50.73463151,110.86],[4.82838863,50.73461485,111],[4.82837964,50.73454854,111.13],[4.82837731,50.73453221,111.26],[4.82838463,50.73448489,111.66],[4.82838197,50.73446823,111.8],[4.82836066,50.73439226,112.46],[4.82835567,50.73437793,112.6],[4.82829938,50.73426198,112.93],[4.82829439,50.73424798,112.86],[4.82827243,50.73414102,112.4],[4.8282701,50.73412569,112.33],[4.82826012,50.73404939,112],[4.82825746,50.73403473,112],[4.82825778,50.73399141,112],[4.82825478,50.73397741,112],[4.82823681,50.73390543,112],[4.82823348,50.73389044,112],[4.82819851,50.73381481,112],[4.82819385,50.73379948,112],[4.82818687,50.73370752,112.06],[4.82818487,50.73369252,112.13],[4.82816091,50.73361755,112.46],[4.82815725,50.73360289,112.53],[4.82813096,50.73345394,113],[4.82812863,50.73343761,113.13],[4.82811899,50.73332864,114.06],[4.82811633,50.73331331,114.2],[4.82811998,50.73326633,114.6],[4.82811932,50.73325033,114.73],[4.828107,50.73319034,115.06],[4.82810501,50.73317768,115.13],[4.82807603,50.7331187,115.4],[4.82807037,50.73309871,115.46],[4.82805539,50.7330374,115.66],[4.82805073,50.73301774,115.73],[4.82804574,50.7329621,115.93],[4.82804508,50.73294477,116],[4.82803209,50.73288778,116.4],[4.8280261,50.73286745,116.53],[4.82799013,50.73277114,117.2],[4.8279808,50.73274948,117.33],[4.82794715,50.7326905,117.73],[4.82793716,50.73267184,117.93],[4.82786087,50.73250155,118.66],[4.82785554,50.73247922,118.73],[4.82785488,50.73245489,118.8],[4.82787287,50.73237191,119],[4.82787453,50.73234058,119],[4.82784789,50.73216961,119],[4.82784356,50.73213595,119],[4.82782226,50.73189966,118.73],[4.82781893,50.73186666,118.66],[4.82780697,50.73155771,117.6],[4.82780431,50.73152605,117.53],[4.8277374,50.73098646,117.46],[4.82773274,50.7309478,117.4],[4.82770144,50.73063617,116.8],[4.82769711,50.73059651,116.73],[4.82766614,50.73039388,116.26],[4.82766148,50.73035322,116.13],[4.82763985,50.73006459,115.33],[4.82763652,50.73002293,115.26],[4.82761453,50.72989828,115],[4.8276092,50.72985662,114.86],[4.82760753,50.72964731,114.53],[4.82761019,50.72960598,114.53],[4.82761918,50.72956599,114.46],[4.82763451,50.72952733,114.4],[4.82779813,50.72921136,114.86],[4.82781979,50.72917036,115.06],[4.82791343,50.72900737,115.93],[4.82793776,50.72896537,116.26],[4.8280774,50.72876272,118.06],[4.82811073,50.72872606,118.6],[4.82838703,50.72846709,122.33],[4.82843636,50.7284291,122.33],[4.82866,50.72826512,121.46],[4.82872166,50.72822079,121.06],[4.82959794,50.72761418,106.6],[4.82967827,50.72755752,105.8],[4.82982859,50.72743586,104.26],[4.82989158,50.72736986,103.53],[4.82994324,50.72729953,103.26],[4.83002257,50.72714954,102.8],[4.8300539,50.72707021,102.6],[4.83012789,50.72682556,102.2],[4.83015255,50.72674357,102.26],[4.83017321,50.72666524,102.33],[4.83018187,50.72659224,102.33],[4.83017087,50.72652658,102.46],[4.83013821,50.72646958,102.6],[4.83008421,50.72642625,102.73],[4.83001488,50.72639692,102.8],[4.82993855,50.72637793,102.8],[4.82985922,50.72636527,102.8],[4.82977856,50.72635561,102.8],[4.82931692,50.7263083,102.4],[4.82924826,50.72630064,102.33],[4.82903895,50.72628299,102.26],[4.82900495,50.72627933,102.26],[4.82892563,50.72627966,102.46],[4.82890297,50.72627966,102.6],[4.82876966,50.72627002,103.33],[4.82876133,50.72627102,103.53],[4.82818439,50.7261974,104.46],[4.82812039,50.72618874,104.4],[4.8277914,50.72613911,103.73],[4.82773007,50.72612411,103.6],[4.82749109,50.72604913,103.2],[4.82743376,50.72602947,103.13],[4.82700514,50.72588019,103],[4.82695548,50.72586253,103],[4.82681982,50.72580721,103],[4.82677616,50.72579088,103],[4.82634654,50.72564359,103.46],[4.82630921,50.72562993,103.46],[4.82603725,50.72554396,103.2],[4.82599959,50.72553097,103.13],[4.82537069,50.72530536,103.4],[4.82533636,50.72529136,103.46],[4.82517172,50.72519839,103.86],[4.82514572,50.72518306,103.93],[4.82506607,50.72511341,104],[4.82504741,50.72509575,104],[4.82499175,50.7250621,104],[4.82495875,50.72504244,104],[4.82481744,50.7249438,104.2],[4.82478278,50.72491781,104.26],[4.82461314,50.72477616,104.46],[4.82458114,50.7247475,104.53],[4.8244405,50.72460686,104.86],[4.82441217,50.72457953,104.86],[4.82433719,50.72448789,105.46],[4.82431419,50.72445456,105.66],[4.82413622,50.72415659,106.93],[4.82411556,50.72412126,107.2],[4.82399758,50.72393795,107.2],[4.82397592,50.72390996,107.4],[4.82389227,50.72381731,108],[4.82385861,50.72378298,108.2],[4.82358064,50.72352737,108.33],[4.82355565,50.72350371,108.4],[4.82342569,50.72336941,108.73],[4.82341603,50.72335108,108.86],[4.82340704,50.72331542,109.13],[4.8234087,50.72329809,109.4],[4.82342969,50.72326743,109.93],[4.82344902,50.72325677,110.2],[4.8238213,50.72313883,113.8],[4.82385263,50.72312684,114],[4.82408559,50.72301954,115],[4.82410725,50.72301121,115],[4.82424588,50.72293693,114.93],[4.82426421,50.72292293,114.86],[4.82443884,50.72273497,113.93],[4.82445583,50.72271531,113.8],[4.82452714,50.72260568,113.06],[4.82454213,50.72258368,112.93],[4.8246471,50.72247405,112.4],[4.82465943,50.72245906,112.33],[4.82466942,50.72244573,112.26],[4.82467475,50.7224324,112.33],[4.82467808,50.72240541,112.4],[4.82468174,50.72238941,112.4],[4.82469907,50.72235175,112.53],[4.82471173,50.72233109,112.6],[4.82493467,50.72203414,113.13],[4.82495433,50.72201214,113.13],[4.82507296,50.72189084,113.13],[4.82509162,50.72187251,113.13],[4.82516626,50.72181786,113.33],[4.82518026,50.72180653,113.4],[4.82523424,50.72174888,113.6],[4.82526024,50.72172289,113.66],[4.82546453,50.72153891,114.66],[4.82549119,50.72151491,114.8],[4.82562482,50.72137461,115.93],[4.82564715,50.72135162,116.13],[4.82583478,50.72117632,116.86],[4.82586377,50.72114799,117.06],[4.82597975,50.72102602,117.73],[4.82600875,50.72099469,117.8],[4.82624706,50.72072574,119.13],[4.82626672,50.72070441,119.2],[4.82633503,50.72064643,119.46],[4.82635402,50.72062944,119.53],[4.82644767,50.72050179,119.86],[4.82647133,50.7204748,120],[4.82657198,50.72038149,120.33],[4.82659131,50.7203595,120.4],[4.82668228,50.72024919,120.73],[4.82669827,50.7202272,120.8],[4.82685688,50.71995959,121.8],[4.82686887,50.71993893,121.86],[4.82690385,50.71987394,122],[4.82691451,50.71985128,122],[4.82703208,50.71958603,123.06],[4.82704274,50.7195587,123.2],[4.82708038,50.71940072,123.8],[4.82708104,50.71937773,123.86],[4.8270531,50.71903714,126.06],[4.82705144,50.71902814,126.2],[4.82704911,50.71902248,126.33],[4.82669811,50.71783415,126.46],[4.82662813,50.71769251,126.06],[4.82661447,50.71766618,126],[4.82651083,50.71749588,126],[4.8264935,50.71746622,126],[4.82640319,50.71729292,126],[4.8263882,50.71726559,126],[4.8263712,50.7172386,126],[4.82635087,50.7172126,126.06],[4.82628354,50.71713594,126.26],[4.82626221,50.71710794,126.33],[4.82619323,50.71699063,126.73],[4.82617557,50.71696164,126.86],[4.82611591,50.71687465,127.13],[4.82609791,50.71684266,127.13],[4.8260406,50.71669734,126.93],[4.8260266,50.71665701,126.8],[4.82598161,50.71648002,126.2],[4.82596661,50.71643336,126.13],[4.82581132,50.71598875,126.13],[4.82578966,50.71593509,126.06],[4.825765,50.7158811,126],[4.825736,50.7158251,125.93],[4.82555702,50.71555012,124.4],[4.82552269,50.71549346,123.8],[4.82532204,50.71514015,120.33],[4.82529304,50.71507749,119.86],[4.82525038,50.71494716,118.86],[4.82523638,50.71488083,118.33],[4.82519674,50.71461152,117.26],[4.82518175,50.71454486,117.26],[4.82513876,50.7144122,117.06],[4.82511377,50.71434621,116.86],[4.82505545,50.71421488,116.53],[4.82502312,50.71414955,116.26],[4.82488514,50.71388824,115.4],[4.82484881,50.71382291,115.13],[4.8246935,50.71355626,113.53],[4.82465384,50.71348793,112.93],[4.82456518,50.7133476,112.2],[4.82451285,50.71327727,111.86],[4.82445419,50.71320827,111.26],[4.8243922,50.71314028,110.86],[4.82419788,50.71294096,109.53],[4.82413422,50.71287663,109.2],[4.82376525,50.71252399,107.53],[4.82370959,50.712469,107.46],[4.8236616,50.71241367,107.33],[4.82362327,50.71235567,107.2],[4.82359561,50.71229601,107.53],[4.82358128,50.71223568,107.86],[4.82358361,50.71217535,108.2],[4.82360194,50.71211602,108.53],[4.82366627,50.7120047,109.2],[4.82370493,50.71195204,109.53],[4.82374792,50.71190138,110.13],[4.82379525,50.71185305,110.8],[4.82389825,50.71175773,111.8],[4.82394325,50.71170873,112.13],[4.82397358,50.71165874,112.46],[4.82398724,50.71160874,112.8],[4.82398658,50.71156075,113.2],[4.82397425,50.71151509,113.33],[4.82395425,50.71147243,113.46],[4.82392959,50.7114321,113.6],[4.82390293,50.71139411,113.73],[4.82375463,50.71120314,114.13],[4.82372464,50.71116148,114.13],[4.82365066,50.71102816,114.6],[4.82362866,50.71098383,114.66],[4.82350403,50.71071287,114.66],[4.82349237,50.71069054,114.66],[4.82345705,50.71063822,114.66],[4.82344539,50.71062089,114.66],[4.82336974,50.71053091,115.33],[4.82335674,50.71051325,115.46],[4.82330377,50.71043327,115.73],[4.82329144,50.71041661,115.66],[4.82319414,50.7102983,116.06],[4.82317448,50.71027864,116.13],[4.82305152,50.71016001,116.53],[4.82303419,50.71014368,116.53],[4.82267127,50.7098161,116.26],[4.82265261,50.70979877,116.2],[4.82260595,50.70973612,116],[4.82258562,50.70971379,116],[4.82244697,50.70959316,116],[4.82242731,50.70957383,116],[4.82238666,50.70951751,116],[4.822374,50.70949752,116],[4.82227769,50.70939321,116.13],[4.8222597,50.70936988,116.26],[4.82181718,50.70871135,119],[4.82180519,50.70868969,119],[4.82175788,50.70859805,119],[4.82174755,50.70857405,119],[4.82160996,50.70821015,120.4],[4.82159663,50.70817916,120.46],[4.82156897,50.70811717,120.6],[4.82155431,50.70808684,120.66],[4.82148766,50.70797286,121.26],[4.82147067,50.7079462,121.4],[4.82141435,50.70786688,121.6],[4.82139135,50.70783855,121.66],[4.82112306,50.70752094,123.06],[4.82109973,50.70749361,123.13],[4.82097976,50.70736097,123.6],[4.82095743,50.70733431,123.53],[4.82087211,50.707227,123.4],[4.82085211,50.70720134,123.4],[4.82081945,50.70715069,123.46],[4.82080112,50.70712736,123.53],[4.8207558,50.70708737,123.6],[4.82073481,50.70706804,123.6],[4.8204752,50.70679077,123.46],[4.82045387,50.70676911,123.46],[4.82036689,50.70666581,123.53],[4.82035356,50.70664882,123.6],[4.8203259,50.70660217,123.8],[4.82031357,50.70658617,124],[4.82028125,50.70655518,124.4],[4.82026392,50.70653752,124.53],[4.8202176,50.70647154,124.93],[4.82019861,50.70644821,125.06],[4.82011263,50.70635757,125.46],[4.82009364,50.70633424,125.53],[4.81995369,50.70612327,124.46],[4.81993503,50.70609527,124.26],[4.81983939,50.70589431,123.6],[4.81982373,50.70585598,123.6],[4.81970808,50.70544303,123.2],[4.81969309,50.70539437,123.13],[4.81955779,50.70506841,122.86],[4.81954613,50.70502442,123],[4.8195388,50.70498109,123.13],[4.81953414,50.70493843,123.26],[4.81953114,50.70474446,123.33],[4.81952948,50.7047088,123.26],[4.81953781,50.70424019,121.8],[4.81953881,50.70420553,121.73],[4.81955013,50.70409854,121.53],[4.81955713,50.70406254,121.46],[4.8196151,50.70388357,121.26],[4.81963209,50.70385091,121.13],[4.81975006,50.70369861,120.6],[4.81977439,50.70367128,120.53],[4.81986304,50.70360496,120.33],[4.81988803,50.7035843,120.26],[4.81995734,50.70351898,120.06],[4.81997934,50.70349765,120],[4.81999966,50.70345067,120],[4.81999867,50.70342734,119.93],[4.81999001,50.70340301,119.86],[4.81996968,50.70337701,119.8],[4.81987336,50.70328969,119.6],[4.81984136,50.70325703,119.33],[4.81972205,50.70311372,118.2],[4.81969539,50.70307373,117.8],[4.81967473,50.70303073,117.4],[4.8196444,50.70293807,116.6],[4.81963341,50.70288941,116.26],[4.81962541,50.70283842,115.93],[4.81962275,50.70278643,115.53],[4.81962674,50.70273243,115.13],[4.81963674,50.70267744,114.73],[4.81965407,50.70262111,114.33],[4.81967873,50.70256345,113.86],[4.81975006,50.7024428,112.66],[4.81979472,50.70238114,112.06],[4.81994638,50.70218783,110.2],[4.82000071,50.70212017,109.6],[4.82048499,50.7015392,105.73],[4.82054798,50.70146054,105.46],[4.82104093,50.70081158,103.53],[4.82109792,50.70072992,103.26],[4.82134689,50.70033595,101.46],[4.82138488,50.70025895,101.66],[4.82141288,50.70018162,101.6],[4.82142987,50.70010396,101.53],[4.82143586,50.7000253,101.46],[4.82142987,50.69994731,101.73],[4.82141121,50.69987265,102],[4.82138088,50.69980099,102.4],[4.82133922,50.69973366,102.8],[4.82128622,50.69967167,103.2],[4.82122523,50.69961534,103.26],[4.82115923,50.69956268,103.6],[4.82109124,50.69951302,103.93],[4.82036931,50.69902208,106.26],[4.82032032,50.69898608,106.46],[4.82008102,50.69879677,107.46],[4.82003469,50.69875978,107.46],[4.81981771,50.69856447,108.93],[4.81978805,50.69853548,108.8],[4.81958774,50.69831118,108.4],[4.81955775,50.69827685,108.4],[4.81940411,50.69807155,106.13],[4.81937878,50.69803789,105.93],[4.81928813,50.69793924,105.33],[4.81925914,50.69790558,105.4],[4.81904683,50.69764128,99.8],[4.81902017,50.69760762,99.86],[4.81857056,50.6970857,97.8],[4.81854523,50.6970557,99.06],[4.81827363,50.69668376,110.53],[4.81824897,50.69664776,110.26],[4.81807799,50.69645545,107.26],[4.818047,50.69641045,106.4],[4.81798567,50.6963118,104.66],[4.81795701,50.6962588,103.8],[4.81792201,50.69614548,102.6],[4.81791202,50.69608782,102.13],[4.81789237,50.69587051,101.46],[4.81789104,50.69581985,101.6],[4.81792002,50.69559388,102.06],[4.81792568,50.69555255,102.13],[4.81792436,50.69543824,102.33],[4.81792103,50.69540391,102.26],[4.81789372,50.6952756,102],[4.81788239,50.69524561,102],[4.81780408,50.69511597,102],[4.81779142,50.69509064,102],[4.8177511,50.694964,102.13],[4.81774511,50.69493867,102.26],[4.81772913,50.69485535,102.66],[4.8177258,50.69482702,102.8],[4.81771383,50.69465204,103.73],[4.81771217,50.69463571,103.86],[4.81773946,50.69454141,103.06],[4.81774212,50.69453808,103.2],[4.81771113,50.69441243,103.6],[4.8177078,50.69439544,103.73],[4.8176945,50.69428848,105]]}}]}