{"type":"FeatureCollection","features":[{"type":"Feature","properties":{"name":"20260509 Cicloturismo","time":"2026-05-09T07:52:56Z"},"geometry":{"type":"LineString","coordinates":[[6.17013933,49.12526333,164.65],[6.16935019,49.12417583,165.01],[6.16933286,49.12414883,165.05],[6.16962842,49.12428013,165.22],[6.16960676,49.12421647,165.22],[6.16929016,49.12405852,165.5],[6.1692655,49.12403719,165.49],[6.16885898,49.12291244,168.95],[6.16885365,49.12289211,169.09],[6.16887565,49.12259586,170.21],[6.16889598,49.12257153,170.26],[6.16958752,49.12206499,169.93],[6.16958852,49.12204299,169.92],[6.16857139,49.12120383,170.19],[6.16855573,49.12118517,170.26],[6.16874035,49.12099754,170.12],[6.16873836,49.12097154,170.08],[6.16828847,49.12013837,170.11],[6.1682898,49.12012071,170.17],[6.17006459,49.11969292,171.24],[6.17010592,49.11968026,171.28],[6.17068283,49.11925537,172.54],[6.17067117,49.11922904,172.67],[6.16906846,49.11771469,179.2],[6.16903913,49.11768136,179.21],[6.16793903,49.11583861,175.32],[6.16789503,49.11579728,174.99],[6.16633818,49.11544504,170.31],[6.16630185,49.11541371,170.28],[6.16598001,49.1135487,170.33],[6.16597035,49.11351604,170.53],[6.16525487,49.11238554,171.6],[6.16522521,49.11235221,171.64],[6.16042387,49.10814476,171.97],[6.16037688,49.1081141,171.97],[6.15569293,49.10677646,171.7],[6.1556336,49.10676447,171.69],[6.15347347,49.10690573,169.75],[6.15341214,49.10690074,169.7],[6.1493811,49.10595873,171.86],[6.14933644,49.10594873,171.86],[6.1489718,49.10525757,172.5],[6.14891814,49.10524024,172.42],[6.13274084,49.10072389,173.11],[6.13269151,49.10070556,173.15],[6.09654389,49.08330086,175.05],[6.09653356,49.0832972,175.14],[6.09583331,49.08278727,174.5],[6.09580665,49.08274694,174.47],[6.09579831,49.08212073,173.08],[6.09579665,49.0821174,173.04],[6.0932476,49.07780506,173.72],[6.09323194,49.07777673,173.68],[6.09284138,49.07728551,173.91],[6.09281505,49.07727052,173.98],[6.09224916,49.07727117,174.84],[6.09220616,49.07726051,174.76],[6.09176754,49.0769839,173.89],[6.09171955,49.07693224,173.7],[6.09146995,49.07605931,171.96],[6.09144529,49.07600365,172.04],[6.09082438,49.07513408,172.31],[6.09078605,49.07509308,172.17],[6.08922651,49.07418122,172.3],[6.08917152,49.07415789,172.35],[6.08573775,49.07303979,172.17],[6.08566176,49.0730128,172.17],[6.08407355,49.07225059,172.19],[6.08401789,49.07220593,172.16],[6.08330131,49.07147967,172.35],[6.08326598,49.07142734,172.33],[6.08298803,49.07065474,172.38],[6.08294737,49.07061041,172.41],[6.08068832,49.06890666,176.07],[6.08066433,49.06887833,176.25],[6.08099827,49.06846508,177.47],[6.08098894,49.06844708,177.37],[6.07955039,49.06750186,173.71],[6.07950606,49.0674482,173.68],[6.07874159,49.06554272,173.25],[6.07871626,49.06549139,173.25],[6.0773668,49.06363259,172.5],[6.07732147,49.06359393,172.51],[6.07497098,49.06294109,172.38],[6.07489765,49.06291609,172.44],[6.0718102,49.06130337,172.13],[6.07174487,49.06127337,172.18],[6.06774517,49.05992267,172.79],[6.06767417,49.05989034,172.81],[6.06521808,49.05805559,172],[6.06517409,49.05801626,172.14],[6.0643779,49.05693804,173.4],[6.06435057,49.05688705,173.42],[6.06402,49.05579114,173.72],[6.064012,49.05573448,173.72],[6.06433856,49.05448524,171.95],[6.06435956,49.05443691,171.99],[6.06478551,49.05396098,173.09],[6.06480051,49.05391098,173.14],[6.06484716,49.05228613,173.53],[6.06485016,49.0522348,173.58],[6.06463644,49.04912607,174.25],[6.06462378,49.04907808,174.3],[6.06425722,49.04831883,173.61],[6.06422389,49.04827117,173.55],[6.06323669,49.04716395,173.99],[6.06321936,49.04711495,173.98],[6.06366626,49.04621006,173.77],[6.06365127,49.04616673,173.78],[6.06268573,49.04551588,174.55],[6.06265873,49.04549289,174.58],[6.06150158,49.04379307,174.49],[6.06146892,49.04373541,174.47],[6.06131397,49.04319812,173.9],[6.06132063,49.04313546,173.82],[6.06164792,49.04247886,173.85],[6.06161626,49.0424362,173.79],[6.05943481,49.04057476,172.8],[6.05937648,49.04053543,172.76],[6.05823923,49.04036777,173.33],[6.05821323,49.04032111,173.39],[6.05694062,49.0365521,172.25],[6.05692596,49.03650977,172.28],[6.05631674,49.03262521,174.62],[6.05630874,49.03258788,174.67],[6.055599,49.03040747,174.8],[6.05558101,49.03036847,174.89],[6.05538339,49.03011184,175.4],[6.05534206,49.03010051,175.51],[6.05278261,49.02995577,178.08],[6.05275895,49.02993011,177.87],[6.05293459,49.02856689,172.46],[6.05293625,49.0285159,172.33],[6.05278802,49.02683843,174.51],[6.05277769,49.0267901,174.32],[6.05223153,49.02538292,172.81],[6.0522172,49.02533026,172.77],[6.05209092,49.02406372,173.6],[6.05206759,49.02401772,173.6],[6.05017788,49.02171865,175.81],[6.05016589,49.02168932,175.88],[6.05062486,49.0213431,177.41],[6.05065386,49.0213071,177.39],[6.05065487,49.0209528,176.38],[6.05063521,49.02091947,176.37],[6.04736076,49.01648064,176.9],[6.04731843,49.01643598,176.86],[6.04231719,49.01225446,176.03],[6.0422792,49.01220847,176.02],[6.04176095,49.01127058,175.52],[6.04174062,49.01122159,175.5],[6.04150744,49.00977973,175.78],[6.04149545,49.00973907,175.88],[6.04096591,49.00876422,176.66],[6.04092725,49.00871722,176.57],[6.03953199,49.0082593,173.2],[6.03951733,49.00821897,173.32],[6.03947003,49.00737274,174.97],[6.03948269,49.00732208,175.01],[6.03995662,49.0068895,175.84],[6.04000228,49.00688617,175.96],[6.04158906,49.00687789,179.85],[6.04163539,49.00689022,179.81],[6.04341922,49.00792674,175.44],[6.04348955,49.0079614,175.35],[6.04385986,49.00791641,174.82],[6.04390052,49.00786775,174.69],[6.04377854,49.00694883,173.55],[6.0437812,49.00689383,173.53],[6.04479396,49.00161109,174.55],[6.04479895,49.00157076,174.54],[6.04479529,49.00059223,174.26],[6.04479029,49.00055357,174.31],[6.04451907,48.99977996,174.26],[6.04449941,48.9997383,174.27],[6.04329158,48.99819214,175.13],[6.04324892,48.99815648,175.1],[6.03955832,48.99573127,175.94],[6.03950333,48.99570194,175.79],[6.03769909,48.99538839,176],[6.03762843,48.99536506,176.01],[6.03224753,48.99325681,177.39],[6.0321902,48.99323948,177.41],[6.03091797,48.99315684,179.49],[6.03087931,48.99314685,179.64],[6.02976447,48.99201502,180.1],[6.02973247,48.99197636,180.08],[6.02876172,48.99022819,180.53],[6.02874573,48.99018319,180.53],[6.02856585,48.9885017,180],[6.02856885,48.98845537,180.02],[6.02964185,48.98529569,180.38],[6.02965551,48.98526236,180.37],[6.03022711,48.98489042,179.81],[6.03024344,48.98485009,179.81],[6.03044364,48.98353394,183.33],[6.03044265,48.98350695,183.45],[6.02952081,48.98307275,185.23],[6.02947848,48.98300875,184.77],[6.02840002,48.98024798,182.48],[6.02839936,48.98018599,182.45],[6.02840572,48.97868346,181.41],[6.02841205,48.97863746,181.44],[6.0287373,48.97794255,181.31],[6.02876696,48.97790022,181.31],[6.02951749,48.97748436,183.98],[6.02951982,48.97748137,184.08],[6.02942817,48.97766634,184.39],[6.02944683,48.97771067,184.32],[6.02976614,48.97778932,183.35],[6.02983747,48.97775699,182.98],[6.03023044,48.97718704,181.38],[6.03027277,48.97713638,181.33],[6.03069172,48.97696408,180.88],[6.03070972,48.97693608,180.94],[6.03083732,48.9731002,180.71],[6.03085398,48.97305254,180.71],[6.03768575,48.9578555,178.6],[6.03770808,48.95780951,178.65],[6.0396335,48.95316044,177.63],[6.0396485,48.95312011,177.62],[6.0399487,48.95139566,177.82],[6.03996203,48.951356,177.84],[6.04063995,48.95087975,177.68],[6.04065861,48.95084342,177.61],[6.04252932,48.94594303,177.74],[6.04253865,48.94589437,177.8],[6.04285339,48.94381296,177.69],[6.04285439,48.94376497,177.58],[6.04266531,48.93890975,177.21],[6.04265698,48.93885909,177.21],[6.04193351,48.93646295,178],[6.04190685,48.93640395,177.9],[6.04015745,48.93336827,178.09],[6.04013179,48.93330694,178.04],[6.03967161,48.93139275,178.02],[6.03966428,48.93132776,178],[6.04021409,48.92174189,178.6],[6.04022475,48.92168756,178.66],[6.03987446,48.92128126,178.49],[6.0398688,48.92121927,178.37],[6.04003795,48.91849851,179.33],[6.04005995,48.91845418,179.23],[6.04059619,48.9178656,178.89],[6.04064352,48.91785527,178.78],[6.04202805,48.91812548,181.73],[6.04207338,48.91809948,181.71],[6.04412674,48.91516845,180.76],[6.0441684,48.91512379,180.78],[6.05095648,48.90903972,180.66],[6.05100347,48.90899906,180.67],[6.05090483,48.90868743,181.6],[6.05090549,48.90864677,181.67],[6.05135979,48.90817115,180.02],[6.05141612,48.90811716,179.75],[6.05326591,48.90676836,178.53],[6.05330957,48.90673136,178.57],[6.0562262,48.90404016,178.93],[6.0562462,48.9040195,178.96],[6.05940166,48.90190902,180.07],[6.05942732,48.90187169,180.09],[6.05883557,48.89983292,180.51],[6.05881524,48.89979659,180.58],[6.05768865,48.89905303,178.55],[6.05765966,48.89901803,178.56],[6.05819022,48.89825979,180.96],[6.05817589,48.89821213,180.89],[6.05659372,48.8968476,178.74],[6.05657339,48.8967956,178.83],[6.05663039,48.89638632,179.11],[6.05665805,48.89633966,179.15],[6.05853612,48.89366394,179.24],[6.05856245,48.89361694,179.25],[6.05886568,48.89263404,178.8],[6.05887901,48.89257771,178.75],[6.05689815,48.89186955,180.2],[6.05684516,48.89183556,180.24],[6.05702345,48.89103634,181.17],[6.05704111,48.89099701,181.24],[6.05834324,48.8893209,181.32],[6.05836757,48.88928357,181.3],[6.06937182,48.8719325,184.53],[6.06939915,48.87189184,184.55],[6.06967213,48.87180184,183.97],[6.06971212,48.8718275,184],[6.07027736,48.87263039,185.43],[6.07031802,48.87265038,185.56],[6.07148591,48.87276767,188.12],[6.07151624,48.87271934,188.03],[6.07199114,48.87129376,183.57],[6.0720048,48.87122176,183.45],[6.07241957,48.86789141,183.35],[6.0724409,48.86783908,183.34],[6.07392361,48.86508436,183.63],[6.0739486,48.86502836,183.65],[6.07500617,48.86423844,184.17],[6.0750495,48.86417478,184.19],[6.07505049,48.86369382,184.17],[6.07507749,48.86363616,184.21],[6.07649562,48.86115173,184.07],[6.07651695,48.86108307,184.09],[6.07803799,48.84908364,187.93],[6.07805065,48.84906398,187.92],[6.08070383,48.84872045,181.97],[6.08074483,48.84869746,181.81],[6.07994997,48.84710431,179.81],[6.07995697,48.84705531,179.77],[6.08057186,48.84575544,178.8],[6.08060819,48.84570111,178.96],[6.08160308,48.84474354,179.38],[6.08165841,48.84470154,179.27],[6.08475111,48.84295046,179.74],[6.0848131,48.8429218,179.71],[6.08768916,48.84192607,180.96],[6.08769115,48.84192973,180.97],[6.08825815,48.84140507,181.79],[6.08980735,48.84066321,181.53],[6.08986135,48.84062622,181.53],[6.09042692,48.83989697,181.48],[6.09044425,48.83985531,181.45],[6.09090858,48.83655898,180.64],[6.09091558,48.83650065,180.64],[6.09126416,48.83543441,180.2],[6.09126915,48.83537441,180.16],[6.09057921,48.83472748,180.57],[6.09058687,48.83468682,180.59],[6.09176635,48.83331966,180.54],[6.09175769,48.833285,180.55],[6.08973454,48.8316816,180.62],[6.08974053,48.8316796,180.6],[6.08916261,48.83180919,180.31],[6.08911761,48.8317742,180.25],[6.08807411,48.82975637,179.22],[6.08804178,48.82971604,179.23],[6.08692722,48.82906048,180.45],[6.08690056,48.82901915,180.51],[6.08717185,48.82798194,180.65],[6.08720585,48.82794195,180.68],[6.08963297,48.82657482,181.54],[6.08969163,48.82654716,181.51],[6.09314929,48.82518815,180.73],[6.09315962,48.82518582,180.74],[6.09380919,48.82407527,180.82],[6.09386852,48.82405894,180.83],[6.09825255,48.82488692,179.87],[6.09831988,48.82489725,179.86],[6.10121096,48.82516205,181.22],[6.10127496,48.82516804,181.18],[6.10467704,48.82487465,180.21],[6.10473903,48.82486432,180.41],[6.11203019,48.8230029,181.4],[6.11209085,48.82298557,181.58],[6.1166731,48.82122234,181.18],[6.11672909,48.82120868,181.21],[6.12278327,48.82064047,181.62],[6.1228446,48.82062381,181.45],[6.12557839,48.81980404,181.6],[6.12563239,48.81977671,181.59],[6.12681422,48.8185485,182.58],[6.12684321,48.81850084,182.6],[6.12729668,48.81688099,182.38],[6.12730334,48.81684766,182.38],[6.12700739,48.81666737,181.85],[6.1270044,48.81661737,181.69],[6.12723892,48.8150529,181.72],[6.12723059,48.81500557,181.56],[6.12631253,48.81270888,185.41],[6.12630154,48.81267755,185.61],[6.12607609,48.81138045,189.84],[6.1260651,48.81134946,190.09],[6.12521359,48.80985032,189.72],[6.12517993,48.80980366,189.46],[6.12341702,48.80860444,183.62],[6.12332236,48.80854911,183.47],[6.12049452,48.80711863,182.71],[6.12044252,48.80708563,182.85],[6.12030255,48.80677732,182.75],[6.12026255,48.80673466,182.68],[6.11891795,48.80604079,182.06],[6.11885395,48.80599946,182.11],[6.11667949,48.80439664,183.61],[6.1166235,48.80436298,183.63],[6.11285579,48.80267959,182.41],[6.1127988,48.80263693,182.32],[6.11099769,48.8005345,182.62],[6.1109757,48.80048317,182.61],[6.11070781,48.79933065,182.56],[6.11070415,48.79928032,182.61],[6.11084542,48.7979061,182.93],[6.11086275,48.79785777,182.95],[6.11199789,48.79599996,183.9],[6.11203689,48.79595397,183.95],[6.11417899,48.79406154,183.57],[6.11423432,48.79402454,183.61],[6.11786171,48.79225883,183.53],[6.11792637,48.79223017,183.52],[6.122151,48.79053255,182.78],[6.122222,48.79051456,182.67],[6.12366354,48.79032699,183.23],[6.12370254,48.79034099,183.29],[6.12448908,48.79144685,183.9],[6.12451841,48.79145651,184.14],[6.12763878,48.79136351,188.03],[6.12768277,48.79136717,188.1],[6.13506161,48.79240437,184.88],[6.13514727,48.79240371,184.79],[6.13706883,48.79215018,184.2],[6.13714583,48.79212719,184.2],[6.13929297,48.7911477,185.25],[6.13934696,48.79112771,185.39],[6.14260653,48.79016042,186.83],[6.14262419,48.79013409,186.84],[6.14239422,48.78985714,187.15],[6.14235456,48.78983781,187.24],[6.1387499,48.78824719,189.64],[6.13873024,48.78821586,189.61],[6.13897052,48.78780258,188.05],[6.13901885,48.78776825,187.8],[6.14005476,48.78732768,188.07],[6.14009842,48.78729335,188.11],[6.1410406,48.78618649,188.16],[6.14106326,48.78613749,188.21],[6.14205964,48.78373975,187.72],[6.14206864,48.78369276,187.68],[6.14202072,48.78259789,187.3],[6.14201273,48.78254989,187.29],[6.14163583,48.78164999,187.96],[6.14161284,48.78160633,187.96],[6.14120191,48.78106873,188.09],[6.14115658,48.78103707,188.16],[6.13928039,48.78007055,188.1],[6.13921406,48.78003956,188],[6.13818781,48.77960631,188.62],[6.13812048,48.77958565,188.66],[6.13756453,48.77974592,189.23],[6.1375032,48.77975125,189.31],[6.13707625,48.77959396,189.44],[6.13703159,48.77957796,189.51],[6.13647666,48.77918038,190.56],[6.13646133,48.77916005,190.58],[6.13632305,48.77863742,189.75],[6.13631839,48.77858442,189.71],[6.13641302,48.77806912,189.88],[6.13644035,48.77802279,189.88],[6.1377255,48.77647068,191.31],[6.13774083,48.77642769,191.31],[6.13779114,48.77587807,191.57],[6.13778181,48.77583641,191.61],[6.1374342,48.77541182,190.56],[6.13740954,48.77541248,190.38],[6.13804944,48.77651539,186.59],[6.13808877,48.77656472,186.49],[6.13870039,48.77700135,185.34],[6.13877205,48.77703101,185.26],[6.13986497,48.77734827,183.53],[6.13993796,48.77734027,183.5],[6.1407672,48.77679035,183.79],[6.14078586,48.77674369,183.79],[6.14110783,48.77225819,184.25],[6.14110683,48.77221453,184.38],[6.14044392,48.76829125,184.97],[6.14044326,48.76825192,185],[6.14092692,48.76477798,185.12],[6.14094891,48.76473332,185.06],[6.14161314,48.76384475,185.13],[6.14165313,48.76381076,185.15],[6.14575644,48.7611328,188.4],[6.14581177,48.76109481,188.41],[6.14657802,48.76036722,188.5],[6.14661601,48.76031989,188.49],[6.14800826,48.75716228,187.97],[6.14802326,48.75712229,187.92],[6.14801396,48.75627611,189.22],[6.14803295,48.75623945,189.24],[6.15234063,48.75173932,187.44],[6.15236462,48.75170633,187.45],[6.15284849,48.75063117,187.38],[6.15286715,48.75057118,187.29],[6.15311996,48.74876534,191.37],[6.15313929,48.74872034,191.33],[6.1535442,48.74793377,190.4],[6.15357119,48.74789644,190.53],[6.15439574,48.74710188,190.21],[6.1544304,48.74707255,190.14],[6.15497699,48.74691527,190.31],[6.15501199,48.74689194,190.21],[6.1572487,48.74518658,191.39],[6.15730103,48.74515758,191.44],[6.1592242,48.74448174,189.89],[6.15927886,48.74446808,189.71],[6.16273652,48.74378336,190.51],[6.16279418,48.7437797,190.49],[6.16581287,48.74428577,190.86],[6.1658542,48.74429177,190.91],[6.16624815,48.74418281,191.3],[6.16630981,48.74416481,191.3],[6.16762463,48.74250763,190.98],[6.16763829,48.74246497,191.01],[6.16848759,48.73675992,195.4],[6.16848958,48.73674259,195.35],[6.16832068,48.73575472,194.33],[6.16832768,48.73571372,194.36],[6.16871394,48.73500285,197.95],[6.16873593,48.73497719,198.09],[6.16931417,48.73457495,200.24],[6.1693215,48.73454729,200.46],[6.16912354,48.734395,202.09],[6.16907388,48.734395,202.22],[6.16822332,48.73455396,199.61],[6.16821433,48.73452063,199.6],[6.16881293,48.73415004,198.89],[6.16883759,48.73411305,198.84],[6.1691358,48.73293318,197.63],[6.1691398,48.73291185,197.33],[6.16901484,48.73200797,196.16],[6.16900284,48.73197898,196.14],[6.16867028,48.73182171,196.08],[6.16866795,48.73181938,196.11],[6.16880828,48.73197038,199.79],[6.16880595,48.73197204,199.78],[6.16892127,48.73171439,199.73],[6.1689386,48.73170106,199.74],[6.17019982,48.73150182,197.19],[6.17021282,48.73147016,197.22],[6.17071289,48.7295314,198.28],[6.17072789,48.72948474,198.27],[6.17153897,48.72780198,203.72],[6.1715483,48.72777232,203.94],[6.17152627,48.72698245,208.38],[6.17152993,48.72695412,208.47],[6.17237165,48.72269608,212.31],[6.17237231,48.72264175,212.22],[6.17204883,48.72116387,211.49],[6.1720335,48.72112054,211.59],[6.17053791,48.71773457,211.05],[6.17051691,48.71768724,210.74],[6.16963699,48.717051,207.4],[6.16958566,48.71698767,206.81],[6.16853489,48.7151779,205.65],[6.16851723,48.71513657,205.64],[6.1680781,48.71300781,204.95],[6.1680791,48.71297015,204.91],[6.16813138,48.71270288,203.83],[6.16815571,48.71266255,203.69],[6.16861667,48.71237794,202.37],[6.16861034,48.71233995,202.36],[6.16763884,48.71079812,199.02],[6.16762018,48.71074746,199],[6.16713074,48.70817635,197.01],[6.16712308,48.70812669,197.05],[6.16756961,48.70660552,197.73],[6.16759894,48.70657019,197.73],[6.16896881,48.705369,198.38],[6.16901847,48.70533501,198.42],[6.17071998,48.70457486,197.13],[6.17077298,48.7045552,197.07],[6.17236285,48.704198,196.79],[6.17242551,48.70419067,196.86],[6.17484432,48.70411371,198.48],[6.17487865,48.70409605,198.72],[6.17522027,48.70361245,197.98],[6.17523893,48.70354979,197.83],[6.17520995,48.70293886,197.17],[6.17519462,48.70290053,197.22],[6.17400741,48.702186,197.35],[6.17400075,48.70214667,197.38],[6.17433266,48.70157876,198.59],[6.17434499,48.70156743,198.66],[6.17487856,48.70166103,198.17],[6.17490355,48.7016577,198.06],[6.17432264,48.70157547,198.18],[6.17430631,48.70155948,198.23],[6.17444193,48.70114923,198.74],[6.17445793,48.70111224,198.77],[6.17782561,48.70086838,196.39],[6.1778606,48.70084772,196.3],[6.1780765,48.70030216,195.37],[6.1780905,48.70028016,195.44],[6.17774465,48.69926164,195.56],[6.17773732,48.69923931,195.57],[6.17811619,48.69853578,195.22],[6.17813019,48.69851378,195.24],[6.18235818,48.69719545,197.39],[6.18360023,48.69770917,192.88],[6.18360123,48.6977095,192.87],[6.17916223,48.69626671,197.64],[6.17915157,48.69624905,197.69],[6.1795168,48.69602342,198.42],[6.17953013,48.69602575,198.38],[6.17927747,48.69599476,199.53],[6.17927014,48.69598776,199.52],[6.17964775,48.69599914,200.61],[6.17965808,48.69598448,200.63],[6.18002922,48.69428786,201.28],[6.18004555,48.69425186,201.21],[6.18018517,48.69398057,201.28],[6.18019583,48.69397291,201.35],[6.18044643,48.69407052,200.77],[6.18046243,48.69407852,200.66],[6.18108637,48.69295554,205.41],[6.18109103,48.69295255,205.38],[6.18921327,48.69539045,197.33],[6.18926493,48.69540511,197.34],[6.19032146,48.69550836,197.66],[6.19033746,48.69551102,197.72],[6.19046743,48.69573364,197.61],[6.19051843,48.69575697,197.56],[6.19175794,48.69613051,198.51],[6.19178227,48.69611385,198.54],[6.19564037,48.69014972,198],[6.1956577,48.69012373,198.02],[6.20275505,48.67599902,198.29],[6.20278071,48.67594902,198.18],[6.20443719,48.67383258,198.32],[6.20448919,48.67378492,198.26],[6.20908834,48.67029108,199.85],[6.209137,48.67025608,199.89],[6.2118211,48.66862566,200.07],[6.21188676,48.66859167,200.04],[6.2218687,48.6647023,199.04],[6.22194103,48.66467131,199.11],[6.23026807,48.66027205,198.47],[6.2303284,48.66024006,198.47],[6.23247058,48.65964948,199.33],[6.23252791,48.65961382,199.17],[6.23344314,48.65885392,196.69],[6.23348647,48.65881293,196.67],[6.2352291,48.65493633,198.06],[6.23525343,48.65489067,198.09],[6.23636031,48.65356084,198.71],[6.2363813,48.65354018,198.85],[6.2425197,48.64888483,200.47],[6.2425707,48.6488495,200.49],[6.24706528,48.64637684,200.09],[6.24713594,48.64634418,200.08],[6.24972936,48.64530538,201.17],[6.24979835,48.64528139,201.16],[6.25370672,48.64414535,202.16],[6.25377338,48.64413036,202.15],[6.26052357,48.64287841,202.52],[6.26059256,48.64286708,202.5],[6.26557381,48.64225119,207.91],[6.26563781,48.64224886,207.99],[6.26845527,48.64253945,205.18],[6.2685166,48.64255611,205.17],[6.2736971,48.64505366,204.54],[6.2737481,48.64507332,204.55],[6.27789472,48.64603129,204.73],[6.27795405,48.64603895,204.81],[6.28271004,48.64611524,205.73],[6.2827837,48.64610925,205.75],[6.29137749,48.64490641,205.95],[6.29144749,48.64489375,205.95],[6.29392966,48.64431491,205.84],[6.29400232,48.64429291,205.85],[6.29650779,48.64335012,204.54],[6.29656579,48.64332279,204.5],[6.29857156,48.64219897,205.39],[6.29861622,48.64216998,205.31],[6.30281243,48.63922645,205.36],[6.30285642,48.63919945,205.34],[6.30630605,48.63768185,205.44],[6.30635171,48.63766685,205.39],[6.32553053,48.63238879,206.87],[6.32558619,48.63237446,206.84],[6.34254888,48.62852359,207.16],[6.34260621,48.6285196,207.19],[6.34645152,48.6295086,209.79],[6.34649952,48.62951593,209.79],[6.34708841,48.62911671,211.22],[6.34713374,48.62912371,211.03],[6.34994755,48.62993684,206.48],[6.35000688,48.62994417,206.57],[6.35904973,48.63041726,211.46],[6.35910806,48.63042759,211.43],[6.3672574,48.63281454,212.82],[6.3673224,48.63283687,212.78],[6.37390398,48.63570385,211.48],[6.37395197,48.63572018,211.5],[6.37999133,48.63735364,213.96],[6.38004532,48.6373673,214.01],[6.38556712,48.63831347,213.74],[6.38562878,48.63832013,213.74],[6.38863015,48.63820662,214.01],[6.38868848,48.63820762,213.98],[6.39148286,48.63843738,214.15],[6.39153985,48.63845104,214.16],[6.3936703,48.6395215,214.09],[6.39370896,48.63955116,214.02],[6.39437549,48.64021106,213.96],[6.39440149,48.64024472,213.99],[6.39547257,48.64209613,216.3],[6.39550823,48.64213112,216.29],[6.39619149,48.64260935,216.38],[6.39624815,48.64263635,216.34],[6.39719807,48.64290595,216.24],[6.39726607,48.64291428,216.22],[6.39829563,48.64290763,216.21],[6.39835762,48.64289864,216.19],[6.39971553,48.64253742,216.5],[6.39977386,48.64251709,216.53],[6.40337749,48.64073146,216.97],[6.40343615,48.6407218,216.96],[6.404868,48.64070413,216.57],[6.40492999,48.64071179,216.56],[6.40782941,48.64127423,216.78],[6.40789774,48.64127789,216.76],[6.41025858,48.64100237,216.63],[6.41031658,48.64098604,216.68],[6.4117701,48.64032049,216.87],[6.41181409,48.64029183,216.88],[6.41388316,48.63829515,217.14],[6.41391982,48.63826582,217.13],[6.41515202,48.63771458,217.18],[6.41521168,48.63770025,217.16],[6.4218685,48.63747336,217.55],[6.4219375,48.63748702,217.55],[6.42344568,48.63818021,217.67],[6.42348367,48.63821187,217.69],[6.42501239,48.64044589,217.33],[6.42504472,48.64048122,217.32],[6.42731749,48.6421413,216.69],[6.42737248,48.64216096,216.65],[6.43067162,48.64281909,217.77],[6.43077562,48.64281843,217.62],[6.43495806,48.64210061,217.62],[6.43504339,48.64210527,217.65],[6.43815918,48.64266141,217.6],[6.43823184,48.64267174,217.58],[6.4421986,48.6430418,217.12],[6.44226693,48.64306113,217.14],[6.44563833,48.64456852,218.99],[6.44569599,48.64458952,219.14],[6.45464227,48.64692412,219.17],[6.45470793,48.64694812,219.22],[6.45967787,48.64954172,220.14],[6.45974653,48.64956638,220.11],[6.46293296,48.65017083,220.36],[6.46300629,48.65020049,220.36],[6.46385691,48.65072909,220.25],[6.46390991,48.65077908,220.24],[6.46572968,48.65283118,220],[6.46577868,48.65286984,219.78],[6.46762488,48.65377401,219.64],[6.46769387,48.653792,219.55],[6.46931009,48.65401186,219.6],[6.46937375,48.65401286,219.62],[6.4711363,48.65382931,219.19],[6.47119396,48.65381265,219.17],[6.47359069,48.65211857,221.81],[6.47363968,48.65208957,221.87],[6.47507689,48.65161569,221.96],[6.47512889,48.65160536,221.99],[6.4782443,48.65185386,222.02],[6.47829263,48.65187019,222.01],[6.47920852,48.65232409,222.45],[6.47924518,48.65234975,222.45],[6.48061267,48.65353554,221.77],[6.480652,48.6535612,221.73],[6.48162887,48.65391671,222.24],[6.48163853,48.6539247,222.36],[6.48141688,48.65371808,223.01],[6.48144121,48.65373241,222.94],[6.48215642,48.65445129,223.54],[6.48218508,48.65449062,223.51],[6.4822464,48.65500523,223.18],[6.48228173,48.65504856,223.18],[6.48377692,48.65626341,223.12],[6.48382792,48.6562874,223.28],[6.48505914,48.65663131,223.01],[6.48514314,48.65663897,223.04],[6.48992453,48.65664461,223.62],[6.49000886,48.65664694,223.6],[6.49105882,48.65687154,223.39],[6.49112748,48.65689853,223.39],[6.49197607,48.65729878,223.61],[6.49202773,48.65733277,223.67],[6.49288727,48.65834066,224.34],[6.4929406,48.65838699,224.32],[6.49488213,48.65971615,221.48],[6.49495279,48.65976448,221.32],[6.49871949,48.66205154,218.68],[6.49877348,48.6620842,218.71],[6.500801,48.66264936,220.09],[6.500855,48.66268402,220.04],[6.50278005,48.66452609,221.42],[6.50284038,48.66455808,221.24],[6.50472724,48.66505161,220.46],[6.50479924,48.6650746,220.53],[6.50702944,48.66599845,221.09],[6.5071171,48.66602078,221.13],[6.50904594,48.66632193,223.79],[6.50900694,48.66632259,223.77],[6.50958021,48.66608938,224.77],[6.50963554,48.66609171,224.94],[6.5114814,48.66643158,223.89],[6.51156873,48.66644824,223.93],[6.51397221,48.66749538,222.89],[6.51404221,48.66751471,222.87],[6.51691901,48.6679202,223.5],[6.51698267,48.66794353,223.38],[6.51809454,48.66870876,223.89],[6.51812787,48.66875175,223.9],[6.51894033,48.67048192,223.24],[6.51897533,48.67051691,223.25],[6.52050583,48.67129511,222.94],[6.52056449,48.67131044,222.97],[6.5219134,48.6714357,223.29],[6.5219744,48.67143137,223.27],[6.52527043,48.67097324,223.32],[6.52532243,48.67097191,223.54],[6.52823516,48.67124572,226.13],[6.52829849,48.67125905,226.12],[6.53011801,48.67202688,226.21],[6.53016867,48.67206087,226.21],[6.53164515,48.67354838,225.71],[6.53170181,48.67358138,225.72],[6.53304603,48.67398128,225.23],[6.53311936,48.67398761,225.22],[6.53744537,48.67365944,225.31],[6.5375097,48.67364811,225.21],[6.541795,48.67243348,224.25],[6.54185566,48.67243182,224.21],[6.54597069,48.67284347,225.4],[6.54603069,48.67285246,225.37],[6.54968304,48.67368949,224.1],[6.5497427,48.67369715,224.07],[6.55272677,48.67377109,224.92],[6.55278876,48.67377942,224.9],[6.5546129,48.67446061,225.42],[6.55467356,48.67449127,225.43],[6.5556271,48.67561344,225.63],[6.5556661,48.6756481,225.64],[6.55678932,48.67615001,225.84],[6.55685932,48.67617134,225.87],[6.56242989,48.67668454,223.57],[6.56249822,48.6766952,223.57],[6.56756272,48.67815442,224.54],[6.56761971,48.67816108,224.55],[6.57243033,48.67813205,227.34],[6.57249466,48.67812972,227.43],[6.57731465,48.67763443,227.48],[6.57737998,48.67762577,227.52],[6.58001608,48.67700996,227.9],[6.58008207,48.67701129,227.9],[6.59021395,48.67797075,228.22],[6.59024894,48.67797274,228.24],[6.59097452,48.67818731,230.91],[6.59098285,48.67821264,231.16],[6.59053395,48.67894153,232.28],[6.59050496,48.67896852,232.26],[6.5894494,48.6786336,228.18]]}}]}