{"type":"FeatureCollection","features":[{"type":"Feature","properties":{"name":"20260425 Cicloturismo","time":"2026-04-25T08:32:33Z"},"geometry":{"type":"LineString","coordinates":[[9.25050333,53.200436],[9.25048835,53.20043831],[9.25048135,53.20043632],[9.25040537,53.200382],[9.25038437,53.20036601],[9.25033938,53.20032835],[9.25031472,53.20030836],[9.25024907,53.20023704],[9.25022574,53.20021138],[9.25020341,53.20018405],[9.25018275,53.20015639],[9.25003045,53.1999161],[9.25001212,53.1998881],[9.2499698,53.19983444],[9.24994781,53.19980778],[9.24986917,53.19969579],[9.24984884,53.19966746],[9.2497762,53.19954948],[9.24975987,53.19951949],[9.24963858,53.19928153],[9.24962458,53.19925287],[9.24945163,53.19893325],[9.2494363,53.19890392],[9.24918604,53.19849],[9.24917371,53.198468],[9.24916505,53.19842568],[9.24917104,53.19840635],[9.24921569,53.19835036],[9.24923735,53.19833437],[9.24932834,53.19829405],[9.24936167,53.19828239],[9.2495863,53.1982301],[9.24961863,53.19822144],[9.24963729,53.19820945],[9.24964295,53.19819712],[9.24963862,53.19818846],[9.24962696,53.19818446],[9.2496163,53.19818479],[9.24960731,53.19818678],[9.24954898,53.19822044],[9.24951132,53.19824777],[9.24948532,53.19826143],[9.24941534,53.19828376],[9.24937468,53.19829375],[9.24874444,53.19841336],[9.24870011,53.19842202],[9.24852246,53.198461],[9.2484768,53.19846999],[9.24824216,53.19851096],[9.24819417,53.19851996],[9.24790154,53.19858292],[9.24785155,53.19859358],[9.24775656,53.1986199],[9.24771123,53.19863323],[9.24762357,53.19866189],[9.24758157,53.19867722],[9.24742058,53.19874854],[9.24737925,53.1987672],[9.24720528,53.19883684],[9.24716328,53.19885484],[9.24668034,53.19907746],[9.24664168,53.19909646],[9.24656902,53.19913711],[9.24653636,53.19915977],[9.24642838,53.19926009],[9.24640572,53.19928608],[9.24631542,53.19941739],[9.24629809,53.19944372],[9.24621444,53.19954804],[9.24619478,53.19957337],[9.24604083,53.199818],[9.2460215,53.19984666],[9.24593085,53.19995864],[9.24590552,53.19998497],[9.2458142,53.20005729],[9.24577787,53.20007828],[9.24570255,53.20011727],[9.24566389,53.20013627],[9.24557957,53.20017026],[9.24553491,53.20018525],[9.24539059,53.20022457],[9.2453406,53.2002359],[9.24481401,53.20034387],[9.24476935,53.20035353],[9.24446105,53.2004305],[9.24441639,53.20044083],[9.24410676,53.20049912],[9.24406377,53.20050778],[9.24362917,53.20061438],[9.24359384,53.20062238],[9.24340053,53.20063235],[9.2433572,53.20063368],[9.24311622,53.20062704],[9.24306623,53.2006297],[9.24286425,53.20065168],[9.24281225,53.20065601],[9.2421133,53.20070327],[9.24205964,53.20070826],[9.24185132,53.20073525],[9.24180133,53.20074158],[9.24166068,53.20077023],[9.24161702,53.20078456],[9.24149003,53.20083654],[9.2414497,53.20085554],[9.24130306,53.20094219],[9.24126907,53.20096552],[9.24118609,53.2010365],[9.24116143,53.20105883],[9.24093982,53.20126745],[9.24091316,53.20129211],[9.24073185,53.20147339],[9.24070519,53.20149839],[9.24049491,53.20165703],[9.24046158,53.20167569],[9.24042525,53.20169102],[9.24038525,53.20170235],[9.24024994,53.20172334],[9.24020328,53.20172834],[9.23983866,53.20175163],[9.23981033,53.20175529],[9.23976302,53.20175029],[9.23975836,53.20174396],[9.23976769,53.2017353],[9.23978902,53.20172697],[9.23982068,53.20172031],[9.23985967,53.20171598],[9.23999933,53.201707],[9.24005099,53.20170434],[9.24021397,53.20170268],[9.24026696,53.20170534],[9.24035695,53.20172433],[9.24039028,53.20174232],[9.24041194,53.20176498],[9.24042527,53.20179131],[9.2404316,53.20181897],[9.2404336,53.20184897],[9.24041695,53.20194128],[9.24041196,53.20197461],[9.24040464,53.20210526],[9.24040131,53.20213826],[9.24032873,53.20268484],[9.2403244,53.20271784],[9.2402661,53.20301645],[9.24025877,53.20305078],[9.2402135,53.20338972],[9.24020884,53.20341938],[9.24014891,53.20376099],[9.24014325,53.20379265],[9.24010694,53.20395496],[9.24009994,53.20398796],[9.24008063,53.20411594],[9.24007497,53.20414694],[9.24006764,53.20417827],[9.24005864,53.20420926],[9.24002932,53.20426892],[9.24000832,53.20429692],[9.23998299,53.20432291],[9.239954,53.20434724],[9.23988368,53.20439123],[9.23984435,53.20441156],[9.23967037,53.2044782],[9.23962704,53.20449553],[9.23944706,53.20454851],[9.23940373,53.20456384],[9.23923709,53.20463216],[9.23919309,53.20464816],[9.23859384,53.20484641],[9.23856118,53.20485807],[9.2383582,53.20494004],[9.23832221,53.20495404],[9.2381019,53.20503367],[9.23806657,53.20504633],[9.23781461,53.20513264],[9.23777695,53.20514563],[9.23759298,53.2052016],[9.23755865,53.2052116],[9.23746566,53.20524992],[9.237435,53.20526191],[9.23714305,53.20536053],[9.23710739,53.20537286],[9.23703607,53.20540152],[9.23699907,53.20541485],[9.23657279,53.20555346],[9.23653646,53.20556546],[9.23635848,53.20561577],[9.23632382,53.20562743],[9.23608685,53.20571872],[9.23605319,53.20573105],[9.23573623,53.20584201],[9.23569957,53.20585501],[9.23554726,53.20590633],[9.23550927,53.20591899],[9.23539129,53.2059523],[9.2353533,53.20596463],[9.23524431,53.20600728],[9.23520665,53.20602161],[9.23476639,53.20616389],[9.2347274,53.20617689],[9.23329927,53.20667569],[9.23326661,53.20668702],[9.23299633,53.20677332],[9.232962,53.20678465],[9.23268905,53.20686428],[9.23265972,53.20687361],[9.23247941,53.20695023],[9.23244875,53.20696256],[9.23184716,53.20717882],[9.23180483,53.20719448],[9.23029301,53.20772166],[9.23025102,53.20773732],[9.23003204,53.20780397],[9.22999038,53.2078173],[9.22976976,53.20790694],[9.22973243,53.2079206],[9.22953245,53.20798559],[9.22949146,53.20799825],[9.22858791,53.20831247],[9.22855425,53.20832513],[9.22840494,53.20836244],[9.22836828,53.2083751],[9.22822464,53.20842741],[9.22818798,53.20844007],[9.22806133,53.20849372],[9.22803133,53.20850638],[9.22790602,53.20855236],[9.22787369,53.20856569],[9.22752774,53.20867999],[9.22749408,53.20869132],[9.22699746,53.20887156],[9.2269648,53.20888389],[9.225556,53.20937101],[9.22552667,53.20938134],[9.22531437,53.20944496],[9.22528371,53.20945296],[9.22516407,53.20950927],[9.22513874,53.20951893],[9.22459416,53.20970382],[9.22456483,53.20971348],[9.22447885,53.20974714],[9.22444685,53.20975814],[9.22427988,53.20980179],[9.22424955,53.20981178],[9.22408425,53.20988142],[9.22405559,53.20989341],[9.22387462,53.20994137],[9.22384429,53.2099507],[9.22348201,53.21009497],[9.22344968,53.2101063],[9.22258113,53.21040816],[9.22254647,53.21042015],[9.22243749,53.2104558],[9.2224015,53.21046646],[9.22229418,53.21049145],[9.22225952,53.21050044],[9.22202022,53.21060073],[9.22199056,53.21061306],[9.22179992,53.21067737],[9.22176993,53.2106877],[9.22164395,53.21072235],[9.22160995,53.21073168],[9.22134265,53.21083463],[9.22130932,53.21084662],[9.2204298,53.21114651],[9.22040014,53.21115684],[9.22032316,53.21120515],[9.22030916,53.21121681],[9.22029983,53.21122614],[9.22029517,53.21123547],[9.22029052,53.21125844],[9.22029085,53.21125944],[9.22019388,53.21135541],[9.22018089,53.2113644],[9.21985856,53.21135807],[9.21982356,53.2113634],[9.21978957,53.21136806],[9.21975824,53.21137706],[9.21972991,53.21139005],[9.21960427,53.2114537],[9.21956494,53.21146936],[9.21935796,53.21153567],[9.21932397,53.21154633],[9.21927599,53.21155598],[9.21927399,53.21155532],[9.21927299,53.21154967],[9.21927565,53.21154568],[9.21929431,53.21153202],[9.2193103,53.21152502],[9.21979422,53.21137873],[9.21984022,53.21136507],[9.21996788,53.21131941],[9.22000321,53.21130408],[9.22003121,53.21129008],[9.2200532,53.21127708],[9.22009684,53.21124511],[9.22017784,53.21120611],[9.22017584,53.21119078],[9.22016618,53.21117345],[9.22014818,53.21115579],[9.22012485,53.21113646],[9.22009619,53.21111746],[9.22006486,53.21109813],[9.21972957,53.21091117],[9.21969158,53.21089051],[9.21951361,53.21078287],[9.21947795,53.21076088],[9.21937497,53.21069156],[9.21933898,53.2106699],[9.21895939,53.21046829],[9.21892273,53.21044796],[9.21885341,53.21040497],[9.21882008,53.21038331],[9.21872611,53.21031599],[9.21869245,53.21029533],[9.21843583,53.21016336],[9.2183995,53.21014337],[9.21825819,53.21005973],[9.21822419,53.21003974],[9.21810055,53.20995443],[9.21806889,53.20993377],[9.21780127,53.20978415],[9.21776861,53.20976582],[9.21755231,53.20963085],[9.21752065,53.20961019],[9.21725804,53.20947123],[9.21722938,53.2094539],[9.21707207,53.20933727],[9.21704274,53.20931961],[9.21674679,53.20916832],[9.21671946,53.20915366],[9.21664614,53.20910568],[9.21662081,53.20909035],[9.21643618,53.20898638],[9.21641118,53.20897105],[9.2163452,53.20892106],[9.21632121,53.20890506],[9.21616924,53.20882075],[9.21614424,53.20880642],[9.21603359,53.2087511],[9.21600759,53.20873544],[9.21584728,53.2086258],[9.21581662,53.20860814],[9.21565798,53.20852883],[9.21562699,53.2085125],[9.21551101,53.20843986],[9.21548002,53.20842186],[9.21535104,53.20835855],[9.21532271,53.20834255],[9.21518374,53.20826157],[9.21515574,53.20824558],[9.21510442,53.20820926],[9.21507543,53.20819093],[9.21500878,53.20815861],[9.21497412,53.20814162],[9.21479714,53.20804165],[9.21475981,53.20802166],[9.21454717,53.20788802],[9.21450918,53.20786636],[9.21435054,53.20778538],[9.21431188,53.20776539],[9.21389093,53.20752912],[9.21384427,53.20750313],[9.21369595,53.20742714],[9.21364862,53.20740181],[9.21334099,53.20723151],[9.21329799,53.20720752],[9.21292103,53.20701289],[9.21287837,53.20699056],[9.21252708,53.20684093],[9.21247375,53.2068196],[9.21242042,53.20679927],[9.21236576,53.20677961],[9.21219678,53.20672829],[9.21214045,53.20671396],[9.21154915,53.20660236],[9.21149782,53.20659236],[9.21113418,53.20651707],[9.21108152,53.20650708],[9.21087154,53.20647476],[9.21081921,53.2064651],[9.21035026,53.20636446],[9.21029927,53.20635346],[9.20972133,53.20625885],[9.209672,53.20625019],[9.2094227,53.20619321],[9.20937271,53.20618221],[9.20892275,53.20610126],[9.20887009,53.2060916],[9.20809385,53.20593467],[9.20804885,53.20592534],[9.20791619,53.20589435],[9.20787286,53.20588302],[9.20774687,53.20584503],[9.20770454,53.20583137],[9.2074839,53.20577673],[9.20744357,53.20576507],[9.20725093,53.20567876],[9.2072136,53.20566143],[9.20714561,53.20562345],[9.20711328,53.20560312],[9.20708195,53.20558213],[9.20705229,53.20556047],[9.20693531,53.20546349],[9.20690632,53.20543916],[9.20680668,53.20533718],[9.20678269,53.20531152],[9.20661972,53.20509522],[9.20660172,53.20506889],[9.20658539,53.20504156],[9.20657073,53.20501323],[9.2065464,53.20495324],[9.20653574,53.20492225],[9.20652541,53.20489092],[9.20651708,53.20486026],[9.20651276,53.20477327],[9.20651642,53.20474661],[9.20664469,53.20441999],[9.20665268,53.20438966],[9.20666466,53.20429901],[9.206664,53.20426835],[9.20666034,53.20423802],[9.20665334,53.20420869],[9.20664268,53.20418036],[9.20662735,53.20415403],[9.20660902,53.20412903],[9.20658736,53.20410504],[9.20645605,53.20400606],[9.20643139,53.20398806],[9.2063414,53.20394307],[9.2063094,53.20392708],[9.20598511,53.20373813],[9.20595178,53.2037188],[9.20584047,53.20366481],[9.20580547,53.20364615],[9.20577214,53.20362682],[9.20574115,53.20360716],[9.20571582,53.2035875],[9.20569883,53.20356584],[9.20568883,53.20354185],[9.20567085,53.20343587],[9.20566985,53.20340854],[9.20569384,53.20332389],[9.2057065,53.2032949],[9.20574949,53.20320625],[9.20576548,53.20317692],[9.20580314,53.2031186],[9.2058258,53.20309027],[9.20593312,53.20299863],[9.20595645,53.2029783],[9.2060161,53.20291998],[9.20602876,53.20290165],[9.20603409,53.20287433],[9.2060311,53.20286433],[9.20600745,53.20283935],[9.20599246,53.20283102],[9.20592482,53.20280869],[9.20589349,53.20280036],[9.20548588,53.20271975],[9.20543288,53.20270842],[9.20470695,53.20253414],[9.20465129,53.20252181],[9.20448398,53.20248716],[9.20442832,53.20247616],[9.20420135,53.20243885],[9.20414369,53.20242986],[9.20390836,53.20240354],[9.20384903,53.20239888],[9.20305911,53.2023646],[9.20300212,53.20236194],[9.20294646,53.20235861],[9.20284581,53.20234262],[9.20280282,53.20233029],[9.20273783,53.20229397],[9.20270883,53.20227431],[9.20257619,53.20220666],[9.20251053,53.20217366],[9.20237655,53.20211269],[9.20234422,53.20209636],[9.20205593,53.20197406],[9.20201894,53.20195773],[9.20129905,53.20162653],[9.20125905,53.20160887],[9.20085044,53.20139891],[9.20080378,53.20137691],[9.20056114,53.20126827],[9.20051148,53.20124661],[9.20006353,53.20105765],[9.2000152,53.20103732],[9.19964723,53.20087303],[9.1995999,53.20085204],[9.19876764,53.20045778],[9.19872165,53.20043545],[9.19762642,53.19994089],[9.19757076,53.19991556],[9.19655588,53.19944034],[9.19650055,53.19941501],[9.1961166,53.19924704],[9.19606427,53.19922271],[9.19567997,53.19902874],[9.19563297,53.19900575],[9.1949957,53.19872315],[9.19494104,53.19869882],[9.19427309,53.19839387],[9.19421776,53.19836887],[9.19401711,53.19826156],[9.19396612,53.1982379],[9.19365614,53.19810293],[9.19360548,53.19808027],[9.1934005,53.19799728],[9.19335084,53.19797595],[9.19293088,53.19778831],[9.19288588,53.19776865],[9.19239094,53.19753272],[9.19234561,53.19751006],[9.19163067,53.19718045],[9.19158501,53.19715945],[9.19136937,53.19705348],[9.19132737,53.19703182],[9.19073478,53.19675523],[9.19069679,53.19673757],[9.19028319,53.19655996],[9.19024319,53.19654363],[9.19012389,53.19647833],[9.19008256,53.196458],[9.18965296,53.1962774],[9.18960663,53.19625774],[9.18908635,53.19601546],[9.18904135,53.19599346],[9.18885537,53.19591214],[9.18881204,53.19589314],[9.1883901,53.1956872],[9.1883481,53.19566687],[9.1877552,53.19539128],[9.18771921,53.19537395],[9.18761689,53.1953233],[9.18758623,53.1953073],[9.18753591,53.19527598],[9.18751292,53.19526132],[9.18734029,53.19517068],[9.18730563,53.19515302],[9.18681367,53.19491942],[9.18677034,53.19489776],[9.18645037,53.1947168],[9.18641371,53.19469614],[9.18630574,53.19464149],[9.18627308,53.19462583],[9.18609611,53.19451687],[9.18606178,53.19449688],[9.18594213,53.19443456],[9.18590013,53.19441423],[9.18565948,53.19430858],[9.18560782,53.19428525],[9.18550149,53.1942326],[9.18544583,53.19420494],[9.18499087,53.19403731],[9.18492754,53.19401265],[9.18474723,53.19393166],[9.18469124,53.193904],[9.18453325,53.19381702],[9.18448426,53.19378769],[9.18418096,53.19359572],[9.18413963,53.19356839],[9.18386734,53.19336509],[9.18382801,53.19333509],[9.1836637,53.1932211],[9.18362504,53.1931921],[9.18348706,53.19307612],[9.18345273,53.19304912],[9.18334542,53.1929738],[9.18330909,53.19294914],[9.18307645,53.19279983],[9.18304012,53.1927735],[9.18293247,53.19268918],[9.18289581,53.19266185],[9.18259552,53.19244522],[9.18256052,53.19241889],[9.18234723,53.19225224],[9.18230957,53.19222291],[9.1817783,53.19184232],[9.18173964,53.19181299],[9.181464,53.19158104],[9.18142634,53.19154705],[9.1812147,53.19137641],[9.18116837,53.19134142],[9.1806841,53.19099146],[9.18063444,53.19095513],[9.18005318,53.19052054],[9.18001085,53.19048888],[9.17983253,53.19036524],[9.17978987,53.19033591],[9.17957889,53.19017393],[9.17954589,53.1901466],[9.17910763,53.18982131],[9.17906563,53.18978998],[9.17837939,53.18925907],[9.17833506,53.18922507],[9.17767312,53.18873247],[9.17762646,53.18869748],[9.17734282,53.18850683],[9.17729416,53.18847717],[9.17700287,53.18831686],[9.17695954,53.1882932],[9.17678889,53.18820622],[9.17674256,53.18818623],[9.1766439,53.18815058],[9.1765909,53.18813525],[9.17643125,53.18809794],[9.17637826,53.18808661],[9.17617094,53.18804663],[9.17611828,53.18803797],[9.17574198,53.18799401],[9.17568865,53.18798835],[9.17519769,53.18794375],[9.17514403,53.18793776],[9.17499338,53.18791278],[9.17494272,53.18790579],[9.17449877,53.18785583],[9.17445211,53.18785083],[9.17405917,53.18779355],[9.17401818,53.18778622],[9.172906,53.18756967],[9.17286701,53.18756201],[9.17241708,53.18744974],[9.17238509,53.18744175],[9.1719488,53.18735449],[9.1719128,53.18734749],[9.17148819,53.18725354],[9.17145253,53.18724621],[9.1711126,53.18718224],[9.17107527,53.18717558],[9.16980277,53.18690704],[9.16976478,53.18689838],[9.16943349,53.18683674],[9.16939116,53.18682808],[9.16926851,53.18680977],[9.16922885,53.18680411],[9.16915386,53.18678479],[9.16911386,53.18677446],[9.16857694,53.18667018],[9.16853194,53.18666085],[9.16839662,53.18663886],[9.16835162,53.18663153],[9.16737038,53.18644298],[9.16731672,53.18643265],[9.16688877,53.1863307],[9.16683444,53.1863187],[9.1659012,53.18614675],[9.16585054,53.18613709],[9.16527128,53.18601482],[9.16522328,53.18600516],[9.16512563,53.18599084],[9.1650753,53.18598618],[9.16497331,53.18598352],[9.16492265,53.18598385],[9.16473268,53.18600217],[9.16468669,53.1860095],[9.16365512,53.18619838],[9.16360646,53.18620671],[9.16299352,53.18633365],[9.16294152,53.18634431],[9.16247889,53.18642961],[9.16242723,53.18643794],[9.16211293,53.1865009],[9.1620596,53.1865109],[9.1617923,53.18655254],[9.16173797,53.18656254],[9.16152966,53.18660986],[9.16147833,53.18662219],[9.16103439,53.18670814],[9.16098806,53.18671914],[9.16077675,53.18680112],[9.16073342,53.18681512],[9.16048678,53.18688109],[9.16043878,53.18689709],[9.15998081,53.18706803],[9.15993815,53.18708302],[9.15985416,53.18710867],[9.15981317,53.18712],[9.15952187,53.18719329],[9.15950521,53.18719795],[9.15944589,53.18722893],[9.15942489,53.18723826],[9.15918127,53.18733089],[9.15913894,53.18734788],[9.15878532,53.18750652],[9.15873733,53.18752618],[9.15863568,53.18756117],[9.15858368,53.18757816],[9.15832237,53.18765447],[9.15827037,53.18767013],[9.15792874,53.18779575],[9.15788208,53.18781408],[9.15783875,53.18783474],[9.15779809,53.18785674],[9.15760612,53.18797471],[9.15756679,53.18799904],[9.15745715,53.18807369],[9.15742182,53.18809869],[9.15732183,53.18817501],[9.15728783,53.18819901],[9.15714918,53.18827665],[9.15711319,53.18828998],[9.1570382,53.18830497],[9.15700154,53.1883063],[9.15683857,53.18829532],[9.15679057,53.18829466],[9.15650627,53.1883033],[9.15644361,53.18830463],[9.1561403,53.18833827],[9.15608497,53.18834027],[9.15592965,53.18832762],[9.15588065,53.18831529],[9.15583466,53.18829863],[9.155791,53.1882773],[9.15562435,53.18817066],[9.15558369,53.18814033],[9.15508107,53.18773739],[9.15503941,53.18770239],[9.15461078,53.18736912],[9.15456945,53.18733646],[9.15449213,53.18727014],[9.15445647,53.18723681],[9.15442747,53.18720348],[9.15440814,53.18716748],[9.15440214,53.18713082],[9.15440747,53.18709316],[9.15442347,53.1870565],[9.15444846,53.1870205],[9.15447879,53.18698584],[9.15451345,53.18695218],[9.15466543,53.1868272],[9.15470642,53.1867972],[9.15500705,53.18660124],[9.15504971,53.18657424],[9.155306,53.18642359],[9.15534733,53.18639959],[9.15547398,53.18633227],[9.15551464,53.18630961],[9.15569727,53.18619431],[9.1557286,53.18616998],[9.15575559,53.18614498],[9.15579425,53.18609066],[9.15580291,53.186062],[9.15579991,53.186034],[9.15578692,53.18600734],[9.15576559,53.18598268],[9.15573893,53.18595969],[9.15560761,53.18588038],[9.15557228,53.18586172],[9.15442376,53.18529055],[9.1543791,53.18526789],[9.15406447,53.18510461],[9.15401914,53.18508061],[9.15366917,53.18488833],[9.15362584,53.18486467],[9.15331786,53.18470637],[9.15327587,53.18468438],[9.15315488,53.18461539],[9.15311788,53.18459173],[9.15298557,53.18449141],[9.15295291,53.18447375],[9.15290625,53.18445842],[9.15289659,53.18445676],[9.15289127,53.18447908],[9.15288527,53.18449374],[9.15286928,53.18451673],[9.15286395,53.18452306],[9.15286395,53.18448873],[9.15284862,53.18446641],[9.15280529,53.18438241],[9.1527313,53.18436109],[9.15270231,53.18435376],[9.15257534,53.18430811],[9.15253968,53.18429545],[9.15250502,53.18427946],[9.15246869,53.1842628],[9.15234904,53.18422082],[9.15231038,53.18420616],[9.15215406,53.18413685],[9.15211373,53.18411719],[9.15181777,53.18396356],[9.15178577,53.18394657],[9.15147882,53.18379727],[9.15143716,53.18377661],[9.15114786,53.18362664],[9.15110653,53.18360498],[9.15080691,53.18346535],[9.15076325,53.18344436],[9.15048229,53.18329338],[9.15044196,53.18327272],[9.14997003,53.18305113],[9.1499277,53.18303047],[9.14972606,53.18292483],[9.1496854,53.18290417],[9.14938643,53.18275919],[9.14934443,53.18273886],[9.14909979,53.18260689],[9.14906046,53.1825859],[9.14889748,53.18251459],[9.14885848,53.18249593],[9.14849221,53.18230832],[9.14845455,53.18228932],[9.14776596,53.18194974],[9.14772997,53.18193174],[9.14759098,53.18185777],[9.14755465,53.18183911],[9.14744067,53.18178912],[9.14740167,53.18177146],[9.14720503,53.18166948],[9.14716303,53.18164815],[9.14694271,53.18154484],[9.14689905,53.18152351],[9.14664809,53.18139221],[9.14660643,53.18137122],[9.14631912,53.18123326],[9.14627879,53.18121327],[9.14601082,53.18107863],[9.14597316,53.18105864],[9.14576251,53.18093167],[9.14572718,53.18091301],[9.14546057,53.18079406],[9.14542458,53.1807774],[9.1452746,53.18070475],[9.14523627,53.18068642],[9.14512662,53.18062577],[9.14508796,53.18060677],[9.14476234,53.18047813],[9.14472168,53.18046347],[9.14451236,53.18040482],[9.14446837,53.18039549],[9.14418075,53.18035852],[9.14413276,53.18035519],[9.14393878,53.18034654],[9.14389145,53.18034454],[9.14356314,53.18034058],[9.14351814,53.18033858],[9.14313785,53.18030495],[9.14309019,53.18029962],[9.14286789,53.18025698],[9.14282556,53.18024965],[9.14274457,53.18022766],[9.14270358,53.180214],[9.14258492,53.18016702],[9.14254659,53.18015102],[9.14229329,53.1800194],[9.14225629,53.17999741],[9.1421373,53.17991876],[9.14209664,53.1798901],[9.14141771,53.17940118],[9.14138438,53.17937718],[9.14100642,53.1791159],[9.14097209,53.17909124],[9.14083577,53.1789876],[9.14080111,53.17896161],[9.14063479,53.17882029],[9.14060046,53.17878963],[9.1397299,53.17787577],[9.13969091,53.17783444],[9.13953894,53.17766545],[9.13950095,53.17762445],[9.13917168,53.17727716],[9.13913702,53.17724017],[9.13903971,53.17712719],[9.13900705,53.17708986],[9.1386901,53.17676757],[9.13865377,53.17673024],[9.13820283,53.17625231],[9.13817017,53.17621798],[9.13749963,53.17549375],[9.13747097,53.17546276],[9.13713402,53.17510347],[9.13710703,53.17507381],[9.13702072,53.17498949],[9.13699239,53.17496083],[9.13680176,53.17474354],[9.1367731,53.17471255],[9.13660545,53.17455924],[9.13656712,53.17452858],[9.1364038,53.17441427],[9.13636147,53.17438561],[9.13622448,53.1743053],[9.13617548,53.17427964],[9.13581685,53.17411833],[9.13576619,53.17409667],[9.13533257,53.17392471],[9.13528491,53.17390538],[9.13466299,53.17364243],[9.13460766,53.1736191],[9.13397707,53.17336348],[9.13392241,53.17334082],[9.13358611,53.17319653],[9.13352978,53.17317253],[9.13326748,53.17305189],[9.13321648,53.17302923],[9.13287185,53.17288027],[9.13282519,53.17286028],[9.13268588,53.17280729],[9.13264055,53.17278963],[9.1324999,53.17274364],[9.13245524,53.17272665],[9.13194963,53.17251137],[9.1319053,53.17249271],[9.13172699,53.17242274],[9.131681,53.17240441],[9.13115639,53.17218347],[9.13111273,53.17216348],[9.13087776,53.1720695],[9.1308301,53.17204984],[9.1305518,53.1719272],[9.13050314,53.17190687],[9.12974255,53.17159963],[9.12969522,53.17158063],[9.12934526,53.17145933],[9.12929693,53.17144234],[9.12871432,53.17126973],[9.12866499,53.1712554],[9.12821137,53.17111177],[9.12815971,53.17109511],[9.1279514,53.1710238],[9.12789807,53.17100714],[9.12708014,53.17076288],[9.12702581,53.17074655],[9.12672517,53.17065325],[9.12668017,53.17063892],[9.12637953,53.17053795],[9.12633687,53.17052429],[9.12620622,53.17048863],[9.12616356,53.1704763],[9.12584859,53.170379],[9.12580226,53.17036634],[9.12570427,53.17034868],[9.12565361,53.17034302],[9.12555962,53.17033969],[9.12551696,53.17034135],[9.12480771,53.1703946],[9.12476238,53.17039826],[9.12458273,53.17042023],[9.12453673,53.17042389],[9.12444674,53.17042621],[9.12440708,53.1704292],[9.12414912,53.17045916],[9.12410946,53.17046382],[9.12394549,53.1704718],[9.12390316,53.17047546],[9.12352322,53.17052708],[9.12347322,53.17053241],[9.1231246,53.17055338],[9.12307927,53.17055571],[9.12277231,53.17055968],[9.12272665,53.17056001],[9.12249367,53.17055604],[9.12244734,53.17055371],[9.12231569,53.17054306],[9.1222747,53.17053806],[9.12223404,53.17053173],[9.12219438,53.1705244],[9.12212238,53.17050374],[9.12208839,53.17049241],[9.12202173,53.17046775],[9.12199107,53.17045209],[9.12158048,53.17020052],[9.12155149,53.17018253],[9.1213362,53.17005822],[9.12130654,53.17003956],[9.12062931,53.16965733],[9.12059631,53.16964067],[9.12012207,53.16946706],[9.12008474,53.16945306],[9.11972011,53.16933576],[9.11967878,53.1693211],[9.11950946,53.16925312],[9.1194838,53.16924146],[9.11941815,53.16920248],[9.11939749,53.16918848],[9.11929351,53.16908353],[9.11927751,53.1690692],[9.11921686,53.16902854],[9.11919487,53.16901488],[9.11915654,53.16898289],[9.11913855,53.16896556],[9.11910356,53.16892724],[9.11908823,53.16890691],[9.11906059,53.16884525],[9.1190486,53.16882559],[9.11898761,53.16878027],[9.11896728,53.16876594],[9.11892563,53.16871629],[9.1189103,53.16869963],[9.11874234,53.16853633],[9.11872301,53.16851834],[9.11863903,53.16845736],[9.1184997,53.1683307],[9.1184374,53.16825273],[9.11842407,53.16823407],[9.1183141,53.16810677],[9.11830077,53.16808844],[9.11824746,53.16803746],[9.11823013,53.16801913],[9.11820147,53.16798147],[9.11818648,53.16796281],[9.11810483,53.16787283],[9.1180885,53.16785483],[9.11789421,53.16767353],[9.11787155,53.16765054],[9.11776091,53.16753123],[9.11773958,53.16750724],[9.11770059,53.16745658],[9.11767793,53.16743192],[9.11739531,53.16713895],[9.11736798,53.16710995],[9.11729133,53.1670213],[9.11726567,53.16699197],[9.11715102,53.16687765],[9.11712302,53.16684899],[9.11692272,53.16663036],[9.11689073,53.16659803],[9.11675642,53.16646938],[9.11671942,53.16643905],[9.11667943,53.16641006],[9.11663577,53.16638173],[9.11648512,53.16630007],[9.11642746,53.16627407],[9.11623747,53.16620341],[9.11617014,53.16618142],[9.11532853,53.16592949],[9.1152622,53.16591049],[9.11480123,53.1657612],[9.11474523,53.16574321],[9.11431594,53.16562825],[9.11425461,53.16561159],[9.11372164,53.16545931],[9.11366298,53.16544298],[9.11298737,53.16524272],[9.11292538,53.16522439],[9.11273739,53.16516374],[9.1126724,53.16514375],[9.11247241,53.16508909],[9.11240508,53.1650701],[9.11156413,53.16481652],[9.11150214,53.16479719],[9.11067555,53.16455825],[9.11060922,53.16453959],[9.11047257,53.1645036],[9.11040291,53.16448627],[9.11011859,53.16442162],[9.11004626,53.16440496],[9.10880568,53.16414005],[9.10873202,53.16412405],[9.10806508,53.16399075],[9.10799175,53.16397542],[9.10784476,53.1639431],[9.1077721,53.16392611],[9.10762777,53.16388779],[9.10755678,53.16386613],[9.10734812,53.16379215],[9.10727946,53.16376616],[9.10673617,53.1635452],[9.10666751,53.16351854],[9.10632953,53.1633969],[9.1062632,53.1633719],[9.10537794,53.16302963],[9.10530928,53.16300364],[9.10503331,53.16289499],[9.10496398,53.16286866],[9.10458734,53.16270802],[9.10452934,53.16268402],[9.10424002,53.16257071],[9.10418469,53.16254871],[9.10355009,53.16231711],[9.1034921,53.16230012],[9.10330245,53.16226314],[9.10323646,53.16225648],[9.10303813,53.16223917],[9.10297313,53.16223451],[9.10220918,53.16219358],[9.10214819,53.16218858],[9.10208786,53.16218225],[9.1020282,53.16217392],[9.10191321,53.16214726],[9.10186355,53.1621256],[9.10182222,53.16209661],[9.10179156,53.16206161],[9.10175257,53.16197995],[9.10173958,53.16193562],[9.10156266,53.1610894],[9.10154367,53.16104274],[9.10148302,53.16095209],[9.10144469,53.16090976],[9.10140069,53.16086977],[9.10135203,53.16083244],[9.10121271,53.16074112],[9.10119238,53.16071846],[9.10119072,53.1606988],[9.10121104,53.16066214],[9.10122204,53.16064248],[9.10124169,53.16055816],[9.10124535,53.1605355],[9.10126629,53.16020454],[9.10126995,53.16016188],[9.1012633,53.15989724],[9.1012613,53.15985425],[9.10126428,53.15955728],[9.10126461,53.15951362],[9.10125563,53.15933864],[9.10125363,53.15929498],[9.10125629,53.15925232],[9.10126795,53.15921066],[9.10129028,53.15916966],[9.10132427,53.159131],[9.1013706,53.15909667],[9.10142793,53.15906801],[9.10149292,53.15904268],[9.10163324,53.15899869],[9.10170623,53.15897703],[9.1021562,53.15885474],[9.10223053,53.15883474],[9.1024525,53.15877976],[9.10252683,53.15875977],[9.10297345,53.15862915],[9.10304878,53.15860749],[9.10349742,53.1584932],[9.10356842,53.15847187],[9.10363375,53.15844588],[9.10368874,53.15841422],[9.10372874,53.15837789],[9.10374874,53.15833856],[9.10374441,53.15829723],[9.10372608,53.15825424],[9.10366709,53.15816858],[9.10363443,53.15812558],[9.10342279,53.15788427],[9.10338713,53.15784461],[9.10327782,53.15772796],[9.10324016,53.15768963],[9.10319883,53.15765097],[9.1031575,53.15761197],[9.10284487,53.15729502],[9.10280321,53.15725302],[9.10258557,53.15704504],[9.10254057,53.15700438],[9.10217627,53.15669508],[9.10213061,53.15665642],[9.10058346,53.15540595],[9.10054813,53.15537862],[9.10029218,53.15515331],[9.10026019,53.15512632],[9.10001888,53.15493935],[9.09998555,53.15491435],[9.09931066,53.15436377],[9.099276,53.15433511],[9.09902404,53.15411347],[9.09899404,53.15408681],[9.09877174,53.15388085],[9.09874674,53.15385619],[9.09869975,53.15380686],[9.09867875,53.15378186],[9.0986081,53.15368387],[9.09859077,53.15366121],[9.09852013,53.15357923],[9.09850647,53.1535559],[9.09845015,53.15345493],[9.09843582,53.15342693],[9.09790532,53.15229418],[9.09789099,53.15226285],[9.09779469,53.15208287],[9.09778069,53.15205421],[9.0976994,53.15186524],[9.09768874,53.15184158],[9.09742718,53.15131003],[9.09741585,53.15128837],[9.09737887,53.15119739],[9.09736921,53.15117373],[9.09724494,53.1509198],[9.09723361,53.15089714],[9.09720662,53.15082616],[9.09719529,53.15080217],[9.09711866,53.15066054],[9.097107,53.15063821],[9.09707269,53.15054922],[9.0970627,53.15052756],[9.09698741,53.15037559],[9.09697575,53.15035193],[9.09694776,53.15030561],[9.0969351,53.15028328],[9.09685815,53.15009766],[9.09684749,53.15007333],[9.09682117,53.14999501],[9.09681518,53.14996768],[9.09680886,53.14991235],[9.09680786,53.14988469],[9.09681584,53.1498017],[9.09682017,53.1497737],[9.09693207,53.14928279],[9.0969364,53.14926246],[9.09703501,53.14888518],[9.09704167,53.14885785],[9.09705964,53.14874953],[9.09706363,53.14872453],[9.09707963,53.14867654],[9.09708629,53.14865388],[9.09713758,53.14841361],[9.09714424,53.14838095],[9.09717489,53.14820765],[9.09718022,53.14817332],[9.09719619,53.14793903],[9.09719819,53.1479077],[9.09720985,53.14784605],[9.09721518,53.14781506],[9.09725579,53.14749209],[9.09726012,53.1474601],[9.09729906,53.14710016],[9.09730172,53.14707016],[9.09732004,53.14698151],[9.09732404,53.14695218],[9.09731274,53.14663691],[9.09730608,53.14660891],[9.0972841,53.14655559],[9.09726977,53.14652893],[9.09718913,53.14643062],[9.09716413,53.14640929],[9.09704448,53.14633797],[9.09701182,53.14632431],[9.09687685,53.14629401],[9.09686719,53.14629268],[9.09687419,53.14624502],[9.0968682,53.14622602],[9.0968542,53.14620436],[9.09677254,53.14609304],[9.09674921,53.14606071],[9.09665623,53.14591774],[9.0966309,53.14588075],[9.09621263,53.14527917],[9.0961863,53.14524051],[9.09601667,53.14501421],[9.09598934,53.14497555],[9.09596601,53.14493689],[9.09591803,53.14482257],[9.0958987,53.14478657],[9.09565442,53.14445528],[9.09562743,53.14442395],[9.09559377,53.14439662],[9.09555544,53.14437429],[9.09551311,53.14435763],[9.09546845,53.14434864],[9.09542445,53.14434631],[9.09538246,53.14434598],[9.09534346,53.14434798],[9.09503751,53.14437359],[9.09499852,53.14437725],[9.09492053,53.14438824],[9.0948822,53.14439524],[9.09484954,53.14440657],[9.09482555,53.1444229],[9.09481556,53.14444189],[9.09481789,53.14446355],[9.0948602,53.1445572],[9.09487219,53.14458186],[9.09496515,53.14471718],[9.09497948,53.14473784],[9.0950288,53.14479849],[9.0950428,53.14481949],[9.09506878,53.14487914],[9.09507778,53.1448998],[9.09513642,53.14500544],[9.09514841,53.14502743],[9.0951644,53.14507242],[9.09516739,53.14509308],[9.09516341,53.14514838],[9.09503508,53.14520404],[9.09508007,53.14517505],[9.0951054,53.14515572],[9.09512773,53.14513306],[9.09514506,53.14510773],[9.09515439,53.1450804],[9.09515505,53.14505107],[9.09514772,53.14502141],[9.09513506,53.14499242],[9.09503009,53.14479679],[9.09501276,53.14476713],[9.09487046,53.14455649],[9.0948488,53.14452783],[9.09479814,53.14447551],[9.09476748,53.14445218],[9.09473148,53.14443219],[9.09469015,53.14441886],[9.09464415,53.1444122],[9.09449451,53.14441253],[9.09444318,53.14441519],[9.09315826,53.14451841],[9.0930936,53.1445234],[9.0927703,53.14453904],[9.09270597,53.14454303],[9.09234001,53.144578],[9.09228002,53.144583],[9.09119645,53.14464655],[9.09113946,53.14464921],[9.09021721,53.14471546],[9.09016455,53.14471912],[9.08946095,53.14477806],[9.08940595,53.14478239],[9.08838041,53.14485427],[9.08834242,53.14485793],[9.08816912,53.14485825],[9.08813446,53.14485891],[9.08793583,53.14485194],[9.08790583,53.14485128],[9.08776918,53.14486358],[9.08774385,53.14486424],[9.08759655,53.14486258],[9.08757555,53.14486225],[9.08755156,53.14485792],[9.0875299,53.14484893],[9.0875129,53.14483594],[9.08749924,53.14482128],[9.08744594,53.14475498],[9.08744128,53.14475098],[9.08745261,53.14470732],[9.0874013,53.14463767],[9.08737364,53.14460201],[9.08737563,53.14459802],[9.0873743,53.14459169],[9.08735931,53.14456503],[9.08734998,53.14454637],[9.08730033,53.14447572],[9.087281,53.14444939],[9.08697544,53.1439528],[9.08695745,53.1439238],[9.08687848,53.14378115],[9.08686282,53.14375282],[9.0867322,53.1435342],[9.08671754,53.14350854],[9.08664423,53.14336657],[9.08663357,53.14334324],[9.08652096,53.14315462],[9.08650897,53.14313229],[9.08642503,53.14289934],[9.0864167,53.14287735],[9.08636872,53.1427907],[9.08635639,53.14276937],[9.08632741,53.14269939],[9.08631675,53.1426764],[9.08603686,53.14216084],[9.0860232,53.14213618],[9.08595756,53.14200887],[9.0859439,53.14198354],[9.08590126,53.14188455],[9.08588927,53.14186089],[9.08584262,53.14179257],[9.08582963,53.14176857],[9.08579865,53.14169426],[9.08579066,53.14167093],[9.08576233,53.14162694],[9.08574633,53.14160494],[9.08570002,53.14150863],[9.08568803,53.1414833],[9.08564038,53.14140764],[9.08562605,53.14138098],[9.08536877,53.14087073],[9.08535444,53.1408434],[9.08527346,53.14070642],[9.08525746,53.14067942],[9.08514351,53.14043446],[9.08513085,53.1404078],[9.08503123,53.14022684],[9.08501723,53.14020118],[9.08495659,53.14007687],[9.0849446,53.14005321],[9.08491227,53.14000455],[9.08489661,53.13997855],[9.08487162,53.13992489],[9.08485829,53.13989856],[9.08473132,53.13966661],[9.08471399,53.13963328],[9.08461136,53.13942298],[9.08459503,53.13938899],[9.08450339,53.13921502],[9.0844854,53.13917869],[9.08439976,53.13899473],[9.08438143,53.13895807],[9.08393858,53.13812855],[9.08392325,53.13809922],[9.08378129,53.13779828],[9.08376696,53.13776762],[9.08363934,53.13752766],[9.08362501,53.1375],[9.08358702,53.13741502],[9.08357236,53.13738569],[9.0834204,53.13710305],[9.08340507,53.13707439],[9.08336775,53.13698374],[9.08335442,53.13695275],[9.08332043,53.13689376],[9.08330444,53.13686343],[9.08326379,53.13677312],[9.08324979,53.13674312],[9.08320314,53.1366538],[9.08318648,53.13662447],[9.08300953,53.13626354],[9.08299654,53.13623288],[9.08297621,53.13616923],[9.08296721,53.13613623],[9.08295022,53.13603191],[9.08294756,53.13599525],[9.08297087,53.13580961],[9.08297687,53.13577495],[9.08303784,53.13556298],[9.0830495,53.13552599],[9.08324908,53.13495606],[9.08326174,53.1349224],[9.08338202,53.13455379],[9.08339135,53.13452579],[9.08344166,53.13441582],[9.08345465,53.13438483],[9.08357325,53.13405287],[9.08358591,53.13402054],[9.0836039,53.13395422],[9.08360689,53.13392056],[9.08360556,53.1338879],[9.08359723,53.13385757],[9.08358123,53.13383057],[9.08355557,53.13380858],[9.08352191,53.13379325],[9.08348392,53.13378592],[9.08305729,53.13379455],[9.08301129,53.13379422],[9.08273065,53.13376593],[9.08268466,53.1337616],[9.08228571,53.13373331],[9.08224005,53.13373098],[9.08199841,53.13370901],[9.08196508,53.13370502],[9.08193875,53.13369903],[9.08192075,53.13369037],[9.08189443,53.13365871],[9.08187843,53.13364072],[9.08182112,53.13360641],[9.08181879,53.13360475],[9.08163215,53.13358611],[9.08158615,53.13358112],[9.08133252,53.13356615],[9.08128052,53.13356182],[9.08087089,53.13351552],[9.08082156,53.13350886],[9.08048194,53.13344622],[9.08043428,53.13343556],[9.08024729,53.13338891],[9.08020263,53.13337625],[9.08007731,53.13333393],[9.08004065,53.13331927],[9.07993899,53.13326695],[9.07990633,53.13324762],[9.07962372,53.13306968],[9.07959572,53.13305235],[9.07952374,53.13299503],[9.07949774,53.1329767],[9.07936277,53.13288473],[9.07933744,53.1328664],[9.07925246,53.13281509],[9.0792218,53.13279676],[9.07914049,53.13273344],[9.07911249,53.13271378],[9.07901684,53.13267214],[9.07898384,53.13265781],[9.07885353,53.13258917],[9.07881687,53.13257584],[9.07863955,53.1325382],[9.07859222,53.13252621],[9.0785019,53.13249421],[9.07846024,53.13247222],[9.07803129,53.13223227],[9.07798929,53.13220894],[9.07781498,53.13211663],[9.07777065,53.13209397],[9.07764467,53.13202065],[9.07760067,53.13199532],[9.07716471,53.13176004],[9.07711405,53.13173305],[9.07675641,53.13152941],[9.07670041,53.13149675],[9.07639076,53.13133811],[9.0763261,53.13130412],[9.07607379,53.13115714],[9.07600879,53.13112015],[9.07532619,53.13074421],[9.07525686,53.13070555],[9.07345799,53.12971735],[9.07339599,53.12968236],[9.07301369,53.1294794],[9.07295069,53.12944507],[9.07277071,53.12933175],[9.07270905,53.12929309],[9.07251007,53.12917877],[9.07244208,53.12913977],[9.07103121,53.12835953],[9.07095821,53.1283182],[9.07080822,53.12824555],[9.07073223,53.12821389],[9.07050324,53.1281329],[9.07043658,53.12810224],[9.07037525,53.12806958],[9.07031792,53.12803358],[9.07015327,53.12792293],[9.07009661,53.12788727],[9.06991729,53.12778262],[9.06985296,53.12774996],[9.06953363,53.12759932],[9.06947164,53.12756966],[9.06905868,53.12739003],[9.06900135,53.1273667],[9.06870504,53.12726072],[9.06864638,53.12723973],[9.06768912,53.12693916],[9.06768546,53.12693817],[9.0676708,53.12691684],[9.06766781,53.12690284],[9.06767147,53.12688718],[9.06773212,53.1268412],[9.06774411,53.12682187],[9.06774777,53.12680321],[9.06774644,53.12678622],[9.06772978,53.12675889],[9.06771679,53.12674923],[9.06732012,53.12667557],[9.06731879,53.12667491],[9.0672675,53.12667024],[9.06724384,53.12666424],[9.06652493,53.12644333],[9.06646927,53.126427],[9.06592164,53.12625005],[9.06586598,53.12623206],[9.06569233,53.1261824],[9.065635,53.12616507],[9.06513572,53.12600611],[9.06508773,53.12598978],[9.06494741,53.12595013],[9.06490241,53.12593613],[9.06440579,53.12577285],[9.06435313,53.12575586],[9.06415114,53.12569555],[9.06410415,53.12568022],[9.0639305,53.12561858],[9.06389317,53.12560292],[9.06377819,53.1255246],[9.0637482,53.12550494],[9.0634206,53.12531433],[9.06338661,53.125295],[9.06312597,53.1251217],[9.06309331,53.1251027],[9.06288767,53.12498841],[9.06285101,53.12496808],[9.06263303,53.12483777],[9.06259737,53.12481711],[9.06248505,53.12476146],[9.06244939,53.1247418],[9.06223643,53.12460783],[9.06219777,53.12458517],[9.06190614,53.12442753],[9.06186215,53.1244042],[9.06161185,53.12428122],[9.06157452,53.12426056],[9.06118358,53.12400496],[9.06113858,53.1239793],[9.0609356,53.12387932],[9.06088527,53.12385332],[9.06073828,53.123771],[9.06069062,53.12374234],[9.0605983,53.12368435],[9.0605533,53.12365502],[9.06042532,53.12356437],[9.06038699,53.12353237],[9.06028068,53.12343039],[9.06024702,53.12339439],[9.06015837,53.12328241],[9.06013404,53.12324475],[9.06011238,53.12320476],[9.06009305,53.12316477],[9.06002241,53.12300346],[9.06000542,53.12296313],[9.05985545,53.1226605],[9.05983779,53.12262317],[9.05976548,53.12248919],[9.05974982,53.12246053],[9.05966384,53.12232823],[9.05964684,53.12229924],[9.05960286,53.12220859],[9.05958753,53.12217626],[9.0595732,53.1221436],[9.0595622,53.12210994],[9.05954288,53.12199995],[9.05953022,53.12195862],[9.05949389,53.12187263],[9.05947223,53.12182997],[9.05937391,53.12166765],[9.05934558,53.12163065],[9.05922561,53.12151767],[9.05920395,53.12149834],[9.0591403,53.12141769],[9.05912464,53.1213947],[9.05892803,53.12105109],[9.0589107,53.12102143],[9.05877107,53.12076481],[9.05875174,53.12073015],[9.05870542,53.12065716],[9.05868176,53.12062017],[9.05859878,53.12046819],[9.05857845,53.12043086],[9.05856245,53.12039387],[9.05855545,53.12035621],[9.0585621,53.12027789],[9.05856177,53.12023756],[9.05855344,53.1201979],[9.05853811,53.12015991],[9.05849645,53.12009092],[9.05847512,53.12005926],[9.05835316,53.11988629],[9.05833583,53.11985996],[9.0580909,53.11944637],[9.05807057,53.11941638],[9.05804524,53.11938738],[9.05801658,53.11936105],[9.05791527,53.11927374],[9.05789794,53.11924874],[9.05785763,53.11917009],[9.0578433,53.1191441],[9.05779665,53.11907011],[9.05778265,53.11904478],[9.05777232,53.11901979],[9.05776532,53.11899446],[9.05775399,53.11891715],[9.05774166,53.11889316],[9.057719,53.11887183],[9.05768934,53.1188545],[9.0575837,53.11880319],[9.05757437,53.11879753],[9.05749172,53.11877354],[9.05745906,53.11876221],[9.0574264,53.11874422],[9.05739307,53.11872122],[9.05736208,53.11869356],[9.05733242,53.1186629],[9.0570128,53.11828564],[9.05698514,53.11825098],[9.05688417,53.11810466],[9.05685784,53.11806833],[9.05648958,53.11758142],[9.05646458,53.11754709],[9.05627495,53.1172718],[9.05625062,53.11723814],[9.05610598,53.11704784],[9.05608365,53.11701718],[9.05605632,53.11698852],[9.05602066,53.11696619],[9.05597667,53.11695053],[9.05592534,53.11694187],[9.05581202,53.11693488],[9.05574936,53.11693322],[9.05483077,53.11695215],[9.05477011,53.11695215],[9.05364554,53.11694353],[9.05359021,53.11694253],[9.05307792,53.11694418],[9.05301826,53.11694418],[9.05205264,53.11693524],[9.05198464,53.11693458],[9.05144603,53.11693558],[9.05137537,53.11693558],[9.05063676,53.11692163],[9.05057376,53.1169213],[9.05021712,53.11692894],[9.05015979,53.1169296],[9.04895389,53.11692295],[9.0488939,53.11692229],[9.04797997,53.11692927],[9.04792331,53.11692927],[9.04740202,53.11692363],[9.04734569,53.1169213],[9.04710505,53.11689332],[9.04704172,53.11689232],[9.04677808,53.11689797],[9.04671075,53.1168983],[9.04509487,53.1169003],[9.04502887,53.11689997],[9.04452457,53.11691493],[9.04446391,53.11691526],[9.04392863,53.11691196],[9.0438763,53.11691229],[9.04360598,53.11689731],[9.04354832,53.11689598],[9.04296469,53.116894],[9.0429067,53.11689334],[9.04272771,53.11689932],[9.04266572,53.11690065],[9.04212376,53.11688935],[9.04206476,53.11688869],[9.04147382,53.11689698],[9.04141616,53.11689764],[9.04112953,53.11690761],[9.04107187,53.11690761],[9.04010861,53.11690397],[9.04004995,53.11690331],[9.03962866,53.11688868],[9.03956567,53.11688802],[9.0391667,53.11689069],[9.03911537,53.11689135],[9.03809979,53.11688206],[9.03804146,53.1168814],[9.03730786,53.11689401],[9.03724887,53.11689467],[9.03638294,53.11688141],[9.03632194,53.11688108],[9.03580399,53.11688638],[9.03574866,53.11688704],[9.0351507,53.11688371],[9.03509104,53.11688305],[9.03486172,53.11688803],[9.03480439,53.11688803],[9.03436543,53.1168724],[9.0343101,53.1168724],[9.03390313,53.11687571],[9.0338508,53.11687637],[9.03356517,53.11688634],[9.03351951,53.11688867],[9.03324687,53.11691465],[9.03320121,53.11691965],[9.03306988,53.11694097],[9.03302689,53.11694863],[9.03249596,53.11705658],[9.03244096,53.11706824],[9.032018,53.1171702],[9.03196367,53.11718153],[9.0316807,53.11723552],[9.03162337,53.11724685],[9.03119608,53.11733682],[9.03114475,53.11734715],[9.03109309,53.11735648],[9.03104076,53.11736548],[9.03087878,53.11738447],[9.03082345,53.1173888],[9.03071446,53.11739512],[9.03065913,53.11739612],[9.03037115,53.11739114],[9.03031349,53.11739014],[9.03014217,53.11737916],[9.03008584,53.11737483],[9.02953389,53.11735288],[9.02947923,53.11735055],[9.02910725,53.11735188],[9.02905726,53.11735155],[9.02852031,53.11732459],[9.02846732,53.11732226],[9.02824835,53.11732592],[9.02819336,53.11732791],[9.02762741,53.11736317],[9.02757375,53.11736683],[9.02627951,53.11746906],[9.02621285,53.11747372],[9.02594886,53.1174857],[9.0258832,53.11748903],[9.02524191,53.11753931],[9.02518292,53.11754297],[9.02472231,53.11756591],[9.02467798,53.11756824],[9.02413172,53.11761485],[9.02407839,53.11761918],[9.02363075,53.11764979],[9.02358042,53.11765378],[9.02311978,53.11770074],[9.02306312,53.11770507],[9.02249083,53.11773534],[9.0224345,53.11773734],[9.02196521,53.11773966],[9.02190455,53.11774165],[9.02160524,53.11776496],[9.02154525,53.11776829],[9.02110628,53.11778525],[9.02103895,53.11778924],[9.02054765,53.11783021],[9.02047532,53.11783821],[9.02004436,53.11790084],[9.01997236,53.11791283],[9.01874946,53.11815675],[9.01868247,53.11817141],[9.01848182,53.11821939],[9.01841583,53.11823805],[9.01829084,53.11828437],[9.01823618,53.1183127],[9.01818652,53.11834403],[9.01814186,53.11837769],[9.01806287,53.11845001],[9.01802587,53.11848734],[9.01746663,53.11909127],[9.01743397,53.11912727],[9.01708368,53.11949088],[9.01705102,53.11952288],[9.0169427,53.11961553],[9.01690037,53.11964386],[9.01685238,53.11966819],[9.01674039,53.11970351],[9.01667973,53.1197125],[9.01655207,53.11971715],[9.01648874,53.11971416],[9.01581879,53.11964156],[9.01575546,53.11963557],[9.01487052,53.1195613],[9.01480986,53.11955664],[9.01433056,53.11952402],[9.01427123,53.11952036],[9.01393193,53.11950339],[9.01387793,53.11950006],[9.01314467,53.11944548],[9.01308634,53.11944182],[9.0127897,53.11943284],[9.01273071,53.11943218],[9.01242307,53.1194345],[9.01235808,53.11943516],[9.01202943,53.11944614],[9.01196277,53.11944814],[9.0110755,53.11948274],[9.0110055,53.1194854],[9.01065653,53.11950538],[9.01058287,53.11950837],[9.01005592,53.11952201],[9.00997993,53.11952367],[9.00795476,53.11961851],[9.0078771,53.1196225],[9.00756811,53.11963115],[9.00749212,53.11963315],[9.00719714,53.11964947],[9.00712048,53.11965346],[9.00675383,53.11966077],[9.00668017,53.11966276],[9.00587091,53.11969503],[9.00579458,53.11969669],[9.00511664,53.11973131],[9.00504065,53.1197353],[9.00443604,53.11975626],[9.00436271,53.11975892],[9.00414873,53.11977091],[9.0040794,53.1197729],[9.00366077,53.11977256],[9.00359144,53.1197699],[9.00278585,53.11971496],[9.00272085,53.11970996],[9.0025222,53.1197073],[9.00245587,53.11971163],[9.00225889,53.11973529],[9.00219423,53.11974562],[9.00112632,53.11994952],[9.00106599,53.11996152],[9.00025474,53.12010047],[9.00019641,53.12011046],[8.99982644,53.12018209],[8.99977478,53.12019108],[8.99956679,53.12021673],[8.99951413,53.12022539],[8.99920883,53.1203027],[8.99915784,53.12031403],[8.99886188,53.120372],[8.99881589,53.12038066],[8.99830595,53.12046792],[8.99826296,53.12047558],[8.99811863,53.1205049],[8.99806597,53.12051456],[8.99784766,53.1205412],[8.997794,53.12054953],[8.99724037,53.12064549],[8.99718504,53.12065482],[8.99688374,53.12069211],[8.99684041,53.12069944],[8.99651379,53.12078407],[8.99647513,53.12079207],[8.99599518,53.12086968],[8.99594618,53.12087868],[8.9954319,53.12098898],[8.99537691,53.12099964],[8.99508761,53.12104528],[8.99502962,53.12105394],[8.99447201,53.12115189],[8.99441868,53.12116055],[8.9938734,53.12126251],[8.99381707,53.12127251],[8.9930628,53.12139177],[8.99300547,53.12140043],[8.99289048,53.12140443],[8.99283515,53.1213961],[8.99278682,53.12137911],[8.99274716,53.12135345],[8.99271783,53.12132212],[8.99267851,53.1212498],[8.99266418,53.12121014],[8.99259222,53.12096017],[8.99257989,53.12091884],[8.99252591,53.12075653],[8.99251325,53.12071654],[8.99239697,53.12030527],[8.99238664,53.12026994],[8.99227068,53.11991999],[8.99226035,53.11988533],[8.99222437,53.11975135],[8.99221571,53.11971902],[8.99219573,53.11962204],[8.99218774,53.11959005],[8.99205114,53.11916811],[8.99204048,53.11913645],[8.99200651,53.11899847],[8.99200051,53.11897514],[8.9919452,53.11878717],[8.99193687,53.11875651],[8.99187657,53.11859921],[8.99186591,53.11856588],[8.9918346,53.11842091],[8.99182327,53.11838092],[8.99167298,53.11798896],[8.99165898,53.11794963],[8.99148239,53.11739637],[8.99146939,53.11736104],[8.99145539,53.11732471],[8.99143806,53.11728838],[8.99141606,53.11725338],[8.99138973,53.11721905],[8.9913584,53.11718572],[8.99132274,53.11715439],[8.99120743,53.11706673],[8.9911671,53.11703907],[8.99100579,53.11693442],[8.99096746,53.11691042],[8.99061918,53.11669815],[8.99058385,53.11667749],[8.98993562,53.11625789],[8.98989996,53.11623423],[8.98966733,53.11609028],[8.98963567,53.11607062],[8.98952668,53.11598864],[8.98949868,53.11596831],[8.98934803,53.11586833],[8.9893177,53.115848],[8.98897642,53.11563571],[8.98894109,53.11561405],[8.98826987,53.11518415],[8.98823421,53.11516116],[8.98751063,53.11472393],[8.9874663,53.11469627],[8.98730032,53.11457929],[8.98725832,53.11454929],[8.98691104,53.11432232],[8.98686738,53.11429399],[8.98608879,53.11383142],[8.98604679,53.11380609],[8.98520524,53.11327521],[8.98518524,53.11326522],[8.98517625,53.11325756],[8.98518358,53.11323424],[8.98518657,53.11323125],[8.98513758,53.11321192],[8.98489362,53.11308396],[8.98485529,53.1130613],[8.98457434,53.11285601],[8.98454401,53.11283568],[8.98441304,53.11275637],[8.98437971,53.11273638],[8.98425273,53.11265206],[8.98421773,53.11263006],[8.98414407,53.11259074],[8.98410941,53.11257108],[8.98375845,53.11234013],[8.98372212,53.11231547],[8.98353082,53.11219583],[8.98349549,53.11217317],[8.98336951,53.11207853],[8.98333818,53.1120552],[8.98317787,53.11195455],[8.98315154,53.11193689],[8.98308255,53.11188257],[8.98305722,53.11186491],[8.98299956,53.11183259],[8.98297157,53.11181626],[8.98289225,53.11176061],[8.98286126,53.11174095],[8.9826153,53.11160364],[8.9825803,53.11158231],[8.98251398,53.11153765],[8.98248265,53.11151466],[8.982365,53.11142101],[8.98233334,53.11140002],[8.98217037,53.11130704],[8.98213871,53.11128971],[8.98203206,53.11123807],[8.98199373,53.11122008],[8.98187675,53.11117143],[8.98183842,53.1111571],[8.98156911,53.11106212],[8.98153445,53.11104946],[8.98131847,53.11098382],[8.98128281,53.11097249],[8.98105651,53.11088753],[8.98102318,53.11087487],[8.98076255,53.11079057],[8.98071522,53.11077458],[8.98054724,53.11070293],[8.98050758,53.1106866],[8.98006596,53.11053231],[8.9800263,53.11051831],[8.97987266,53.11045766],[8.979834,53.11044366],[8.97951938,53.11033603],[8.97948072,53.11032203],[8.97931607,53.11027439],[8.97927641,53.11026039],[8.97906078,53.11017142],[8.97902312,53.11015609],[8.97875615,53.11005712],[8.97870949,53.11003979],[8.97832254,53.10990451],[8.97827554,53.10988785],[8.97797524,53.10977389],[8.97793358,53.1097649],[8.97785025,53.10976424],[8.97781092,53.1097729],[8.9777076,53.10981655],[8.97767427,53.10983354],[8.97674511,53.11042441],[8.97672178,53.11043974],[8.97669979,53.1104534],[8.97668046,53.1104624],[8.9766608,53.11046672],[8.97665947,53.11046573],[8.9767631,53.11040743],[8.97679709,53.1103881],[8.97731601,53.11007514],[8.97735367,53.11005281],[8.97764761,53.10985085],[8.9776786,53.10983086],[8.97778324,53.1097772],[8.9778219,53.10976387],[8.97786256,53.10975688],[8.97790422,53.10975655],[8.97803887,53.10978687],[8.97808653,53.10980053],[8.97832285,53.10988351],[8.97836851,53.1099005],[8.97857681,53.10998614],[8.97860147,53.11000614],[8.9786108,53.11002813],[8.97860447,53.11004846],[8.97856281,53.11008112],[8.97853915,53.11009212],[8.9783352,53.11015739],[8.97832054,53.11016139],[8.97824857,53.11017836],[8.97823524,53.11018069],[8.97820493,53.11017969],[8.9782036,53.11017936],[8.97838259,53.11014803],[8.97855787,53.11008806],[8.97857587,53.11007773],[8.97860052,53.11005541],[8.97860418,53.11004342],[8.97860252,53.11003109],[8.97859719,53.1100191],[8.97857121,53.10999144],[8.97856688,53.10998711],[8.97819559,53.10985782],[8.97815526,53.10984449],[8.97791997,53.10975686],[8.97789531,53.10974853],[8.97787131,53.10973954],[8.97784798,53.10973088],[8.97780866,53.1097059],[8.97780666,53.1097019],[8.97790198,53.10968458],[8.97793664,53.10967058],[8.9782066,53.10948961],[8.9782506,53.10946228],[8.97857824,53.10926898],[8.97862557,53.10924065],[8.97927718,53.1088314],[8.97932151,53.10880407],[8.98049169,53.10809886],[8.98053302,53.10807386],[8.98078532,53.10791289],[8.98081265,53.10789289],[8.98082998,53.10787356],[8.98083598,53.1078559],[8.98081865,53.10782625],[8.98080366,53.10781892],[8.98078766,53.10781692],[8.98077166,53.10781958],[8.980749,53.10783024],[8.98074234,53.10783323],[8.98073534,53.1078399],[8.980774,53.10784056],[8.98075934,53.10784522],[8.97857535,53.10927855],[8.97854536,53.10929954],[8.97825039,53.10947084],[8.97821739,53.1094915],[8.9779991,53.10964814],[8.97796944,53.10966947],[8.97790045,53.10969913],[8.97786479,53.10970613],[8.97782946,53.10970746],[8.9777928,53.1097038],[8.97767582,53.10967315],[8.97763416,53.10965915],[8.97714321,53.10945686],[8.97709655,53.10943786],[8.97691557,53.10936855],[8.97687258,53.10935222],[8.97669127,53.10930091],[8.97664528,53.10928625],[8.97628766,53.10916263],[8.97623866,53.10914497],[8.97608668,53.10909766],[8.97603802,53.109081],[8.97462081,53.10854784],[8.97456315,53.10852651],[8.9740802,53.10835921],[8.9740262,53.10833955],[8.97372456,53.10822059],[8.9736809,53.1082036],[8.97321328,53.10802963],[8.97315695,53.10800797],[8.97298997,53.10793933],[8.97293464,53.10791667],[8.97261867,53.10779637],[8.97256934,53.10777737],[8.97238169,53.10769772],[8.9723357,53.10767939],[8.97196842,53.10754145],[8.97192342,53.10752512],[8.97170778,53.10743848],[8.97166345,53.10742182],[8.97153313,53.1073615],[8.9714878,53.10734251],[8.97138881,53.10731318],[8.97133548,53.10730552],[8.97128148,53.10730486],[8.97123149,53.10731352],[8.97118649,53.10732952],[8.97114083,53.10734985],[8.9703646,53.10773944],[8.97031894,53.10776077],[8.97014564,53.10785242],[8.97010231,53.10787408],[8.97001799,53.10792007],[8.969978,53.10794406],[8.96983102,53.10804471],[8.96979236,53.10806804],[8.96922275,53.108401],[8.96918142,53.10842533],[8.96897578,53.1085453],[8.96893445,53.10856863],[8.96860982,53.10874492],[8.96856982,53.10876491],[8.96768727,53.10917381],[8.96765094,53.10919114],[8.9674133,53.10929209],[8.9673733,53.10930975],[8.96664539,53.10964433],[8.9665924,53.10966866],[8.96612712,53.10987195],[8.96607746,53.10989228],[8.96581349,53.10998726],[8.96575716,53.11000425],[8.96552152,53.11005856],[8.96546019,53.11006956],[8.96533253,53.11008722],[8.96526653,53.11009488],[8.96425759,53.11017413],[8.96418926,53.11018046],[8.96405293,53.11019912],[8.9639876,53.11021245],[8.96380495,53.1102671],[8.96374229,53.1102801],[8.96367729,53.11028409],[8.96361163,53.1102781],[8.9634843,53.11024611],[8.96342131,53.11022478],[8.96335798,53.11020212],[8.96329532,53.11017712],[8.96304867,53.11006281],[8.96298567,53.11003415],[8.96273303,53.10992716],[8.96266903,53.10990283],[8.96248771,53.10983951],[8.96243371,53.10982018],[8.96234139,53.10978253],[8.96229739,53.10976554],[8.96211275,53.10970756],[8.96207042,53.10969523],[8.96194811,53.10966658],[8.96193878,53.10966525],[8.96190012,53.10963292],[8.96187646,53.10962226],[8.96172948,53.10958261],[8.96168182,53.10957161],[8.96138384,53.10951697],[8.96131284,53.10950531],[8.96078556,53.10943167],[8.96071323,53.10942034],[8.95958564,53.10923242],[8.95952298,53.10922243],[8.95801907,53.10899857],[8.95795141,53.10898858],[8.95748444,53.10890994],[8.95741878,53.10889794],[8.95709414,53.1088483],[8.95703581,53.1088383],[8.95677551,53.10880866],[8.95673218,53.108806],[8.95665686,53.108805],[8.95663287,53.10880434],[8.95662121,53.10880667],[8.95661223,53.10881731],[8.9565749,53.10884864],[8.9565619,53.10883665],[8.95655057,53.10881732],[8.95654324,53.10879232],[8.95653724,53.10876366],[8.95649996,53.10842572],[8.95649597,53.10839306],[8.95648466,53.10810244],[8.956483,53.10807011],[8.95645036,53.10787215],[8.95644503,53.10783816],[8.95642672,53.10766352],[8.95642339,53.10762886],[8.95642106,53.1075942],[8.9564194,53.10755987],[8.95642538,53.10742755],[8.95642604,53.10739522],[8.95641872,53.10733423],[8.95639939,53.1073089],[8.9563684,53.10728891],[8.95632474,53.10727625],[8.95627308,53.10727059],[8.95621742,53.10726859],[8.95615876,53.10727059],[8.95592578,53.10728724],[8.95587045,53.1072919],[8.95560448,53.1073232],[8.95555015,53.1073312],[8.9554405,53.10735319],[8.95538584,53.10736519],[8.95521852,53.10740851],[8.95516252,53.10742117],[8.95498454,53.10744749],[8.95492321,53.10745048],[8.95473955,53.1074405],[8.95467789,53.10743184],[8.95461956,53.10741784],[8.9545649,53.10739951],[8.95446424,53.10735452],[8.95441825,53.10732886],[8.95433059,53.10727221],[8.95428793,53.10724221],[8.95347702,53.10664698],[8.95342969,53.10661298],[8.9529464,53.1062747],[8.95288974,53.10623704],[8.95254478,53.10602007],[8.95248712,53.10598374],[8.95212817,53.10574644],[8.95208051,53.10571611],[8.95156657,53.10539517],[8.95151824,53.10536451],[8.95113928,53.10511423],[8.95109462,53.1050849],[8.95065601,53.10480827],[8.95061135,53.10477994],[8.95039938,53.10462997],[8.95035472,53.10460164],[8.94999842,53.10438868],[8.94995209,53.10436168],[8.94962513,53.10417839],[8.94957947,53.10415073],[8.94925851,53.10393411],[8.94921418,53.10390478],[8.94877025,53.1035875],[8.94872759,53.10355884],[8.94836097,53.10333321],[8.94831364,53.10330355],[8.94785034,53.10299562],[8.94780534,53.10296729],[8.9475497,53.10278699],[8.94750637,53.10275733],[8.94687678,53.1023354],[8.94683445,53.10230674],[8.94667847,53.10218743],[8.94663881,53.10215977],[8.94652615,53.10208545],[8.94649115,53.10206379],[8.94638284,53.10201114],[8.94637318,53.10200648],[8.94634385,53.10196915],[8.94632619,53.10195449],[8.94597392,53.10171487],[8.94592826,53.10168354],[8.94537098,53.10131261],[8.94532598,53.10128195],[8.94495401,53.10104465],[8.94490835,53.10101466],[8.9447807,53.10092534],[8.9447377,53.10089601],[8.94455539,53.1007787],[8.94450839,53.10074904],[8.94361849,53.10015715],[8.94357116,53.10012549],[8.94282424,53.09964291],[8.94277958,53.09961292],[8.94255127,53.09947127],[8.94250561,53.09944294],[8.94194735,53.09907533],[8.94190335,53.099047],[8.94072647,53.09831112],[8.94068214,53.09828279],[8.9404485,53.09812782],[8.94042417,53.09811149],[8.94013389,53.09792788],[8.94009256,53.09790088],[8.93980526,53.09769859],[8.93975993,53.0976686],[8.93868872,53.09699571],[8.93864239,53.09696571],[8.9378588,53.09645044],[8.93781014,53.09641778],[8.93762416,53.09628447],[8.93757883,53.09625081],[8.93722353,53.09600818],[8.93717987,53.09597985],[8.93679826,53.09575257],[8.93675726,53.09572657],[8.93660562,53.09561525],[8.93656696,53.09559025],[8.93637333,53.09548029],[8.93633767,53.09546063],[8.93596906,53.09523202],[8.9359354,53.09521069],[8.93580576,53.09511737],[8.9357721,53.09509404],[8.93550014,53.0949124],[8.93545981,53.09488507],[8.93518384,53.09471476],[8.93514884,53.0946911],[8.93505519,53.09461379],[8.93502453,53.09458746],[8.93487889,53.09448248],[8.9348399,53.09445515],[8.9345956,53.09429683],[8.9345546,53.09427017],[8.93434496,53.09414753],[8.9343023,53.09412087],[8.93421898,53.09406055],[8.93417865,53.09402989],[8.93388869,53.09383293],[8.93384803,53.0938056],[8.9336764,53.09370229],[8.93363507,53.09367796],[8.9334881,53.09358232],[8.93345411,53.09356099],[8.9332208,53.09343236],[8.93319314,53.09341703],[8.93313549,53.09338971],[8.93310316,53.09337838],[8.9330265,53.09336906],[8.93298584,53.09337172],[8.93294885,53.09338171],[8.93291552,53.09339604],[8.93270323,53.09352033],[8.93267124,53.09354033],[8.93237261,53.09374061],[8.93233095,53.09376994],[8.93173135,53.09421855],[8.93168702,53.09425021],[8.93142872,53.09444918],[8.93138672,53.09448051],[8.93071245,53.09496676],[8.93066812,53.09499842],[8.93040014,53.09517871],[8.93034814,53.09520204],[8.93029248,53.09521703],[8.93023549,53.09522236],[8.9301805,53.0952197],[8.9301305,53.09520971],[8.93008451,53.09519338],[8.92964857,53.09499477],[8.92963457,53.09498878],[8.92964823,53.09494045],[8.92967522,53.09494944],[8.92970455,53.0949631],[8.92976754,53.09499709],[8.9298012,53.09501209],[8.92987219,53.09503607],[8.92990685,53.0950494],[8.93009313,53.09512637],[8.93010213,53.09512936],[8.93015846,53.09515769],[8.93018112,53.09516769],[8.93020678,53.09517502],[8.93023877,53.09517868],[8.93027643,53.09517735],[8.93031709,53.09516669],[8.93035842,53.09514769],[8.93048174,53.0950647],[8.93052507,53.09503371],[8.93127868,53.09448112],[8.93132801,53.09444646],[8.93169931,53.09416217],[8.93174431,53.09412684],[8.93203361,53.09391387],[8.93208394,53.09387721],[8.93230125,53.09373356],[8.93235491,53.09369723],[8.93256923,53.09354358],[8.93262356,53.09350525],[8.93278921,53.09339493],[8.93284354,53.0933596],[8.93310051,53.0931723],[8.93315151,53.09313597],[8.93362448,53.09280467],[8.93367514,53.09276801],[8.93476536,53.09202478],[8.93481902,53.09198979],[8.93498434,53.09189047],[8.93504133,53.09185814],[8.93532863,53.0917025],[8.93538463,53.09167317],[8.93550096,53.09161751],[8.93556096,53.09159085],[8.93574461,53.09151119],[8.93580527,53.09148586],[8.93643354,53.09122991],[8.93648653,53.09120858],[8.93697449,53.09103196],[8.93701449,53.0910193],[8.93708014,53.09098964],[8.9370998,53.09097231],[8.93710979,53.09095331],[8.93710979,53.09093131],[8.93709946,53.09090532],[8.93708013,53.09087699],[8.9370518,53.09085033],[8.9370148,53.09082733],[8.93689449,53.09077302],[8.9368565,53.09075769],[8.93681851,53.09074536],[8.93678085,53.09073637],[8.93670687,53.09072872],[8.93669854,53.09072938],[8.93661054,53.09071373],[8.93656855,53.09070774],[8.93641423,53.09067509],[8.93635824,53.09065976],[8.93612993,53.09059278],[8.9360746,53.09057445],[8.93591995,53.09050813],[8.93586929,53.09048613],[8.93576496,53.09044947],[8.93571363,53.09043347],[8.93551231,53.09037582],[8.93546532,53.09036282],[8.93529367,53.09032517],[8.93525601,53.09031517],[8.93516803,53.09027219],[8.9351407,53.09026119],[8.93501307,53.09024588],[8.93501307,53.09024555],[8.9350334,53.09023189],[8.93503571,53.09023189],[8.93505337,53.09025622],[8.93537298,53.09023561],[8.93540764,53.09022962],[8.9354403,53.09021962],[8.9354683,53.09020729],[8.93557695,53.09013532],[8.93559061,53.09012533],[8.9356036,53.09011467],[8.93561359,53.09010334],[8.93562358,53.09007569],[8.93562791,53.0900667],[8.93565089,53.09003306],[8.93565288,53.09003007],[8.93568387,53.0900404],[8.9356962,53.0900324],[8.93573785,53.08999641],[8.93575451,53.08998241],[8.93581549,53.08994477],[8.93583648,53.08993177],[8.93600011,53.08980414],[8.9360271,53.08978248],[8.93618273,53.0896295],[8.93621206,53.0896025],[8.93647169,53.08937553],[8.93650169,53.08935087],[8.93703193,53.08885031],[8.93705892,53.08882565],[8.93718124,53.08873767],[8.93721124,53.08871367],[8.9372379,53.08868834],[8.93726423,53.08866235],[8.93742786,53.08852304],[8.93745285,53.08850071],[8.93747684,53.08847738],[8.93749917,53.08845305],[8.93765145,53.08827374],[8.93767244,53.08825108],[8.93774709,53.08818509],[8.93777208,53.0881621],[8.93791906,53.08801413],[8.93794239,53.0879888],[8.93804336,53.08786484],[8.93806235,53.08784118],[8.938107,53.0877582],[8.93811899,53.08774054],[8.93821529,53.08763091],[8.93823395,53.08760825],[8.93831226,53.0874986],[8.93833425,53.08746494],[8.93867519,53.08692065],[8.93870819,53.08686666],[8.93900845,53.08632576],[8.93902511,53.08629777],[8.93916473,53.08610714],[8.93918306,53.08607615],[8.93932901,53.08581219],[8.93934567,53.08577953],[8.93935967,53.08574754],[8.93937067,53.08571621],[8.93939166,53.08562889],[8.93940232,53.08560256],[8.93947329,53.08546226],[8.93948562,53.0854396],[8.93956491,53.08526896],[8.93957657,53.08524796],[8.93960721,53.08516133],[8.93960854,53.08515633],[8.9396282,53.08512333],[8.93964553,53.08510933],[8.93966219,53.08509134],[8.93979315,53.08492304],[8.93980881,53.08490104],[8.9398168,53.08488305],[8.93981746,53.08486905],[8.93981247,53.08485939],[8.93979749,53.08485041],[8.93981815,53.08481775],[8.9397785,53.08478543],[8.9397485,53.0847701],[8.93971384,53.08475677],[8.93967451,53.08474377],[8.9395072,53.08469779],[8.93946421,53.08468713],[8.9392259,53.08465149],[8.93917424,53.0846435],[8.93901291,53.08461251],[8.93895858,53.08460051],[8.93880527,53.08455586],[8.93875394,53.08454253],[8.93848197,53.08448522],[8.93842597,53.08447223],[8.93826065,53.08442724],[8.93820399,53.08441291],[8.93787636,53.08434228],[8.9378247,53.08433129],[8.93699277,53.08413737],[8.93695977,53.08412771],[8.93693611,53.08411172],[8.93692345,53.08408972],[8.93692079,53.08406172],[8.93693744,53.08399739],[8.9369501,53.08396373],[8.93703106,53.08376342],[8.93704706,53.08373076],[8.93714803,53.08353746],[8.93716502,53.0835058],[8.937228,53.08341848],[8.93724766,53.08339115],[8.93725866,53.08336282],[8.937256,53.08333283],[8.93723567,53.08330517],[8.93719968,53.08328051],[8.93715468,53.08326018],[8.93710369,53.08324285],[8.93671039,53.08314088],[8.93666706,53.08312888],[8.93640008,53.08307024],[8.93635409,53.08305958],[8.93623444,53.08301793],[8.93620578,53.08300127],[8.93618579,53.08298227],[8.93617413,53.08296394],[8.93617047,53.08294928],[8.93617513,53.08293063],[8.93617746,53.0829263],[8.93645171,53.08273071],[8.9364637,53.08272238],[8.93645237,53.08268738],[8.93643971,53.08267105],[8.93642205,53.08265205],[8.93639739,53.08263072],[8.93636439,53.08260973],[8.93632373,53.08259007],[8.93622741,53.08255608],[8.93617475,53.08254042],[8.93468886,53.08210486],[8.93462753,53.0820872],[8.93438855,53.08203056],[8.93433422,53.08201656],[8.93395891,53.08191159],[8.93390625,53.08189693],[8.93316266,53.08170866],[8.93311,53.08169533],[8.9327817,53.08162569],[8.93272004,53.08161169],[8.9324094,53.08153039],[8.9323464,53.08151439],[8.93210376,53.08145773],[8.93204643,53.08144307],[8.93182011,53.08138075],[8.93176112,53.08136576],[8.93150747,53.08131045],[8.93144014,53.08129379],[8.93067455,53.08106152],[8.93061122,53.08104319],[8.93035957,53.08097189],[8.93029624,53.0809549],[8.93003892,53.08089092],[8.92997426,53.08087359],[8.92972428,53.08079927],[8.92966028,53.08077994],[8.92939263,53.08070729],[8.92932463,53.08068929],[8.9284877,53.08048437],[8.92841904,53.08046704],[8.92774876,53.08028609],[8.92768243,53.08026843],[8.92734779,53.08018479],[8.9272818,53.08016713],[8.92650786,53.07995518],[8.9264452,53.07993752],[8.92544462,53.07967927],[8.92538396,53.07966394],[8.92388312,53.07930507],[8.92383979,53.07929308],[8.92351383,53.07923444],[8.92348017,53.07922644],[8.92344884,53.07921578],[8.92341918,53.07920079],[8.92336653,53.07916281],[8.92334387,53.07914148],[8.92322891,53.07899852],[8.92321025,53.07897486],[8.92312194,53.07884921],[8.92310095,53.07882255],[8.92295532,53.07864991],[8.92292532,53.07861792],[8.92289066,53.07858593],[8.92284833,53.0785556],[8.922797,53.07852727],[8.92267568,53.07847828],[8.92260602,53.07845595],[8.9224567,53.07841463],[8.92238137,53.0783953],[8.92153277,53.07818971],[8.92147778,53.07817571],[8.92111348,53.07807841],[8.92106349,53.07806508],[8.92070086,53.07795246],[8.92064453,53.0779368],[8.92020623,53.07784017],[8.9201399,53.07782384],[8.91986625,53.07775086],[8.91979592,53.07773186],[8.91957227,53.07766187],[8.91949027,53.07763721],[8.91912997,53.07753456],[8.91903498,53.07750823],[8.9175964,53.07714131],[8.9175134,53.07711965],[8.91728375,53.07705233],[8.91721176,53.07702967],[8.91679112,53.07687237],[8.91671312,53.07684771],[8.91593051,53.0766121],[8.91585652,53.07658977],[8.91563687,53.07652945],[8.91556321,53.07651012],[8.91505259,53.07638281],[8.91497993,53.07636715],[8.91483194,53.07633816],[8.91475761,53.07632416],[8.91444929,53.0762735],[8.91437263,53.0762595],[8.9135837,53.07610423],[8.91353037,53.07609524],[8.91336106,53.07607425],[8.9133024,53.07607059],[8.91281743,53.07605794],[8.91275744,53.07605628],[8.91209516,53.07606491],[8.9120555,53.07606591],[8.91197518,53.07606192],[8.91193485,53.07606192],[8.91180754,53.07607223],[8.91176021,53.07607822],[8.91160855,53.07610454],[8.91155689,53.0761142],[8.91118093,53.07620315],[8.9111276,53.07621048],[8.91106627,53.07621314],[8.91099961,53.07620981],[8.91071198,53.0761895],[8.91063632,53.07618717],[8.91039967,53.07618585],[8.91032001,53.07618618],[8.90970671,53.07619448],[8.90963571,53.07619547],[8.90899743,53.0762314],[8.90895777,53.07623439],[8.90866913,53.07623605],[8.9086088,53.07623638],[8.90798252,53.07625568],[8.90790853,53.07625668],[8.9067836,53.07625803],[8.90671594,53.07625869],[8.90617365,53.07627099],[8.90610599,53.07627198],[8.90584667,53.07627099],[8.90578401,53.07627198],[8.90517873,53.07628694],[8.90514307,53.07628694],[8.90497177,53.07628097],[8.90493244,53.07627598],[8.90489578,53.07626765],[8.90486412,53.07625599],[8.90479681,53.07621235],[8.90471015,53.07618036],[8.90444285,53.07625467],[8.90438219,53.07627133],[8.90425754,53.07631299],[8.90419521,53.07633865],[8.90395357,53.0764533],[8.90389358,53.07648196],[8.90350062,53.07668361],[8.90344563,53.07671027],[8.90328331,53.07678392],[8.90322798,53.07680691],[8.90305433,53.07686657],[8.90299333,53.07688123],[8.90269102,53.07693953],[8.90263069,53.07694786],[8.90256903,53.07695452],[8.9025077,53.07695985],[8.90212672,53.07698015],[8.90206339,53.07698215],[8.90182374,53.07697915],[8.90177141,53.07697282],[8.90153077,53.07690918],[8.90149577,53.07689885],[8.90146944,53.07688252],[8.90145711,53.07686086],[8.90145544,53.07680354],[8.90145877,53.07676888],[8.90152605,53.07642959],[8.90153438,53.07638393],[8.90155437,53.07624194],[8.9015607,53.07619461],[8.90162865,53.07587297],[8.90163665,53.07582698],[8.90166862,53.07558867],[8.90167595,53.07553934],[8.90178156,53.07491141],[8.90178955,53.07485741],[8.90187384,53.07423114],[8.9018805,53.07417948],[8.90190747,53.07386751],[8.90191147,53.07381518],[8.90196141,53.07333556],[8.90196674,53.0732809],[8.90200435,53.07284228],[8.90200834,53.07278762],[8.90202464,53.07246498],[8.90202797,53.07241232],[8.90203262,53.07220701],[8.90203495,53.07215835],[8.9020496,53.07197571],[8.90205093,53.07193438],[8.90204594,53.07185639],[8.90203694,53.0718194],[8.90201928,53.07178507],[8.90199429,53.07175541],[8.90196163,53.07172942],[8.90192364,53.07170709],[8.90187931,53.0716891],[8.90182932,53.07167644],[8.90165134,53.07166146],[8.90158601,53.07165913],[8.90106739,53.07166477],[8.90098606,53.0716651],[8.89997114,53.07164849],[8.89989248,53.07164915],[8.89973416,53.07165181],[8.89965583,53.07165447],[8.89902787,53.07169142],[8.89894921,53.07169575],[8.89856824,53.07171071],[8.89849424,53.07171337],[8.89660669,53.07175792],[8.89654403,53.07176025],[8.89547844,53.07176755],[8.89540311,53.07176788],[8.8945925,53.0717855],[8.89450951,53.07178716],[8.89348556,53.0718011],[8.89339423,53.0718021],[8.89302759,53.07180144],[8.89293526,53.07180011],[8.89238929,53.07177548],[8.89230029,53.07176882],[8.89136767,53.07168053],[8.89128601,53.0716762],[8.89091104,53.07167156],[8.89084004,53.07166957],[8.88955813,53.07167751],[8.88947947,53.07167518],[8.88925182,53.07165219],[8.88917616,53.07164353],[8.88881786,53.07162189],[8.88875386,53.0716159],[8.88849455,53.07157325],[8.88841755,53.07156792],[8.88807091,53.07156028],[8.88798225,53.07155962],[8.88746129,53.07156326],[8.88737829,53.07156359],[8.88706931,53.07153594],[8.88699732,53.07153261],[8.886768,53.07154225],[8.886735,53.07154225],[8.88671467,53.07154092],[8.88670334,53.07153926],[8.88668734,53.0715246],[8.88667468,53.07149627],[8.88665702,53.07147861],[8.88660703,53.07144462],[8.88657304,53.07143429],[8.88653505,53.0714333],[8.88644706,53.07144829],[8.8863984,53.07145629],[8.88635141,53.07145928],[8.88631175,53.07145195],[8.88628476,53.07143329],[8.88626843,53.07140629],[8.88626077,53.07137329],[8.88626011,53.07133596],[8.88626444,53.0712963],[8.8862731,53.07125464],[8.88628676,53.07121231],[8.88630775,53.07117031],[8.88633441,53.07112898],[8.88636507,53.07108798],[8.8863984,53.07104832],[8.88654638,53.070894],[8.88658171,53.07085367],[8.8867517,53.07064236],[8.88678536,53.0705977],[8.88681236,53.07055204],[8.88684102,53.07050604],[8.88690735,53.07041739],[8.88694334,53.07037473],[8.88709933,53.07020876],[8.88714032,53.07016876],[8.88726864,53.07004945],[8.88731064,53.07001079],[8.88744663,53.06989547],[8.88749163,53.06985614],[8.88757229,53.06977549],[8.88760628,53.06973216],[8.88763527,53.06968817],[8.88765827,53.06964384],[8.8876746,53.06959918],[8.88768693,53.06955652],[8.88769559,53.06951452],[8.88770159,53.06947386],[8.88770126,53.06943387],[8.8876916,53.06939588],[8.88766994,53.06936322],[8.88763428,53.06933689],[8.88758762,53.0693199],[8.88753329,53.06930957],[8.88747563,53.06930324],[8.88735064,53.06929525],[8.88728598,53.06929359],[8.88695301,53.06929823],[8.88688601,53.06930323],[8.8866317,53.06935154],[8.88656804,53.06936487],[8.88604274,53.06949583],[8.88598174,53.06951249],[8.88592274,53.06952415],[8.88586675,53.06952815],[8.88581542,53.06952315],[8.88577109,53.06950816],[8.88572909,53.0694865],[8.88568509,53.06946084],[8.88544845,53.0693132],[8.88539879,53.06928221],[8.88482485,53.06893794],[8.88477252,53.06890661],[8.88449887,53.06875498],[8.88444554,53.06872332],[8.88353099,53.06816942],[8.883481,53.06813876],[8.8832787,53.06801311],[8.88322904,53.06798245],[8.8826461,53.06758787],[8.88259544,53.06755554],[8.88254444,53.06752588],[8.88249244,53.06749588],[8.88233013,53.06741457],[8.88228047,53.06738657],[8.88210382,53.06727491],[8.88205882,53.06724825],[8.88181551,53.06711527],[8.88176585,53.06708528],[8.88171852,53.06705429],[8.88167486,53.06702296],[8.88160287,53.06695831],[8.88157154,53.06692665],[8.88149722,53.06686933],[8.88145356,53.06684133],[8.88102859,53.06661437],[8.8809756,53.06658571],[8.88077629,53.0664694],[8.88072763,53.06644207],[8.88034433,53.06623645],[8.88030134,53.06620979],[8.88026134,53.06618046],[8.88022134,53.0661468],[8.88014368,53.06607548],[8.88010602,53.06603849],[8.87981973,53.06574553],[8.87978307,53.06570787],[8.8796051,53.06551356],[8.87957111,53.06547723],[8.87953645,53.06544757],[8.87950446,53.06541891],[8.8793205,53.06523996],[8.87930484,53.06522396],[8.8792442,53.06514333],[8.87922921,53.065126],[8.87920688,53.06510667],[8.87918022,53.06508534],[8.87892325,53.06492037],[8.87888859,53.06489504],[8.87869263,53.0647424],[8.87866164,53.06471674],[8.87855399,53.06461742],[8.87852766,53.06459309],[8.87839601,53.06450745],[8.87836502,53.06448512],[8.87830636,53.06443513],[8.87827603,53.06440913],[8.87817072,53.06433448],[8.87813639,53.06430815],[8.8781054,53.06427949],[8.87807674,53.0642505],[8.87796842,53.06412853],[8.87793843,53.06409987],[8.87790577,53.06407121],[8.87786944,53.06404422],[8.87779245,53.06399256],[8.87775412,53.06396823],[8.87761747,53.06386191],[8.87758548,53.06383525],[8.87731254,53.0635643],[8.87727888,53.06353331],[8.87716823,53.06344366],[8.8771289,53.06341566],[8.87689926,53.06320369],[8.87686493,53.0631697],[8.87682493,53.06313837],[8.87669194,53.06305705],[8.87665194,53.06302905],[8.87651996,53.06290041],[8.87648363,53.06286908],[8.87640997,53.06280942],[8.87637331,53.06278043],[8.87622567,53.06267245],[8.87619367,53.06264512],[8.87613268,53.06258846],[8.87610302,53.06255913],[8.87590571,53.0623555],[8.87587538,53.06232684],[8.87584338,53.06230018],[8.87577706,53.06225852],[8.8757444,53.06224653],[8.8757114,53.0622432],[8.87564941,53.06225086],[8.87562042,53.06225519],[8.87556211,53.06225719],[8.87554578,53.06224886],[8.87549846,53.06217488],[8.87548513,53.06214789],[8.87547514,53.06211823],[8.87546516,53.06205591],[8.8754565,53.06202591],[8.87542385,53.06196892],[8.87540052,53.06194092],[8.87515755,53.06169163],[8.87513155,53.06166397],[8.87475863,53.06124237],[8.87472964,53.06121138],[8.87448702,53.06097944],[8.87446069,53.06095178],[8.87439503,53.06090246],[8.8743567,53.06088247],[8.87427004,53.06085414],[8.87422304,53.06084681],[8.87412471,53.06084681],[8.87407638,53.06085314],[8.87402972,53.06086347],[8.87398406,53.0608768],[8.87363243,53.06099376],[8.87359977,53.06101109],[8.87358078,53.06103242],[8.87357545,53.06105542],[8.87358178,53.06107941],[8.8736211,53.0611274],[8.87364843,53.06115339],[8.87367676,53.06117839],[8.87370309,53.06119838],[8.87374074,53.06122104],[8.87375074,53.06122604],[8.87371008,53.06117371],[8.87361246,53.06108442],[8.87360447,53.06107676],[8.87358982,53.06105177],[8.87355383,53.06104878],[8.87329053,53.06113475],[8.87324287,53.06115108],[8.87295923,53.06125738],[8.8729119,53.06127404],[8.87262559,53.06137235],[8.8725766,53.06139035],[8.87246794,53.06142167],[8.87241161,53.061439],[8.87209097,53.06155365],[8.87204231,53.06157031],[8.87199432,53.0615823],[8.87194433,53.06158563],[8.87183634,53.06158198],[8.87178201,53.06158664],[8.87167969,53.06160963],[8.87162769,53.06162329],[8.87137039,53.06169728],[8.87131473,53.06170927],[8.87107408,53.06173824],[8.87101075,53.06174423],[8.86943953,53.06184442],[8.8693762,53.06184808],[8.86876292,53.06189437],[8.86870492,53.0618987],[8.86841529,53.06191168],[8.86835763,53.06191434],[8.86801099,53.06193965],[8.86795299,53.06194364],[8.86766168,53.06196729],[8.86760302,53.06197229],[8.86726438,53.06201124],[8.86721072,53.06201423],[8.86715939,53.06201257],[8.8671124,53.06200491],[8.86707074,53.06199158],[8.86703375,53.06197225],[8.86700075,53.06194892],[8.86691043,53.06186194],[8.86688377,53.06182861],[8.86681046,53.06171695],[8.86678513,53.06167762],[8.86672448,53.06159863],[8.86668849,53.06155997],[8.86660184,53.06148764],[8.86655251,53.06145465],[8.86644118,53.06139499],[8.86637952,53.061371],[8.86631352,53.061352],[8.86624686,53.061336],[8.86599388,53.06128135],[8.86592822,53.06127369],[8.8657249,53.06127102],[8.86565691,53.06127202],[8.8654016,53.06128166],[8.8653456,53.06128166],[8.86524461,53.06127234],[8.86519895,53.06126335],[8.86506896,53.06122069],[8.86503263,53.06120403],[8.86500164,53.06118704],[8.86497698,53.06116905],[8.86495799,53.06114872],[8.864932,53.0611004],[8.86492267,53.06107374],[8.86491168,53.06101842],[8.86490569,53.06099042],[8.86479976,53.06063682],[8.86479377,53.06061549],[8.86478246,53.06052119],[8.86477747,53.06049353],[8.86473549,53.06034389],[8.86472749,53.06031323],[8.86471717,53.06024891],[8.86471117,53.06021625],[8.86468452,53.0601206],[8.86467686,53.06008994],[8.86465321,53.05996597],[8.86464621,53.05993431],[8.8645889,53.05974835],[8.86457957,53.05971869],[8.86452827,53.05947873],[8.86451927,53.05945073],[8.86450361,53.05942407],[8.86447761,53.05940108],[8.86444428,53.05938375],[8.86441128,53.05936509],[8.86438562,53.05934309],[8.86436896,53.05931876],[8.86436097,53.05929477],[8.86435998,53.05927311],[8.86436829,53.0591918],[8.86437028,53.05917047],[8.86436162,53.05911015],[8.86435596,53.05909149],[8.8642167,53.05879292],[8.86420904,53.05877692],[8.86417939,53.05874227],[8.86417306,53.05873761],[8.86418072,53.05866295],[8.86409774,53.05851264],[8.86407875,53.05847398],[8.86400144,53.05831066],[8.86398445,53.05827466],[8.86396312,53.05821433],[8.86396712,53.05819167],[8.86398445,53.05817534],[8.86403744,53.05815436],[8.86406843,53.05814803],[8.8647567,53.05805309],[8.86485203,53.05803843],[8.86494403,53.05802277],[8.86502736,53.05800344],[8.86509669,53.05797978],[8.86514935,53.05795278],[8.86518668,53.05792345],[8.86520801,53.05789445],[8.86523666,53.05783713],[8.86526299,53.05781114],[8.86545097,53.05772015],[8.8654983,53.05769049],[8.86567062,53.05755452],[8.86571628,53.05751986],[8.86597159,53.05734522],[8.86602625,53.05730956],[8.86613623,53.05723823],[8.86619256,53.05720257],[8.86717348,53.05660332],[8.86723547,53.05656633],[8.86779311,53.05621936],[8.8678581,53.05618003],[8.86823107,53.05592771],[8.86829373,53.05588705],[8.86854805,53.05574173],[8.86860704,53.05570474],[8.86871303,53.05562341],[8.86875102,53.05557775],[8.86877135,53.05552842],[8.86877368,53.05547843],[8.86875702,53.05542943],[8.86872569,53.0553821],[8.86868403,53.05533777],[8.86863703,53.05529444],[8.86858637,53.05525244],[8.86853071,53.05521211],[8.86847171,53.05517311],[8.86810873,53.05495347],[8.86805007,53.05491848],[8.86741846,53.05455121],[8.86736446,53.05451922],[8.8669175,53.0542446],[8.8668705,53.05421594],[8.86636023,53.05391932],[8.86631224,53.05389099],[8.86617592,53.05379634],[8.86613092,53.05376434],[8.86587595,53.05356637],[8.86583429,53.05353304],[8.86543933,53.05320774],[8.86540033,53.05317574],[8.86516303,53.05299444],[8.86512404,53.05296478],[8.86476976,53.05266983],[8.86473276,53.0526405],[8.86457711,53.05252519],[8.86453778,53.05249653],[8.86433714,53.05236121],[8.86429714,53.05233355],[8.86410417,53.05219257],[8.86406818,53.05216624],[8.86382355,53.0519616],[8.86379456,53.05193894],[8.86349162,53.05172567],[8.86346196,53.05170268],[8.86329632,53.05155271],[8.86325333,53.05151771],[8.86293604,53.05127474],[8.86287871,53.05123041],[8.86242011,53.05086813],[8.86241712,53.05086647],[8.86238812,53.05082681],[8.86236646,53.05080748],[8.86209619,53.05058519],[8.8620662,53.05055986],[8.8616936,53.05023526],[8.86166261,53.0502086],[8.86144165,53.05003897],[8.86141599,53.05001964],[8.86116836,53.04984069],[8.86113803,53.04982003],[8.86102072,53.04975505],[8.86099706,53.04974305],[8.86085642,53.04968406],[8.86080309,53.04966373],[8.85991014,53.0493718],[8.85985381,53.04935347],[8.85909391,53.04908789],[8.85904225,53.04906889],[8.85879294,53.04899091],[8.85874894,53.04897625],[8.85860864,53.0489186],[8.85857831,53.04890694],[8.85847665,53.04887529],[8.85844399,53.0488663],[8.858393,53.04884331],[8.85837567,53.04882665],[8.85836467,53.04880632],[8.85836334,53.04878233],[8.85837333,53.04875433],[8.85842032,53.04869467],[8.85845365,53.04866368],[8.85861063,53.04853569],[8.85865096,53.0485037],[8.85901792,53.04822609],[8.85905791,53.04819476],[8.85917057,53.04809444],[8.85920357,53.04806111],[8.85934687,53.04788447],[8.8593732,53.04784781],[8.85939819,53.04781082],[8.85942218,53.04777349],[8.85946217,53.04769683],[8.85947716,53.0476585],[8.85948882,53.0476195],[8.85949648,53.04757984],[8.85950247,53.04750118],[8.85950114,53.04746185],[8.85941656,53.04665727],[8.8594129,53.04661761],[8.85940291,53.04654529],[8.85939825,53.04651163],[8.85937193,53.0464083],[8.85936493,53.04637197],[8.85936959,53.04626198],[8.85937292,53.04622432],[8.85940921,53.04596869],[8.8594122,53.04593336],[8.85941121,53.04589803],[8.85940521,53.04586104],[8.85937655,53.04578505],[8.85935789,53.04574672],[8.85927324,53.04559675],[8.85925191,53.04555909],[8.85919659,53.04548744],[8.85916326,53.04545378],[8.85898094,53.04529514],[8.85894328,53.04526348],[8.85858099,53.04499686],[8.85854499,53.04496853],[8.85848067,53.04490854],[8.85845168,53.04487688],[8.85840303,53.04480922],[8.85838103,53.04477389],[8.85823175,53.04450727],[8.85821709,53.04447961],[8.85814711,53.04437896],[8.85813278,53.04435263],[8.85805649,53.04418398],[8.85804383,53.04415498],[8.85800184,53.04403167],[8.85798651,53.04400034],[8.85789353,53.04383902],[8.8578742,53.04380602],[8.85782322,53.04370504],[8.85780456,53.04367238],[8.8577619,53.04360739],[8.85774191,53.04357439],[8.85767227,53.04343674],[8.85765328,53.04340141],[8.85747433,53.04308012],[8.85745467,53.04304479],[8.85743367,53.04300946],[8.85741068,53.04297413],[8.85735769,53.04290714],[8.85733136,53.04287448],[8.85728937,53.04280815],[8.85727038,53.04277482],[8.85719773,53.0426815],[8.85717707,53.04265017],[8.85716241,53.04261751],[8.85713342,53.04250986],[8.85712143,53.0424732],[8.8571061,53.04243654],[8.8570891,53.04239921],[8.85703013,53.04228789],[8.85701013,53.04225123],[8.85692748,53.04210425],[8.85690648,53.04206726],[8.85674085,53.04182863],[8.85671986,53.04179464],[8.85661688,53.04158734],[8.85659889,53.04155401],[8.85650424,53.04142903],[8.85648525,53.0413967],[8.85646992,53.04136271],[8.85645459,53.04129439],[8.85644493,53.04126073],[8.8564306,53.04122707],[8.85641261,53.04119274],[8.85629564,53.04097877],[8.85627698,53.04094144],[8.85622632,53.04086878],[8.85620066,53.04083345],[8.856182,53.04079679],[8.85615467,53.04072014],[8.85613768,53.04068148],[8.85610003,53.04060449],[8.85608104,53.04056616],[8.85599906,53.04041785],[8.85597906,53.04038086],[8.85595773,53.04034353],[8.8559314,53.0403062],[8.85587274,53.04023454],[8.85584908,53.04019655],[8.85580742,53.0401209],[8.85578876,53.04008257],[8.85575743,53.04000525],[8.85573877,53.03996725],[8.85564212,53.03981993],[8.85561879,53.03978327],[8.85549215,53.03955998],[8.85547082,53.03952199],[8.85543083,53.039446],[8.8554135,53.039407],[8.85534885,53.03924735],[8.85532952,53.03920802],[8.85515358,53.03887706],[8.85513125,53.03884106],[8.85510626,53.03880607],[8.8550786,53.03877341],[8.85496262,53.03865309],[8.85493463,53.03862276],[8.85480065,53.03850012],[8.85476732,53.03846979],[8.85469566,53.03841146],[8.854661,53.03838313],[8.85429504,53.03805785],[8.85426005,53.03802819],[8.85411508,53.03791888],[8.85408075,53.03789155],[8.85363547,53.03752229],[8.85360347,53.03749496],[8.85349916,53.03741864],[8.8534625,53.03739398],[8.85329152,53.03730133],[8.85325353,53.03727433],[8.85287661,53.03697006],[8.85284995,53.0369524],[8.85273996,53.03689909],[8.85271496,53.03688776],[8.85266464,53.0368701],[8.85264065,53.0368611],[8.85259332,53.03683544],[8.85257232,53.03681811],[8.85255866,53.03679778],[8.852552,53.03677312],[8.85253303,53.03652151],[8.85253037,53.03650051],[8.85245174,53.03632956],[8.85244141,53.0363069],[8.85226648,53.03602861],[8.85225248,53.03600362],[8.85214388,53.03576099],[8.85213222,53.035737],[8.85207724,53.03566101],[8.85205958,53.03563368],[8.85201226,53.03554936],[8.8519966,53.03552136],[8.85194462,53.03544104],[8.85192796,53.03541438],[8.85189897,53.03536172],[8.85188597,53.03533473],[8.85185732,53.03526041],[8.85184632,53.03523675],[8.851801,53.0351591],[8.85178734,53.0351311],[8.85176301,53.03510911],[8.85169736,53.03502746],[8.85167203,53.0349958],[8.85158738,53.03487249],[8.85156839,53.03484616],[8.85150708,53.03476918],[8.85148875,53.03474285],[8.85141811,53.03462886],[8.85139945,53.03459853],[8.85136046,53.03450322],[8.85134947,53.03446923],[8.85133881,53.0344339],[8.85132848,53.0343989],[8.85131083,53.03428925],[8.85130584,53.03425059],[8.85129422,53.03392595],[8.85129422,53.03388496],[8.85130087,53.03380263],[8.8513052,53.0337623],[8.85130819,53.03364299],[8.85131285,53.03360299],[8.85136783,53.03344468],[8.85137683,53.03340268],[8.85139479,53.03315605],[8.85139279,53.03311639],[8.8513828,53.03307773],[8.85133082,53.03297341],[8.85132182,53.03293675],[8.85129086,53.03261479],[8.85128653,53.03257146],[8.85125955,53.03239649],[8.85125222,53.03235316],[8.85123557,53.0322665],[8.85122457,53.03222384],[8.85116327,53.0320122],[8.85114994,53.03197054],[8.85090802,53.03130862],[8.85089402,53.03127063],[8.8508547,53.03115031],[8.85084237,53.03111032],[8.85082205,53.03102999],[8.85080839,53.03099],[8.85063278,53.03058672],[8.85061645,53.03054606],[8.85054715,53.03031076],[8.85053516,53.0302741],[8.85051783,53.03023777],[8.85044751,53.03012978],[8.85042552,53.03009179],[8.85036021,53.02992981],[8.85034755,53.02988715],[8.85033223,53.0298015],[8.85032857,53.02975751],[8.8503349,53.02962486],[8.85034123,53.02958086],[8.85034889,53.02953686],[8.85036022,53.0294922],[8.85045252,53.02922924],[8.85046485,53.02918625],[8.85047584,53.02914392],[8.85048417,53.02910126],[8.85049283,53.02901693],[8.85049183,53.02897493],[8.85045886,53.02876895],[8.85045287,53.02872895],[8.85042389,53.02860697],[8.85041256,53.02856564],[8.85036559,53.02844465],[8.85035226,53.02840632],[8.85030694,53.02825735],[8.85029495,53.02822069],[8.85025097,53.02810937],[8.85023731,53.02807238],[8.85018634,53.02790474],[8.85018534,53.02787575],[8.85019934,53.02785042],[8.85032466,53.02774977],[8.85036732,53.02772411],[8.85041798,53.02770045],[8.85047297,53.02767779],[8.85071094,53.02758581],[8.85076927,53.02755982],[8.85088526,53.02750383],[8.85094326,53.02747383],[8.85105491,53.02741151],[8.85110757,53.02737851],[8.85130189,53.0272492],[8.85134522,53.02721921],[8.85164251,53.02700124],[8.85167984,53.02697558],[8.85171183,53.02694825],[8.85173249,53.02691926],[8.85173648,53.02688927],[8.85172248,53.02686127],[8.8516615,53.02681162],[8.8516245,53.02678729],[8.85140451,53.02667898],[8.85135818,53.02666165],[8.85121119,53.02662566],[8.85116153,53.026617],[8.85090388,53.02659569],[8.85085222,53.0265897],[8.85075523,53.02656938],[8.85071124,53.02655338],[8.85059258,53.02648873],[8.85055492,53.0264644],[8.85031894,53.02628977],[8.85029495,53.02626544],[8.85027562,53.02623878],[8.85026396,53.02621045],[8.85026196,53.02618079],[8.85027862,53.0261158],[8.85029395,53.02608114],[8.85031261,53.02604648],[8.85033361,53.02601082],[8.85047057,53.02580751],[8.85049857,53.02575818],[8.85055456,53.02570952],[8.85060122,53.02565686],[8.85064155,53.02560286],[8.85066955,53.0255502],[8.85068388,53.02550054],[8.85068521,53.02545388],[8.85067255,53.02541089],[8.85064955,53.02537023],[8.85061655,53.0253319],[8.85057722,53.02529624],[8.85053056,53.02526491],[8.8504769,53.02523792],[8.85041957,53.02521392],[8.85035858,53.02519326],[8.85023125,53.02516326],[8.85016625,53.0251506],[8.84925531,53.024998],[8.84918931,53.02498734],[8.84892099,53.02493703],[8.84885433,53.02492337],[8.84840536,53.02481874],[8.8483447,53.02480508],[8.84810139,53.02474211],[8.8480394,53.02472745],[8.84754744,53.02461882],[8.84748545,53.02460582],[8.84691849,53.02450953],[8.8468585,53.02449887],[8.84656418,53.02444057],[8.84650452,53.02442957],[8.8462742,53.02440093],[8.84622054,53.0243916],[8.84611122,53.02436994],[8.84605889,53.02435728],[8.84596957,53.02432295],[8.84593657,53.02429829],[8.84591091,53.02426896],[8.84589025,53.0242353],[8.84573496,53.02394999],[8.84571063,53.02390599],[8.84555098,53.02364068],[8.84552498,53.02359835],[8.8448514,53.02254881],[8.84482507,53.02250681],[8.84435448,53.02174021],[8.84432915,53.02169888],[8.84422318,53.02153557],[8.84419818,53.02149491],[8.84403322,53.0212116],[8.84401056,53.0211736],[8.84362933,53.0205867],[8.84361067,53.02055737],[8.84347204,53.02032208],[8.84344938,53.02028475],[8.84322677,53.01994413],[8.84320211,53.01990547],[8.84286484,53.01936652],[8.84283751,53.01932419],[8.84269121,53.01907889],[8.84266855,53.01904223],[8.84253659,53.01884093],[8.84251659,53.01880994],[8.84239596,53.0185993],[8.8423743,53.01856631],[8.84227998,53.01846699],[8.84224599,53.018433],[8.84186072,53.01807172],[8.84182639,53.01803872],[8.84159176,53.01779376],[8.84155643,53.01775776],[8.84082088,53.01702619],[8.84079455,53.01700086],[8.8406016,53.01680088],[8.84057294,53.01677055],[8.84048162,53.01668556],[8.84045362,53.01665756],[8.84037629,53.01657357],[8.84034929,53.01654658],[8.83996071,53.01617699],[8.83993238,53.01614966],[8.83985073,53.01606833],[8.83982373,53.01604],[8.83977408,53.01598235],[8.83974742,53.01595369],[8.83959177,53.01580905],[8.83955977,53.01577705],[8.83902418,53.01523581],[8.83899118,53.01520248],[8.8388652,53.0150665],[8.83883254,53.01503217],[8.83856358,53.0147702],[8.83853158,53.01473754],[8.83828697,53.01446992],[8.83825364,53.01443659],[8.83769839,53.01390968],[8.83766606,53.01387968],[8.83725081,53.01346809],[8.83722081,53.01343876],[8.83696684,53.01319614],[8.83693618,53.01316615],[8.83646226,53.0126789],[8.83643226,53.01264857],[8.83562242,53.01184107],[8.83559176,53.01181107],[8.83533414,53.01154712],[8.83530414,53.01151712],[8.83492189,53.01114587],[8.83488823,53.01111354],[8.83451929,53.01074059],[8.83448396,53.0107056],[8.8344503,53.01067027],[8.83441897,53.01063427],[8.83430334,53.01048497],[8.83427501,53.01044631],[8.83394409,53.00993937],[8.83391776,53.00990104],[8.8338371,53.00978739],[8.83381011,53.00974973],[8.83369514,53.00960509],[8.83366415,53.00957043],[8.83330887,53.0092445],[8.83328188,53.0092195],[8.83298327,53.00896555],[8.83295494,53.00894222],[8.83290328,53.0088909],[8.83287462,53.00886524],[8.83260933,53.0086476],[8.83257933,53.00862227],[8.832555,53.00859561],[8.83254034,53.00856695],[8.83253868,53.00853695],[8.83255334,53.00850762],[8.83258134,53.00847929],[8.83266266,53.0084273],[8.83271099,53.00840264],[8.83303496,53.00826767],[8.83309029,53.00824401],[8.83434352,53.00774011],[8.83441785,53.00770845],[8.83449118,53.00767512],[8.83456251,53.00763946],[8.83463051,53.00760047],[8.83482083,53.00747448],[8.83488782,53.00743248],[8.83503414,53.00735516],[8.83511147,53.00731983],[8.83543113,53.00719285],[8.83551112,53.00716219],[8.83574177,53.00706087],[8.83581877,53.00702787],[8.83664903,53.00668894],[8.83672502,53.00665761],[8.83780162,53.00622603],[8.83788061,53.00619404],[8.8388229,53.00580675],[8.83889356,53.00577776],[8.8399635,53.00534984],[8.8400275,53.00532651],[8.84222703,53.00464233],[8.84232336,53.00461234],[8.84375528,53.0041864],[8.84384361,53.00415974],[8.84446624,53.00398109],[8.84455557,53.00395443],[8.84638949,53.00339483],[8.84647915,53.0033675],[8.84745909,53.00308157],[8.84754508,53.00305624],[8.84874168,53.00269396],[8.84882067,53.00266963],[8.84925565,53.002542],[8.84932298,53.00252234],[8.8495883,53.0024547],[8.8496503,53.0024367],[8.84970763,53.00241737],[8.84975896,53.00239504],[8.84980096,53.00236738],[8.84983129,53.00233372],[8.84984628,53.00229406],[8.84984262,53.00225373],[8.84982296,53.00221407],[8.8497653,53.00213574],[8.84973464,53.00209608],[8.84960799,53.00194276],[8.84957833,53.00190476],[8.84941469,53.00167279],[8.84938769,53.00163413],[8.84930171,53.00152315],[8.84927405,53.00148582],[8.84919539,53.00136916],[8.84916606,53.00133083],[8.84910407,53.00125484],[8.84907241,53.00121685],[8.84881879,53.00093156],[8.84879079,53.0008989],[8.84859282,53.00069194],[8.84856616,53.00066495],[8.84848618,53.0005953],[8.84846518,53.0005733],[8.84841486,53.00049432],[8.84840253,53.00047933],[8.84833222,53.00040769],[8.84831222,53.00038603],[8.84825191,53.00031438],[8.84822825,53.00028739],[8.84814593,53.00021273],[8.84811927,53.00018773],[8.84791931,52.99994043],[8.84789598,52.99991044],[8.84784899,52.99984445],[8.847827,52.99980946],[8.84777001,52.99970581],[8.84774968,52.99967215],[8.84766004,52.99955417],[8.84763971,52.99952651],[8.84743745,52.99923756],[8.84742079,52.99921357],[8.84736814,52.99909926],[8.84735515,52.99906927],[8.84734749,52.99903894],[8.84734683,52.99901028],[8.84735583,52.99898362],[8.84737316,52.99895963],[8.84741815,52.99891231],[8.84744381,52.99888898],[8.84747614,52.99886898],[8.84755946,52.99883799],[8.84760279,52.998821],[8.84764145,52.99880067],[8.84767244,52.99877734],[8.8476951,52.99875068],[8.84772443,52.99869269],[8.84773642,52.99866103],[8.84777008,52.99852138],[8.84778041,52.99848638],[8.84786836,52.99823708],[8.84788002,52.99820108],[8.84789968,52.99812542],[8.84791001,52.99808743],[8.84797465,52.99789377],[8.84798698,52.99785444],[8.84807993,52.99754049],[8.84809226,52.99750116],[8.84823854,52.99706422],[8.84824987,52.99702156],[8.84832717,52.9967046],[8.8483345,52.9966686],[8.84834083,52.99663261],[8.84834616,52.99659795],[8.84836712,52.99637265],[8.84837178,52.99633932],[8.84838844,52.99627233],[8.84839677,52.99623967],[8.84844305,52.99598305],[8.84844871,52.99595372],[8.84845936,52.9958594],[8.84846302,52.99582807],[8.84849632,52.99562043],[8.84850198,52.9955871],[8.84850931,52.99555344],[8.84853797,52.99548978],[8.84855896,52.99545879],[8.84864561,52.99537481],[8.8486776,52.99534848],[8.84874225,52.99529915],[8.84877491,52.99527382],[8.84885856,52.99522349],[8.84890989,52.9952005],[8.84896622,52.99518084],[8.84902688,52.99516151],[8.8491582,52.99513152],[8.84922553,52.99511853],[8.84935053,52.99509521],[8.84940953,52.99508555],[8.84963184,52.99505358],[8.8496845,52.99504725],[8.84996947,52.99499628],[8.85000713,52.99498495],[8.85006345,52.99495729],[8.85007878,52.99494496],[8.85012344,52.99488697],[8.85013944,52.99486864],[8.85021209,52.99480065],[8.85024142,52.99477399],[8.85027608,52.99474666],[8.85031708,52.99472067],[8.85036374,52.99469668],[8.85041507,52.99467535],[8.85057839,52.9946217],[8.85063305,52.9946077],[8.85137331,52.99444577],[8.85142797,52.99443244],[8.85153396,52.99440311],[8.85158562,52.99438712],[8.85168961,52.99435113],[8.8517386,52.99433047],[8.85178326,52.99430748],[8.85182326,52.99428182],[8.85185792,52.99425349],[8.85191291,52.99419183],[8.85193591,52.9941595],[8.85197923,52.99405918],[8.85198756,52.99402618],[8.85199055,52.99399419],[8.85198056,52.99393254],[8.85196957,52.99390188],[8.85191559,52.99381257],[8.85189126,52.99378358],[8.85178861,52.9936726],[8.85176195,52.9936446],[8.85149967,52.99337864],[8.85147134,52.99334765],[8.85144468,52.99331732],[8.85142035,52.99328799],[8.85133137,52.99316201],[8.85129938,52.99312568],[8.85081677,52.99260572],[8.85077344,52.99255939],[8.8504548,52.99223442],[8.85041014,52.99218842],[8.84998253,52.99174047],[8.8499402,52.99169714],[8.84969989,52.99148716],[8.8496569,52.9914445],[8.84906729,52.99082789],[8.8490313,52.99078956],[8.84893665,52.99067025],[8.84890399,52.99063092],[8.84858337,52.99028129],[8.84854671,52.99024263],[8.84841972,52.99013465],[8.84837939,52.99009966],[8.84815342,52.98988469],[8.84811809,52.98984936],[8.84799444,52.98970472],[8.84796211,52.98966806],[8.84754085,52.98924046],[8.84750886,52.98920713],[8.84740854,52.98909481],[8.84737321,52.98905482],[8.84632672,52.98793762],[8.84628839,52.98789662],[8.84570814,52.98730571],[8.84567181,52.98726905],[8.84534586,52.98692742],[8.84531586,52.98689542],[8.84509891,52.98667847],[8.84506758,52.98664714],[8.84487361,52.98643817],[8.84485128,52.98641117],[8.8440924,52.98562465],[8.84406207,52.98559332],[8.84397342,52.98549534],[8.84394443,52.98546268],[8.84351682,52.98501511],[8.84348649,52.98498412],[8.84334451,52.98482948],[8.84331718,52.98479882],[8.84329152,52.98476749],[8.84326686,52.98473616],[8.84320154,52.98464051],[8.84317788,52.98460852],[8.84301091,52.98442589],[8.84298458,52.98439523],[8.8429216,52.98430425],[8.84290727,52.98427226],[8.84290161,52.98423893],[8.84290561,52.9842066],[8.84291927,52.98417494],[8.8429406,52.98414595],[8.84297093,52.98412129],[8.84305525,52.98408531],[8.84310358,52.98407098],[8.84395554,52.98388374],[8.84400587,52.98387274],[8.84452315,52.98374045],[8.84457614,52.98372745],[8.84511708,52.98360218],[8.84516874,52.98358985],[8.8453154,52.9835602],[8.84535973,52.98355054],[8.84584034,52.98343127],[8.84587,52.98342327],[8.8460913,52.98338331],[8.84612863,52.98337665],[8.84641493,52.98330769],[8.84644426,52.98330403],[8.84647359,52.98330603],[8.84650258,52.98331569],[8.84652724,52.98333135],[8.84654723,52.98335134],[8.84662053,52.98345432],[8.84663819,52.98346998],[8.84666052,52.98347931],[8.84674451,52.98348263],[8.84675317,52.98348263],[8.84671817,52.98352096],[8.84662453,52.98360361],[8.84660254,52.98362594],[8.84658454,52.9836516],[8.84656656,52.9837096],[8.8465649,52.98374093],[8.84656723,52.98377226],[8.84658322,52.98383391],[8.84659688,52.9838629],[8.84661387,52.98388956],[8.84663453,52.98391289],[8.84670285,52.98396355],[8.84672351,52.98398054],[8.8467365,52.9839982],[8.84673683,52.98401353],[8.84672517,52.98402186],[8.84670751,52.98402153],[8.84669218,52.98401153],[8.84668352,52.98399354],[8.84667553,52.98391456],[8.8466652,52.98388456],[8.84656989,52.98373258],[8.84655223,52.98370225],[8.84649792,52.98358527],[8.84648459,52.98355894],[8.84639228,52.98340796],[8.84638328,52.98338463],[8.84638029,52.98336264],[8.84639495,52.98332332],[8.84641128,52.98330932],[8.84643394,52.98329999],[8.84646094,52.98329733],[8.84648694,52.98330133],[8.84651127,52.98331199]]}}]}