{"type":"FeatureCollection","features":[{"type":"Feature","properties":{"name":"20260507 Cicloturismo","time":"2026-05-07T07:56:23Z"},"geometry":{"type":"LineString","coordinates":[[5.78374633,49.80914033,379.73],[5.78458938,49.80973014,389.53],[5.78461738,49.80973814,389.66],[5.7858155,49.80970894,396.46],[5.78584183,49.80971127,396.53],[5.78766045,49.81007987,414.8],[5.78768578,49.8100832,415],[5.78930574,49.80962918,427.46],[5.78933207,49.80962918,427.33],[5.7918721,49.81044591,436.4],[5.79189576,49.81044924,436.46],[5.7946656,49.81028098,450.46],[5.79467893,49.81026432,450.53],[5.79475925,49.80964516,453.53],[5.79475459,49.80962016,453.6],[5.79447966,49.80925855,453.66],[5.79444766,49.80922956,453.6],[5.79122822,49.80722516,468.13],[5.79120156,49.80720783,468.26],[5.79068172,49.80665064,471.46],[5.79068638,49.80662765,471.6],[5.79126491,49.80606949,474],[5.7912949,49.80605683,474],[5.79257269,49.80585571,477.2],[5.79261002,49.80584638,477.13],[5.79366988,49.80533783,466.93],[5.79376821,49.8053035,466.6],[5.79596678,49.80479056,466.26],[5.79604311,49.80475123,466.33],[5.79946205,49.8022577,464.06],[5.79953271,49.80220037,464.2],[5.80045629,49.80116714,469],[5.80047862,49.80112748,469],[5.80078677,49.79985374,474],[5.80078743,49.79982941,474.06],[5.80049314,49.79734795,476.06],[5.80049747,49.79729829,476.06],[5.80099427,49.79555048,474.73],[5.80099194,49.79550515,474.73],[5.80086603,49.79446292,471.2],[5.80084937,49.79441126,470.26],[5.79994192,49.79280914,485.13],[5.79993926,49.79280381,483.66],[5.79966238,49.79115895,445.46],[5.79965105,49.79105062,444.53],[5.79975903,49.79049397,438.8],[5.79981836,49.79038097,437.46],[5.80138464,49.78886738,414.06],[5.80150497,49.78877705,412.53],[5.80367789,49.78752411,398.06],[5.80376855,49.78743345,397.66],[5.80398348,49.78550755,378.8],[5.80401147,49.78538922,377.46],[5.80450276,49.78439992,369.93],[5.80459509,49.78431793,369.33],[5.80508674,49.78406661,366.6],[5.80523507,49.78402595,365.53],[5.80814696,49.78350406,349.13],[5.80819495,49.78347506,348.53],[5.80805296,49.78327342,347],[5.80794663,49.78325942,346.6],[5.80689866,49.78336503,343.66],[5.80676133,49.78334837,343.86],[5.80637736,49.78305506,344.13],[5.80639869,49.78298607,344],[5.80947981,49.78194925,339.93],[5.8095048,49.78191559,340.06],[5.81027151,49.78032326,341.66],[5.81028884,49.78027093,341.6],[5.81094859,49.77753484,330.2],[5.81097858,49.77746785,330.13],[5.81247036,49.7754157,329.26],[5.81249736,49.77536971,329.4],[5.81340586,49.77322121,323.33],[5.81345452,49.77313921,323.53],[5.81474702,49.77230105,325.66],[5.81477035,49.77227639,325.53],[5.81728301,49.76885406,312.13],[5.817322,49.76880306,311.6],[5.81926416,49.76762289,309.66],[5.81929915,49.76759756,309.53],[5.82052766,49.7663874,305.46],[5.82055665,49.76634674,305.53],[5.8228,49.76283214,298.93],[5.82282766,49.76277414,299],[5.82348676,49.75973112,297],[5.82351309,49.75968979,296.86],[5.82630681,49.75736742,288],[5.82632714,49.75732342,287.73],[5.82633124,49.75259859,285.33],[5.8263649,49.75254726,285.13],[5.82880133,49.75012721,301.53],[5.82883966,49.75009721,300.79],[5.83049216,49.7494514,295.13],[5.83051482,49.74942707,295.4],[5.83087261,49.74848991,303.53],[5.83088827,49.74846825,303.4],[5.83343312,49.74555473,305.4],[5.83348378,49.7454774,306.06],[5.83427991,49.74341058,299.06],[5.83430991,49.74335025,299.06],[5.83591053,49.74062726,303.26],[5.83593086,49.7406016,303.26],[5.83937479,49.73868971,301.4],[5.83943579,49.73864271,300.73],[5.84046295,49.73663352,304],[5.84048328,49.73660219,304.33],[5.84162306,49.73560305,304],[5.84164439,49.73557072,304],[5.84178699,49.73511077,304],[5.84178633,49.73506744,304],[5.84151977,49.7340889,302.6],[5.84152143,49.7340479,302.53],[5.84190289,49.73271141,303.53],[5.84190156,49.73267408,303.46],[5.84100805,49.73182489,299.79],[5.84101005,49.7317749,299.4],[5.84222392,49.73029467,292.13],[5.84227225,49.73021868,292.06],[5.84243123,49.72947408,293.33],[5.84244989,49.72943475,293.53],[5.84302916,49.72944638,295.06],[5.84303616,49.72944305,295.26],[5.84518461,49.7303225,300.33],[5.8451966,49.73032549,300.66],[5.84277914,49.72956233,292.2],[5.84270881,49.72956333,292.13],[5.84219496,49.73044686,294],[5.84219562,49.73047652,294],[5.84305849,49.73081574,294],[5.84306115,49.73082074,294],[5.84218762,49.73050219,292.86],[5.84216929,49.73047719,292.73],[5.84243953,49.72945797,293.33],[5.84246819,49.72942331,293.53],[5.84303648,49.7294303,296],[5.84305648,49.72941664,296.2],[5.84862395,49.72515362,313.66],[5.84865861,49.72513396,313.53],[5.85175531,49.72441964,316],[5.85177364,49.72441765,315.86],[5.85427847,49.72463721,312.06],[5.85436947,49.72465154,312.13],[5.8556174,49.72506748,312.66],[5.85569373,49.72510014,312.79],[5.85706893,49.72603933,316.33],[5.85711726,49.72606399,316.13],[5.8593741,49.72679148,317.53],[5.8594381,49.72681781,317.73],[5.86198312,49.7282618,327.33],[5.86201278,49.72827646,327.66],[5.8625886,49.72888663,332.26],[5.86261593,49.72890863,332.6],[5.86552282,49.73079921,313.13],[5.86558181,49.73082954,313.06],[5.86902755,49.73180696,330.4],[5.86911388,49.73181095,329.2],[5.87341064,49.73150654,306.06],[5.8734953,49.73149655,306],[5.87561084,49.73102504,306.13],[5.87568284,49.73101838,306.2],[5.87743771,49.73110299,306],[5.87751171,49.7311,306],[5.88138281,49.73078687,303.4],[5.8814548,49.73077287,303.4],[5.88329966,49.73036134,304.26],[5.88334665,49.73034435,304.4],[5.88367152,49.72986081,307.66],[5.88370185,49.72984015,307.53],[5.88467476,49.72957556,310.6],[5.88474042,49.7295609,310.26],[5.8888055,49.72917443,302.66],[5.8888835,49.72915243,302.86],[5.89121193,49.72784699,307.66],[5.8911756,49.72785299,307.6],[5.89240049,49.72740107,300.53],[5.89248782,49.72737107,300.06],[5.89457906,49.72708916,294.4],[5.89469705,49.72706216,294.26],[5.8987614,49.72577245,303.33],[5.89879973,49.72575012,303.53],[5.89989254,49.72504228,305],[5.89993287,49.72505261,305],[5.89903233,49.72440445,306.73],[5.89903366,49.72439812,306.73],[5.89970822,49.72494603,305.46],[5.89974988,49.72496302,305.46],[5.90008384,49.72481371,305.4],[5.9001265,49.72477638,305.33],[5.90541215,49.71938205,319],[5.90543848,49.71935306,318.79],[5.90588232,49.7182292,302.6],[5.90588665,49.71818454,302.46],[5.90584236,49.71751096,302.93],[5.90583203,49.71747297,303.06],[5.90546115,49.7166911,305.66],[5.90543849,49.71665777,306.13],[5.90362406,49.71516134,323.33],[5.90358673,49.71512601,323.93],[5.9029232,49.71427478,324.66],[5.90290354,49.71423745,323.93],[5.90136672,49.70901366,327.73],[5.90135972,49.70897533,328],[5.90163219,49.70669931,352.66],[5.90163852,49.70666065,353.33],[5.90343724,49.69772259,329.4],[5.9034419,49.69769193,330.46],[5.90373918,49.69758565,329.2],[5.90375784,49.69756399,327.4],[5.90403745,49.6969357,312.6],[5.90406911,49.69686137,312.33],[5.9041348,49.69549445,306],[5.90416979,49.69542012,305.2],[5.90519904,49.69429987,303.33],[5.90521437,49.69424321,303.33],[5.90335559,49.69215574,313],[5.90332959,49.69212308,313.79],[5.90240118,49.69064837,330.73],[5.90238585,49.69061971,330.26],[5.90216107,49.68924898,321.26],[5.90215841,49.68920965,320.53],[5.90234866,49.68831109,310.66],[5.90239565,49.68826643,310.06],[5.90433458,49.68780188,298.66],[5.90444324,49.68776155,297.93],[5.90542017,49.68703297,291.26],[5.90549917,49.68702464,291.33],[5.91027523,49.68745175,287.2],[5.91037123,49.68745941,286.86],[5.91194015,49.6873578,285.26],[5.91203448,49.68736446,285.2],[5.91349507,49.68763569,282.66],[5.9135514,49.68763036,282.6],[5.91573118,49.68554124,273.06],[5.91580551,49.68552925,273.13],[5.91667213,49.68562621,274.13],[5.91674079,49.68564654,274.33],[5.91898452,49.68647095,281.73],[5.91903351,49.68647761,281.79],[5.92101669,49.68663277,276.6],[5.92109668,49.68663377,276.33],[5.92278427,49.68647686,272.06],[5.92288193,49.6864522,272.06],[5.92338222,49.68605558,272.79],[5.92340922,49.68599625,273],[5.9234259,49.68521297,273.66],[5.92340157,49.68516064,273.46],[5.92161009,49.68389915,274.86],[5.9215691,49.68386782,275],[5.92125882,49.68340421,276],[5.92125049,49.68335888,276.2],[5.9215831,49.68244465,293.46],[5.92161909,49.68239999,293.6],[5.92250837,49.68180843,282.2],[5.92258637,49.68177877,281.13],[5.9273281,49.68092106,278.6],[5.9273941,49.6809014,278.73],[5.92988555,49.67951228,286.06],[5.92994154,49.67948395,286],[5.93075649,49.67925033,286.13],[5.93083582,49.67923967,286.06],[5.93234474,49.6792543,288.79],[5.9324284,49.67926329,289],[5.93495457,49.67971014,271.73],[5.93502223,49.67971514,271.33],[5.93880398,49.67963041,277.46],[5.93887731,49.67961575,276.93],[5.93971092,49.67938214,271.26],[5.93976658,49.67935081,271.13],[5.94124936,49.67794,276.53],[5.94129436,49.67790667,277.46],[5.94215231,49.67764706,287.79],[5.94223197,49.67763573,288.26],[5.94365021,49.67769173,288.33],[5.9437222,49.67771306,289.13],[5.94549173,49.67868727,282.6],[5.94553772,49.67867961,283.26],[5.94686549,49.67797552,294.79],[5.94688415,49.67796352,295.2],[5.94789579,49.67713452,298.53],[5.94791045,49.67712619,298.46],[5.94969704,49.67644123,317],[5.94970637,49.6764359,317.33],[5.95017002,49.67611526,318.6],[5.95017368,49.67610493,318.79],[5.95083116,49.67279767,317.53],[5.95083482,49.67271734,316.79],[5.95066187,49.67156072,307],[5.95062921,49.67145506,306.26],[5.94986895,49.66995717,301.79],[5.94987261,49.66995317,302],[5.95581741,49.67041974,303.86],[5.95589574,49.67041974,303.93],[5.95917983,49.6699153,305.79],[5.95923116,49.66991064,305.86],[5.96159788,49.6701504,316.66],[5.96164287,49.6701504,316.73],[5.96402691,49.66987472,321],[5.96407624,49.66986739,321],[5.96886015,49.66841649,322.86],[5.96891181,49.6683975,323],[5.97147755,49.66709178,323.33],[5.97152888,49.66706879,323.33],[5.97356402,49.66634302,327.93],[5.97361568,49.66631636,327.8],[5.97973345,49.66160289,314.4],[5.97977511,49.6615659,314.66],[5.98095115,49.65982582,322.73],[5.98096681,49.65980082,322.66],[5.98169823,49.65807436,321.73],[5.98172222,49.65803737,321.86],[5.98337456,49.65635934,327.13],[5.98340322,49.65633668,326.93],[5.98631202,49.65486255,316.26],[5.98641001,49.65481856,316.86],[5.9898481,49.65348913,320.4],[5.98988143,49.65347214,320.4],[5.99364291,49.65098036,319.53],[5.99367057,49.6509457,319.46],[5.99114185,49.650181,322.2],[5.99114119,49.65018,321.73],[5.99184902,49.64893782,315.13],[5.99186502,49.64887949,315.2],[5.99181107,49.64726067,317.6],[5.9918134,49.64722734,317.66],[5.99201435,49.64693438,318],[5.99201002,49.64689838,318],[5.99168251,49.64584456,317.79],[5.99167118,49.64580923,317.73],[5.99146987,49.64572326,317.26],[5.99146621,49.6457156,317.2],[5.99174682,49.64557499,317.26],[5.99173816,49.64556066,317.33],[5.99086758,49.6450761,319.13],[5.99083925,49.64505011,319.2],[5.99011341,49.64392696,316],[5.99011242,49.64389996,316.06],[5.99073268,49.64377436,314.73],[5.99075934,49.6437517,314.33],[5.99116725,49.64281677,307.2],[5.99120591,49.64276044,306.86],[5.99225017,49.64221382,303.93],[5.99230317,49.64216149,303.66],[5.99273011,49.64132522,301.33],[5.99277344,49.64126323,301.33],[5.99361937,49.64032463,304.93],[5.99368036,49.64027797,305.33],[5.99658119,49.63964186,296.13],[5.99661152,49.63961453,295.79],[5.99632828,49.63826804,301.26],[5.99635261,49.63821838,301.26],[5.99781083,49.63723519,306],[5.99781916,49.6371952,305.79],[5.99704658,49.63686161,305.33],[5.99701892,49.63683595,305.6],[5.99722989,49.63644367,305.33],[5.99727589,49.63641834,305.13],[5.99883477,49.63605309,304.53],[5.99889643,49.63603209,304.53],[6.00229258,49.63469252,303.93],[6.00232824,49.63467819,303.73],[6.01542965,49.62904778,296.73],[6.01550531,49.62901412,297],[6.01793061,49.62783475,306.4],[6.01796061,49.62781642,306.46],[6.01984002,49.62614767,304.93],[6.01989535,49.62612234,305],[6.02145253,49.62643658,301.13],[6.02148786,49.62642359,301.06],[6.02249134,49.6251371,294],[6.02252867,49.62507744,293.93],[6.0231539,49.62366657,293.2],[6.02317623,49.62362424,293.4],[6.02365249,49.62315698,294.46],[6.02369048,49.62313665,294.4],[6.0247154,49.62309102,295.46],[6.02477306,49.62308336,295.6],[6.02880859,49.62195949,301.79],[6.02884259,49.6219505,301.93],[6.03077699,49.62166643,304.4],[6.03084832,49.62164944,304.26],[6.03453546,49.62044798,299.06],[6.03464512,49.62042432,299.13],[6.03646997,49.62056253,303.86],[6.0364973,49.6205612,303.93],[6.03662327,49.62028895,303.86],[6.0366446,49.62027029,303.79],[6.03700689,49.62024529,303.13],[6.03704655,49.62024662,303.06],[6.03732915,49.62057889,302.53],[6.03737181,49.62060022,302.53],[6.03820176,49.62064249,303.86],[6.03828675,49.62064116,304.06],[6.04056313,49.62029778,313.2],[6.04058146,49.62029512,313.33],[6.04191824,49.61989169,317],[6.04195124,49.61987769,317],[6.04712512,49.61748384,315],[6.04720178,49.61746885,315],[6.05222207,49.61746408,309.33],[6.05231973,49.61747041,309.2],[6.05944659,49.61836197,308.79],[6.05951525,49.6183703,308.66],[6.06492756,49.61866297,309.33],[6.0649009,49.61865931,309.4],[6.0629084,49.6185531,309.79],[6.06294206,49.61854611,309.73],[6.0637193,49.61857702,309.2],[6.06378596,49.61859902,309.26],[6.06366105,49.61895825,310.2],[6.06364505,49.61896791,310.26],[6.06192261,49.61899815,310.26],[6.06186862,49.61900581,310.2],[6.06167194,49.61927611,310.26],[6.06162994,49.61929577,310.26],[6.06185158,49.61901183,309.93],[6.06191591,49.61900017,309.86],[6.06338714,49.61907417,309.79],[6.06343947,49.61906551,309.66],[6.06392036,49.61859995,309.33],[6.06396202,49.61859629,309.33],[6.0650899,49.61890219,308.6],[6.06510623,49.61890685,308.53],[6.06536917,49.6186949,308.33],[6.0654275,49.61869523,308.4],[6.07077347,49.61909725,307.86],[6.07083413,49.61909991,307.79],[6.07414027,49.61898739,307.13],[6.07422893,49.6189814,307.06],[6.0807154,49.61814888,315.93],[6.08076773,49.61814022,316],[6.08501672,49.61709191,313.86],[6.08507771,49.61707825,313.93],[6.09513754,49.61507455,319.86],[6.09519287,49.61505922,319.93],[6.09759901,49.61428578,315.66],[6.09763067,49.61425579,315.33],[6.0975948,49.61242129,308.66],[6.09764213,49.61239763,308.73],[6.10145555,49.6122665,303.46],[6.10151455,49.61225184,303.26],[6.10189678,49.61155328,303.13],[6.10192811,49.61153395,303.2],[6.10379429,49.61110544,301.53],[6.10384829,49.61108311,301.53],[6.10589579,49.60986232,306.73],[6.10590179,49.60985633,306.93],[6.10781053,49.61039449,310.26],[6.10785186,49.61040348,310.73],[6.10893877,49.61045205,309.33],[6.10900276,49.61045238,309.26],[6.11781914,49.61013965,306.33],[6.1179068,49.61013532,306],[6.11882608,49.6100527,302.4],[6.11890174,49.61003704,302.13],[6.1193323,49.60959381,308.4],[6.11937529,49.60959048,308.6],[6.12411961,49.6103021,310.4],[6.12416561,49.61030144,310.93],[6.12438054,49.60976755,312.6],[6.12438054,49.60976422,312.33],[6.12507853,49.61043322,312.06],[6.12594426,49.61050606,310.4],[6.12595192,49.61050207,309.79],[6.12594723,49.61071002,303.66],[6.12594989,49.61071468,303.13],[6.12641683,49.61091221,311.4],[6.12664316,49.61115487,312.2],[6.12665749,49.6111562,312.86],[6.12706848,49.6108102,313.53],[6.12768668,49.61082254,315],[6.12770934,49.61082287,315],[6.1303237,49.61126157,309.4],[6.13033269,49.61126323,308.86],[6.13038102,49.6109899,308.33],[6.13038935,49.61096091,308.13],[6.13149383,49.61089465,309],[6.13151083,49.61089066,309],[6.13209522,49.61013462,307],[6.13211488,49.61012129,307],[6.13291136,49.60974678,302.4],[6.13294902,49.60973445,302.33],[6.13340394,49.60976241,297.73],[6.1334106,49.60976208,297.2],[6.13398766,49.60836398,291.33],[6.13400132,49.60834665,290.86],[6.13390368,49.60932744,284.79],[6.13390434,49.6093291,285],[6.13406026,49.60829738,292],[6.1340596,49.60829239,291.73],[6.13387698,49.60868101,281.4],[6.13387099,49.60872667,280.86],[6.13393496,49.60884865,278.53],[6.13410462,49.60900531,278.2],[6.13399534,49.60967657,268.93],[6.134026,49.60968723,268.2],[6.13504213,49.60847243,252.06],[6.13506913,49.6084571,251.46],[6.13602366,49.60880131,251.2],[6.13605499,49.60879798,251.53],[6.13699052,49.60828278,251.13],[6.13703485,49.60826378,250.73],[6.13798076,49.60805987,254.06],[6.13802242,49.60805787,254.06],[6.13898896,49.60811846,253.86],[6.13902462,49.60812579,254.2],[6.13949019,49.60840769,256.33],[6.13948786,49.60841135,256.33],[6.13958984,49.60826837,256.86],[6.13959417,49.60826371,257.53],[6.13946554,49.60837665,260.93],[6.13946321,49.60838531,260.79],[6.13964519,49.60855228,258.79],[6.13967952,49.60857661,257.86],[6.14033847,49.60862027,253],[6.1403938,49.6086416,252.73],[6.1421599,49.60966437,258.6],[6.14219889,49.60967737,258.4],[6.14401908,49.60995223,266.79],[6.14403374,49.60995389,266.73],[6.14698773,49.60940283,262.86],[6.14703306,49.6093925,262.79],[6.14876291,49.60883365,258],[6.14884657,49.60881799,258.33],[6.15064144,49.60891727,256.06],[6.1506601,49.60891561,256.79],[6.15136467,49.60832537,255.6],[6.15138733,49.60826838,255.46],[6.15143297,49.60785274,257.4],[6.15142331,49.60779441,257.46],[6.15117602,49.60737511,262.33],[6.15112636,49.60733045,263],[6.14502919,49.60427001,269.26],[6.14496519,49.60423435,268.73],[6.1439773,49.60323248,253.13],[6.14394997,49.60317849,253.13],[6.14390631,49.60274852,254.33],[6.14391964,49.60269353,254.46],[6.14417861,49.60227791,255.8],[6.14423194,49.60223225,255.8],[6.14669266,49.60093787,260.53],[6.14676799,49.60092987,260.53],[6.14820489,49.60110384,267.86],[6.14827822,49.60112483,267.66],[6.15210194,49.60249556,271],[6.15218193,49.60251522,271.26],[6.15624034,49.60306764,266.06],[6.156322,49.60308097,266.13],[6.15773722,49.60348354,259.2],[6.15780088,49.6035152,258.86],[6.15909342,49.60443804,257.46],[6.15913842,49.60447903,257.46],[6.15980933,49.60534561,268.13],[6.15984666,49.60539627,268.33],[6.16087672,49.6079497,263.2],[6.16091238,49.60799369,262.79],[6.16197896,49.60857292,275.93],[6.16204962,49.60858658,275.93],[6.1638601,49.60835637,268.13],[6.1638951,49.60834537,268.33],[6.16658685,49.60660594,263.46],[6.16666018,49.60656928,263.46],[6.16935103,49.60602577,264],[6.16943003,49.60599777,264],[6.17062558,49.60502255,274.93],[6.17065324,49.60497922,275.6],[6.17075189,49.60377568,286.79],[6.17073123,49.60372302,286.26],[6.16964272,49.60253881,281.4],[6.16958906,49.60250881,281],[6.16817219,49.60197828,278.26],[6.16810286,49.60196428,278.4],[6.16378214,49.60136861,281],[6.16371481,49.60134895,281.93],[6.16290721,49.60099168,282.33],[6.16285188,49.60095835,281.86],[6.16176832,49.60010345,278.93],[6.16172066,49.60006212,278.2],[6.16101107,49.59924019,281.93],[6.16098374,49.5991922,282.4],[6.16053455,49.59784665,268.6],[6.16052989,49.59779132,268.6],[6.16144036,49.59584851,282.46],[6.16145636,49.59580052,282.6],[6.16138871,49.5950516,273.79],[6.16135571,49.5950066,273.46],[6.1572401,49.59202261,255.46],[6.15720577,49.59198761,255.26],[6.15670719,49.59129536,265.26],[6.15668353,49.5912467,266.2],[6.1561167,49.5896072,288.2],[6.15608804,49.58955387,288.33],[6.15551244,49.58891825,291.6],[6.15546111,49.58887626,292],[6.15358588,49.58788742,278.86],[6.15351289,49.58785509,277.86],[6.14951748,49.58629569,271.33],[6.14945448,49.58625736,271.13],[6.14867958,49.58546745,269.13],[6.14864659,49.58541579,269.26],[6.14840065,49.58448787,271.86],[6.14840531,49.58443021,272.53],[6.150422,49.58134347,270],[6.150476,49.58129214,269.4],[6.15138995,49.58063522,271.06],[6.15146394,49.58059389,271.79],[6.15343282,49.5797557,278.66],[6.15350748,49.57971504,278.33],[6.1542021,49.57913077,278.53],[6.15424376,49.57907544,279.13],[6.15484797,49.5773359,282.2],[6.15485063,49.57727457,282.4],[6.1543088,49.57545473,275.86],[6.15429847,49.5754014,274.66],[6.15440143,49.57479711,265.46],[6.15443009,49.57474545,265.79],[6.15498502,49.57418819,265.33],[6.15504701,49.57414586,265.26],[6.15601627,49.57366759,263.53],[6.15605626,49.57364493,263.46],[6.15643653,49.57298002,261.26],[6.15648619,49.57293702,261.13],[6.15701747,49.5727214,261.06],[6.1570508,49.57268607,261.06],[6.15709345,49.57148586,263.46],[6.15710178,49.5714442,263.46],[6.1575767,49.57073628,262.06],[6.15761369,49.57069895,262],[6.1587259,49.57028604,262.33],[6.15872923,49.5702887,262.33],[6.15865427,49.57015407,262.73],[6.15866226,49.57013874,262.73],[6.15977044,49.56952056,262.86],[6.1598131,49.56949223,262.93],[6.16011502,49.56906499,265.13],[6.16014668,49.56904633,265.26],[6.16092459,49.56897935,268.33],[6.16094459,49.56896502,268.53],[6.16100959,49.5669649,266.86],[6.16102192,49.56690924,266.79],[6.16179843,49.56512505,266.4],[6.16182309,49.56508806,266.4],[6.16649605,49.56016074,283.53],[6.16648739,49.56017373,283.66],[6.17024683,49.55532128,284.46],[6.17027782,49.55527162,284.2],[6.17280895,49.5506352,292.53],[6.17282828,49.55059821,292.73],[6.17414885,49.54730702,297.06],[6.17415851,49.54728336,297.2],[6.17423944,49.54660846,300],[6.17423611,49.54656646,299.79],[6.17396327,49.54502259,285.06],[6.17395994,49.54494993,284.66],[6.17412357,49.54413063,280],[6.17415723,49.5440523,279.66],[6.18038817,49.53202196,254.4],[6.18038284,49.5319843,254.4],[6.17806808,49.53061789,262.2],[6.17805942,49.53060989,262.6],[6.17681832,49.52913714,262.26],[6.17679633,49.52910215,262],[6.17675302,49.5283689,265.46],[6.17674103,49.52833057,266],[6.17633713,49.52772967,274.66],[6.17630347,49.52770001,274.86],[6.17344548,49.52634169,275.79],[6.17340515,49.52632003,275.46],[6.17022926,49.52418616,274.06],[6.1701936,49.52417017,274.33],[6.16594776,49.52314131,282.86],[6.16589077,49.5231453,283.4],[6.15899286,49.52505765,291.93],[6.15894753,49.52505699,292.06],[6.1587449,49.52372512,289.86],[6.15870157,49.52366012,288.73],[6.15687938,49.52197594,272.33],[6.15682138,49.52192195,272.2],[6.15567953,49.52130377,284.13],[6.15565553,49.52128144,284.93],[6.1564507,49.51995163,280.53],[6.15645836,49.51990663,279.66],[6.15600642,49.51943867,272.33],[6.15598576,49.51939367,271.79],[6.15598908,49.51839642,257.6],[6.15600007,49.51835842,257],[6.15702596,49.51783721,252.13],[6.15703462,49.51780688,252],[6.15555191,49.51632283,255],[6.15553791,49.51628784,255],[6.15605545,49.51392169,265.46],[6.15605978,49.51390403,265.53],[6.15755255,49.51151992,251.6],[6.15758921,49.51145093,251.46],[6.1586251,49.50894508,257.2],[6.15863409,49.50892775,257.4],[6.15958515,49.50783033,259.86],[6.15958249,49.50778234,259.93],[6.1557803,49.50624349,264.26],[6.15572497,49.50622549,264.13],[6.15065506,49.50489385,259.33],[6.15065273,49.50485886,259.2],[6.15220149,49.50288908,260.46],[6.15223115,49.50285842,260.13],[6.15378502,49.50177887,260.4],[6.15381801,49.50174021,260.6],[6.15684268,49.49730927,262.26],[6.15690968,49.49724161,262.13],[6.15808694,49.49636167,263],[6.15816627,49.49632101,263.26],[6.15970085,49.49587611,265],[6.15974718,49.49584811,265],[6.16099529,49.49463434,267.93],[6.16102628,49.49461035,268],[6.16231704,49.49390557,271],[6.16234003,49.49388924,271],[6.16244632,49.49357863,268.79],[6.16243566,49.4935303,268.4],[6.16062417,49.49138779,266.86],[6.16055184,49.4913378,266.53],[6.15428405,49.48844795,272],[6.15422772,49.48840762,272.26],[6.15182714,49.48601799,279.33],[6.15178315,49.48597033,279.06],[6.15075462,49.48443151,276.33],[6.15075163,49.48442718,276.13],[6.15014736,49.48415496,270.53],[6.15015202,49.4841513,270.13],[6.14553568,49.48402333,261.6],[6.14553135,49.48402234,261.73],[6.14622574,49.48222927,276.79],[6.14623974,49.48221061,277],[6.14759916,49.48164687,280],[6.14762716,49.48163321,279.79],[6.14780144,49.48137726,276.79],[6.14780643,49.48135493,276.6],[6.14772081,49.48084203,276.26],[6.14769682,49.4808097,276.33],[6.146367,49.47953921,267.93],[6.14634667,49.47948555,267.4],[6.14671722,49.47812969,261.06],[6.14674121,49.47807903,261.33],[6.14727717,49.47766242,264.06],[6.14733583,49.47763742,264],[6.14919394,49.47703826,273.6],[6.14922393,49.47702326,274.06],[6.14947819,49.476621,277.13],[6.14947253,49.47659001,277.4],[6.14890869,49.47552117,281],[6.1488647,49.47548751,280.86],[6.1467992,49.474685,277.79],[6.1467452,49.47465601,277.53],[6.14565802,49.4737445,274.4],[6.14562936,49.4737005,274],[6.1447072,49.47063036,241.93],[6.14468954,49.47054337,240.4],[6.1446629,49.4700404,233.46],[6.14468689,49.46996207,232.8],[6.14500552,49.46951911,230.73],[6.14497919,49.46946945,230.73],[6.14280501,49.4664586,231.66],[6.14274568,49.46639594,231.46],[6.13956232,49.4640789,227],[6.13953933,49.46403224,227],[6.13944644,49.46311868,226.26],[6.13944944,49.46308002,226.2],[6.13988397,49.46163125,230.13],[6.13986864,49.46160759,230.26],[6.13715372,49.46109266,232.13],[6.13713639,49.461074,232],[6.13761993,49.46022648,231.33],[6.13763492,49.46019015,231.46],[6.13807764,49.45817852,238.8],[6.13808263,49.45815386,238.93],[6.13795541,49.45668612,241.26],[6.13795142,49.45665912,241.26],[6.13625034,49.4533644,239],[6.13623801,49.45333507,239],[6.13607888,49.45193977,245],[6.13607589,49.45192111,245],[6.13564342,49.45059073,243.8],[6.13563276,49.4505624,243.73],[6.13421425,49.44990423,240.6],[6.13421192,49.4498659,240.6],[6.13507108,49.44811043,235.73],[6.13508641,49.44804677,235.53],[6.13501382,49.44608559,227.66],[6.13502282,49.44600426,227.33],[6.13564504,49.44423872,222.73],[6.1356657,49.44416406,222.66],[6.13574931,49.44322713,217.4],[6.13577031,49.44314447,216.6],[6.13678119,49.44113725,206.46],[6.13683319,49.44105526,206.6],[6.13731916,49.44058997,206.66],[6.13740049,49.44053898,206.73],[6.13904239,49.43983274,212.93],[6.13910905,49.43979808,213.13],[6.14193945,49.43795068,209.6],[6.14200844,49.43789868,209.26],[6.14372388,49.4358205,207.6],[6.14375987,49.43576017,207.6],[6.14397578,49.431184,198],[6.14400778,49.43114034,198],[6.14556929,49.42999247,195.66],[6.14561328,49.42994647,195.66],[6.1465124,49.42812301,196.73],[6.1465454,49.42807535,196.93],[6.14880933,49.42535408,201.2],[6.14883866,49.42532342,200.86],[6.15026691,49.42476017,191.86],[6.1503609,49.42470117,191.53],[6.15430458,49.42140546,187.46],[6.15435524,49.42137213,187.6],[6.15561714,49.42107492,191.73],[6.15565314,49.42104626,191.86],[6.15554495,49.41924746,194.26],[6.15557328,49.4192198,194.53],[6.15760441,49.41935465,200],[6.15762007,49.41933199,200],[6.15766266,49.41850212,201],[6.15765833,49.41846813,201],[6.1572475,49.41717464,203.13],[6.15725349,49.41713331,203.26],[6.15829802,49.41693507,203.66],[6.15829236,49.41691108,203.6],[6.15233287,49.40755001,187.86],[6.1523452,49.40747835,187.4],[6.15260818,49.40724303,185.53],[6.15272684,49.40721037,185.13],[6.15433808,49.40715278,183.2],[6.15438474,49.40715212,183.33],[6.15537531,49.40746605,180.33],[6.15543564,49.40743806,179.66],[6.15729117,49.40598622,175.26],[6.1573345,49.40593889,175.2],[6.15772275,49.404753,174.53],[6.15775741,49.40472701,174.53],[6.15849297,49.40497825,174.13],[6.1585203,49.40496492,174],[6.16006902,49.40304253,172.26],[6.16010768,49.40301087,172.33],[6.1632093,49.40162293,174.53],[6.16322696,49.40160193,174.53],[6.16253672,49.40117769,174.93],[6.16248273,49.40116036,174.86],[6.16118651,49.40097575,173.53],[6.16116285,49.40094575,173.53],[6.16167343,49.40033053,174.4],[6.16169776,49.40030787,174.4],[6.16214832,49.40011464,173.33],[6.16216232,49.40009898,173.4],[6.16236923,49.39937046,171.26],[6.16237089,49.3993658,171.06],[6.16162031,49.3990759,168.4],[6.16161132,49.39903357,168.4],[6.16607762,49.39404398,165.33],[6.16610362,49.39401299,165.4],[6.16603231,49.39366704,165.4],[6.16603997,49.39363105,165.33],[6.16787563,49.3916214,175.4],[6.16789829,49.39159241,175.6],[6.16847037,49.39029828,176.26],[6.16847937,49.39026262,176.33],[6.16827498,49.38484052,173.46],[6.16827298,49.38481552,173.4],[6.16917339,49.38184342,161.39],[6.16918238,49.38174609,161.53],[6.16936001,49.37812738,156.26],[6.16936634,49.37807438,156.39],[6.16924163,49.3737667,154.46],[6.16925329,49.37372837,154.46],[6.16949325,49.37348475,154.6],[6.16954358,49.37348242,154.66],[6.17165512,49.37386359,153.73],[6.17170845,49.37386958,153.6],[6.17227904,49.37338831,152],[6.17233303,49.37336465,152],[6.17309665,49.37341763,152.26],[6.17314231,49.37338863,152.33],[6.17640983,49.36877447,153.46],[6.17642516,49.36872981,153.6],[6.17311311,49.36639082,157.06],[6.17309412,49.36636449,156.93],[6.17432298,49.36545596,153.13],[6.17436264,49.3654183,153.26],[6.17542078,49.36409283,154.26],[6.17541245,49.36405584,154.33],[6.17333768,49.36288178,154.86],[6.17332202,49.36286712,154.8],[6.17392792,49.36230353,157.93],[6.17391293,49.36226553,157.93],[6.17107321,49.36016391,154.33],[6.17104955,49.36014525,154.2],[6.17113886,49.35993128,153.46],[6.17113487,49.35989628,153.46],[6.17024174,49.35843649,156.8],[6.17022174,49.35841149,156.73],[6.17031737,49.35826219,156.86],[6.17029804,49.35823219,156.8],[6.16885958,49.35709774,156.39],[6.16884525,49.35707841,156.46],[6.17030377,49.35838088,156.66],[6.17031643,49.35839954,156.33],[6.17057971,49.35829326,154.53],[6.17055871,49.3582686,154.33],[6.16875695,49.35691679,154.2],[6.16870995,49.35688379,153.93],[6.16636187,49.35558171,156.13],[6.16631854,49.35555238,156.2],[6.16396057,49.3536954,148],[6.16391758,49.3536664,147.86],[6.16153679,49.35227261,161.73],[6.16148146,49.35223328,163.13],[6.16079353,49.35152636,158.33],[6.16076587,49.35148803,157.53],[6.16046528,49.35081112,150.8],[6.16045329,49.35077046,150.6],[6.1604696,49.34964657,150.6],[6.1604806,49.34960424,150.73],[6.1612524,49.3483541,160.26],[6.16126406,49.34832744,159.39],[6.16126237,49.34771354,152.2],[6.1612647,49.34768054,152.06],[6.16240723,49.34657738,155.53],[6.16244889,49.34653605,155.46],[6.16366646,49.34608982,153.66],[6.16371812,49.34605516,153.66],[6.16508855,49.34476309,156.13],[6.16511021,49.34474976,156.06],[6.16685136,49.34531594,156.73],[6.16691135,49.34528961,156.6],[6.16920414,49.34361052,157.46],[6.16924147,49.34356886,157.33],[6.16966607,49.34289723,156.73],[6.16968573,49.3428499,156.8],[6.16986596,49.34198831,157.66],[6.16986596,49.34193565,157.73],[6.16816923,49.33679621,158.2],[6.16816057,49.33674655,158.13],[6.16715169,49.3255896,156.86],[6.1671477,49.32553627,156.8],[6.16744853,49.32361314,157.2],[6.16746253,49.32356348,157.06],[6.16832865,49.3217207,157],[6.16833864,49.32168604,157.13],[6.16740508,49.32099482,159.46],[6.16740774,49.32092716,159.39],[6.16855523,49.31888467,153.46],[6.16857389,49.31882901,153.39],[6.16858525,49.31721315,159.39],[6.16857392,49.31716549,159.73],[6.16648465,49.31376456,163.06],[6.16643765,49.31371257,162.66],[6.16272164,49.31153693,156.13],[6.16267131,49.31150493,156.33],[6.16157945,49.31056171,160.13],[6.16154246,49.31052105,160.26],[6.16075261,49.30924055,157.93],[6.16073062,49.30919122,157.93],[6.16034475,49.30780669,158.8],[6.16035141,49.30775036,157.53],[6.16064361,49.30617518,156.53],[6.1606626,49.30612885,156.26],[6.16181577,49.30440434,156.66],[6.16185176,49.30435434,156.53],[6.16353754,49.30243586,159.6],[6.1635802,49.3023932,159.53],[6.16418615,49.30211724,156.33],[6.16423048,49.30208258,156.06],[6.16596894,49.30007779,156.66],[6.16601893,49.30003446,156.53],[6.17061225,49.2970281,157.66],[6.17068124,49.2969901,157.6],[6.17634723,49.29458579,162.33],[6.17642289,49.29455013,162.2],[6.17870102,49.29311299,153.6],[6.17874568,49.29307066,153.73],[6.18085936,49.29020297,158.33],[6.18089136,49.29014464,158.13],[6.18149157,49.2887884,156],[6.1815119,49.28872874,156.13],[6.18185276,49.28723588,159.13],[6.18186442,49.28717855,158.93],[6.18184245,49.28542236,157.73],[6.18183512,49.2853547,157.86],[6.18154921,49.28427044,157.6],[6.18154355,49.28420344,157.53],[6.18161596,49.28042718,158],[6.18161263,49.28038018,158.26],[6.18126552,49.27905767,163],[6.18126386,49.27903267,163],[6.18253336,49.27875439,161.26],[6.18254169,49.27871606,161],[6.1822001,49.27791579,158.73],[6.18219377,49.27785179,158.6],[6.18109048,49.26223071,162],[6.18108315,49.26217438,161.66],[6.18076573,49.25274356,160.53],[6.18076706,49.2526939,160.6],[6.1809788,49.24907655,163],[6.18098413,49.24902289,163],[6.1821572,49.2420879,162.46],[6.18216653,49.24203757,162.06],[6.1827363,49.23941479,160.53],[6.18274896,49.23935946,160.66],[6.18307288,49.2386962,161.39],[6.18307954,49.23866587,161.39],[6.18408068,49.23074028,161.6],[6.18408334,49.23069128,161.66],[6.18388772,49.23026798,161.2],[6.18387372,49.23020865,161],[6.18396302,49.22973436,160.13],[6.18396169,49.22967836,160.06],[6.18266339,49.21790854,166],[6.18266173,49.21788754,166],[6.18235319,49.21663165,161.73],[6.18234286,49.21655599,161.73],[6.18103982,49.20551722,162.46],[6.18103316,49.20549622,162.39],[6.18114135,49.20595311,162],[6.18115668,49.20599177,162.13],[6.18136498,49.20604276,162.86],[6.18137631,49.20602643,162.93],[6.18121712,49.2045939,162.13],[6.18121079,49.20453524,162.2],[6.18055444,49.20104551,161.86],[6.18055877,49.20099418,161.73],[6.18109538,49.20049324,162],[6.18117671,49.20047424,162.06],[6.18436683,49.20016466,164.2],[6.18441516,49.20013433,164.33],[6.18480175,49.19953673,163.86],[6.18481808,49.19948974,163.8],[6.18558902,49.19650072,163.39],[6.18560668,49.19646139,163.33],[6.18667988,49.19522422,161.73],[6.18672954,49.19519089,161.6],[6.18841308,49.19506421,162.8],[6.18849674,49.19504755,162.86],[6.19115057,49.1942634,162.8],[6.19117257,49.19421141,162.86],[6.19016167,49.19286389,162.8],[6.19013334,49.19281689,162.73],[6.18987314,49.19188197,163.13],[6.18984281,49.19183898,163.06],[6.18861329,49.19094611,162.2],[6.18858896,49.19090778,162.26],[6.18887359,49.19052817,162.53],[6.18885393,49.19048684,162.53],[6.18757674,49.18963996,163.33],[6.18753841,49.18960197,163.6],[6.18658988,49.18818612,163.6],[6.18654022,49.18813912,163.66],[6.18615724,49.18802547,164],[6.18607558,49.18803013,164],[6.18519403,49.18821806,165.2],[6.18514403,49.1882144,165.2],[6.18431944,49.18792114,162.26],[6.18427645,49.18787181,162.13],[6.18427042,49.18609428,162],[6.18427775,49.18605695,162],[6.18484502,49.18604594,161.6],[6.18488435,49.18603528,161.6],[6.18584323,49.18555469,163.06],[6.18589989,49.18551969,163.13],[6.18775931,49.18358224,161.06],[6.18780864,49.18354358,161],[6.19039575,49.18207814,160.39],[6.19045441,49.18205448,160.46],[6.19709929,49.18006129,162.93],[6.19716562,49.18004263,162.93],[6.20271625,49.17872501,163.86],[6.20278391,49.17869568,164.06],[6.20342015,49.17787477,163.8],[6.20343581,49.17782944,163.66],[6.20404753,49.17503405,163.93],[6.20405453,49.17498439,164.06],[6.20356535,49.16874268,164],[6.20356036,49.16869602,164],[6.20318349,49.16738785,165.93],[6.20316349,49.16734919,165.86],[6.20205238,49.16584042,163.6],[6.20202172,49.16581042,163.66],[6.19875111,49.16321119,163],[6.19870245,49.1631682,163],[6.19779662,49.16189166,165],[6.19775829,49.16184966,165.06],[6.1969724,49.16130244,164.4],[6.19696141,49.16126778,164.6],[6.19686388,49.15893506,163.33],[6.19686754,49.15889473,163.39],[6.19783746,49.15844283,163.33],[6.19785812,49.15839883,163.39],[6.19795739,49.15772292,164.6],[6.19795872,49.15767626,164.66],[6.19776879,49.15694269,165],[6.19776945,49.1568927,165],[6.19802366,49.15543719,164.8],[6.19801267,49.15539219,164.93],[6.19757171,49.15523189,165.53],[6.19750438,49.1552289,165.53],[6.19250846,49.15516887,165.6],[6.1924958,49.15513421,165.46],[6.19263246,49.1543733,164.46],[6.19269412,49.15434997,164.53],[6.19589617,49.15424885,164.86],[6.1959575,49.15424385,164.8],[6.19859396,49.15378739,163.06],[6.19866895,49.15377406,163.13],[6.19965055,49.15351881,164.73],[6.19971821,49.15349281,164.86],[6.20134906,49.15266829,165.2],[6.20138172,49.15262863,165.13],[6.20097179,49.15178639,166],[6.20096013,49.15173806,166.13],[6.2008928,49.15044585,164],[6.20087414,49.15039985,164],[6.19916032,49.14650488,166],[6.19914133,49.14646588,166.06],[6.19798791,49.14468775,163.33],[6.19796458,49.14464509,163.13],[6.19785296,49.14404316,163.06],[6.1978353,49.1440105,163.26],[6.19752568,49.14387455,164.2],[6.19746969,49.14387389,164.13],[6.19542786,49.14404878,164],[6.1954122,49.14403778,164],[6.19549184,49.14348623,165.26],[6.19548451,49.14345224,165.46],[6.19498969,49.14240611,166.2],[6.19499135,49.14238445,166.46],[6.19572422,49.14174792,166.33],[6.19575788,49.14170426,166.13],[6.1956359,49.14132963,165.13],[6.19560291,49.1412773,164.93],[6.19249298,49.13834975,163.8],[6.19245199,49.13831409,163.8],[6.19122611,49.13756956,162.73],[6.19117612,49.1375459,162.6],[6.18757446,49.13629421,164],[6.1875158,49.13628155,163.93],[6.1799022,49.13523316,165],[6.17984454,49.13522383,164.93],[6.17728943,49.13460073,163.33],[6.17725043,49.13459374,163.2],[6.17619721,49.13367055,163.26],[6.17612055,49.13363389,163.2],[6.16888797,49.1308206,170.13],[6.16887664,49.13081294,170.26],[6.17024152,49.1298585,168.73],[6.17029285,49.12981417,168.6],[6.17140271,49.12862461,167.06],[6.17145004,49.12859462,167.26],[6.17369518,49.12803953,168.4],[6.17369951,49.12803887,168.4],[6.17442411,49.12762898,170.13],[6.17447477,49.12759999,170.06],[6.17485465,49.1268121,168.33],[6.17485365,49.12677811,168.13],[6.17455537,49.12617951,166.86],[6.17451904,49.12613618,167],[6.17248469,49.12426213,173.13],[6.17245336,49.12423813,173],[6.17147081,49.12455738,180.6],[6.17143948,49.12456404,180.66],[6.17089187,49.1242198,178.53],[6.17084621,49.12422679,178.6],[6.17061158,49.12435443,179.6],[6.17061125,49.12437343,179.93],[6.17087416,49.12467203,180.06],[6.17090649,49.12469302,180],[6.17140007,49.12455004,180.2],[6.17138507,49.12452638,180.2],[6.17100346,49.12423677,179.06],[6.17096446,49.12421844,178.73],[6.17043454,49.1241741,177.46],[6.17040121,49.12414011,177.33],[6.16951108,49.12289929,169.46],[6.16949609,49.12287563,169.4],[6.16951006,49.12260567,169.66],[6.16949607,49.12259234,169.8],[6.16885948,49.12275928,173.46],[6.16882115,49.12275262,173.6],[6.16838691,49.12237037,172.46],[6.16834625,49.12234738,172.2],[6.16738771,49.12200882,169.4],[6.16737138,49.12202081,169.73],[6.1687202,49.12316498,171.8],[6.16874686,49.12319531,171.4],[6.16932203,49.12391913,168.13],[6.16932636,49.12392779,167.86],[6.16921438,49.12421171,166.46],[6.16923504,49.12424471,166.53],[6.17026953,49.12555553,166.4],[6.17030819,49.12558952,166.4],[6.1712144,49.12589974,169.06],[6.17124773,49.12591707,169],[6.17310309,49.12705875,170]]}}]}