{"type":"FeatureCollection","features":[{"type":"Feature","properties":{"name":"20260415 Cicloturismo","time":"2026-04-15T07:30:40Z"},"geometry":{"type":"LineString","coordinates":[[11.982297,57.69945333,20],[11.98302492,57.69904414,17.79],[11.98307158,57.69904447,17.79],[11.98563664,57.70003385,5.46],[11.9856963,57.70004618,5.86],[11.9916912,57.70041656,4],[11.99171786,57.70044289,4],[11.98932992,57.70667581,3.53],[11.98931192,57.7067188,3.6],[11.98888997,57.7069891,10.2],[11.98882198,57.7070001,11.13],[11.97781943,57.70703349,3.46],[11.9777691,57.70703415,3.66],[11.97152452,57.70751237,11.2],[11.97147319,57.70751403,11.53],[11.9627481,57.70617397,6.73],[11.96267077,57.7061753,7.2],[11.96066825,57.70646547,6.8],[11.96063692,57.70648413,7.46],[11.96126544,57.70777962,11.86],[11.96126643,57.70780062,10.66],[11.96046552,57.70795687,2.8],[11.96042852,57.70795354,2.93],[11.9593407,57.70676136,2.13],[11.9592937,57.7067287,2.53],[11.95732721,57.70582555,1.26],[11.95727721,57.70579555,1.26],[11.95408422,57.7035923,6],[11.95405489,57.70355464,6.2],[11.95367496,57.70287806,8.6],[11.95368262,57.70283707,8.66],[11.95468518,57.70204318,3.26],[11.95466918,57.70200452,3.33],[11.95364762,57.7015053,12.06],[11.95361829,57.70147164,12],[11.95339042,57.69983227,11.66],[11.95337676,57.69981127,12.13],[11.95207662,57.69948104,15.66],[11.95205562,57.69946538,16.86],[11.9508699,57.69740897,9.53],[11.95086591,57.69736697,9],[11.95235041,57.69335546,17.93],[11.95235874,57.69331247,16.93],[11.95227246,57.6919633,23.73],[11.9522598,57.69192064,23.73],[11.95142828,57.6906935,14.93],[11.95142861,57.69065884,14.86],[11.95286275,57.69004932,15.46],[11.95288408,57.69000599,15.86],[11.95260583,57.68924708,15.26],[11.9526005,57.68920742,15.13],[11.95265181,57.68682374,18.06],[11.95263215,57.68677641,18.4],[11.95026084,57.68404537,22.73],[11.95021584,57.68400804,22.8],[11.9451833,57.68086356,19.33],[11.94512797,57.68082323,19.46],[11.94002732,57.6763245,24.66],[11.94000199,57.67628317,24.13],[11.93797079,57.67169668,15.93],[11.93795113,57.67164802,15.86],[11.93674325,57.66788742,17.6],[11.93672792,57.66784342,17.6],[11.93560037,57.66770808,16.26],[11.93558704,57.66767909,16.13],[11.93575472,57.66695522,16.53],[11.93575306,57.66693823,16.46],[11.93508634,57.66409363,16.86],[11.93508535,57.6640593,16.93],[11.9352003,57.66373066,17.46],[11.93523163,57.66371167,17.6],[11.93596585,57.66356804,16.4],[11.93596751,57.66352604,16.4],[11.93530407,57.66143091,13.86],[11.93528541,57.66139058,13.93],[11.9348362,57.66062835,15.6],[11.93481787,57.66060102,15.6],[11.9341416,57.66031911,16.06],[11.93410194,57.66029612,16.26],[11.93253311,57.66029338,18],[11.93252611,57.66027138,18],[11.9329224,57.66018876,18],[11.93294773,57.66016543,18],[11.93297539,57.65979885,18],[11.93298538,57.65978252,18],[11.93303803,57.66017544,17.13],[11.93308236,57.6601961,16.93],[11.93471055,57.66050507,17.66],[11.93471654,57.66047308,18.06],[11.93426932,57.65938551,18.73],[11.93426332,57.65934585,18.86],[11.93429593,57.65703079,13.06],[11.9342896,57.65698946,13.26],[11.93387901,57.65635319,16.6],[11.93386702,57.65630953,16.73],[11.93250471,57.65039482,11.4],[11.93249405,57.65034816,11.33],[11.93281366,57.64949654,10.13],[11.93279667,57.64944988,10],[11.93199675,57.64826565,10.93],[11.93194009,57.64822332,10.73],[11.92918929,57.64708753,7.06],[11.92912629,57.6470552,6.8],[11.92827803,57.64621662,3.2],[11.92824704,57.64610463,3.06],[11.92832171,57.64542401,2.46],[11.92836837,57.64539035,2.46],[11.93084785,57.64425855,1.46],[11.93088584,57.64422522,1.46],[11.93173005,57.64269907,2.6],[11.93174138,57.64265774,2.6],[11.93170924,57.6392325,7],[11.93170558,57.63919584,6.86],[11.92994087,57.63463521,12],[11.92994453,57.63459788,12],[11.93318932,57.62711697,5.86],[11.93320731,57.62707398,5.73],[11.93313705,57.6260211,6],[11.93315071,57.62598677,6],[11.93382129,57.62570285,6],[11.93383862,57.62566652,5.93],[11.93378831,57.62357981,10],[11.93377698,57.62354515,10],[11.92837737,57.61580389,11.66],[11.92833071,57.6157619,11.6],[11.92696815,57.61494168,10.4],[11.92690582,57.61492002,10.4],[11.92289877,57.61393766,1.53],[11.92283977,57.61391167,1.53],[11.92116331,57.61254158,1],[11.92115865,57.61253425,1.33],[11.92170265,57.60769222,3.53],[11.92170531,57.60764923,3.66],[11.9214165,57.60581708,3.73],[11.92141816,57.60577709,3.93],[11.92187701,57.60327671,4.26],[11.92188667,57.60322872,4.26],[11.92349348,57.60129561,4.13],[11.92352481,57.60124762,4.4],[11.92432061,57.59936317,3.13],[11.92432194,57.59931518,3],[11.9238564,57.59804166,4.93],[11.92382507,57.59799933,4.93],[11.92170034,57.59596159,6.53],[11.92167335,57.59592026,6.26],[11.92162936,57.59442943,4.46],[11.92165069,57.59439043,4.33],[11.92435222,57.59055152,3.73],[11.92439488,57.59051252,3.73],[11.9290688,57.58772428,3.53],[11.92910546,57.58768295,3.46],[11.93055307,57.58435004,3.8],[11.93059307,57.58431404,3.66],[11.93366979,57.58276265,2.26],[11.93371712,57.58273032,2.26],[11.93792893,57.57896119,0.8],[11.93797826,57.57892953,0.73],[11.940878,57.57784248,3.46],[11.94090899,57.57780782,3.46],[11.94181669,57.57532812,2.8],[11.94183802,57.57528746,3],[11.94459341,57.57176602,16.4],[11.94459974,57.57173636,16.6],[11.94193065,57.5689116,25.13],[11.94191432,57.56887961,25.2],[11.94192795,57.56799673,26.86],[11.94193461,57.5679604,26.93],[11.94252277,57.56674156,26.86],[11.94254377,57.56670123,26.8],[11.94437879,57.56440023,32],[11.94440978,57.56437257,32.06],[11.94734946,57.56279856,28.46],[11.94739179,57.56274923,28.06],[11.94699728,57.56105142,26.13],[11.94700061,57.56101476,26.06],[11.9477277,57.5592507,28.26],[11.94775036,57.55921504,28.46],[11.94991448,57.55741929,22.6],[11.94995448,57.55736896,22.66],[11.95094751,57.55496922,24.2],[11.95097917,57.55493456,23.93],[11.9521971,57.55462894,21.33],[11.95226376,57.55457828,21.2],[11.95464374,57.55181203,19.53],[11.9546534,57.55177637,19.4],[11.95485473,57.55011857,18.86],[11.95486873,57.55007824,18.86],[11.95458078,57.54968897,19.79],[11.95452645,57.54965597,19.93],[11.94734725,57.54749511,14.8],[11.94729592,57.54747578,14.73],[11.94728127,57.54664754,14.93],[11.94727961,57.54661454,15.06],[11.94690233,57.54639591,15.66],[11.94684567,57.54637625,15.8],[11.94638907,57.54668549,13.06],[11.94639173,57.54669015,12.8],[11.94493775,57.54614783,12.46],[11.94484342,57.5461315,12.46],[11.94171433,57.54600704,15.06],[11.94165133,57.54598905,15.13],[11.9392452,57.54472662,13.2],[11.93919887,57.54469029,13.4],[11.93837104,57.5433908,13],[11.93835505,57.54335947,13],[11.93826806,57.53692709,11.8],[11.93828806,57.53687676,11.93],[11.93901793,57.53587653,9.06],[11.93906993,57.53582987,8.53],[11.94285459,57.5331162,5.33],[11.94290859,57.53307321,5.06],[11.94381482,57.5319573,4.33],[11.94384581,57.53190131,4.33],[11.94537969,57.52710847,5.6],[11.94538535,57.52706081,5.66],[11.94502278,57.52091048,8.6],[11.94503944,57.52086482,8.8],[11.94549499,57.51993823,10.86],[11.94552865,57.51989424,11.06],[11.95059433,57.51408159,6.13],[11.95060732,57.5140306,5.86],[11.95053901,57.51319102,4.26],[11.95051668,57.51314169,4.26],[11.94878164,57.51000139,4.06],[11.94874431,57.5099494,3.73],[11.94658378,57.50850892,7],[11.94658911,57.50847459,7.4],[11.94922724,57.50761576,2],[11.94929123,57.50758343,2],[11.95099532,57.50582333,0.06],[11.95104932,57.50580334,0.06],[11.95440377,57.50615654,3.2],[11.95448143,57.50614654,3.06],[11.96114102,57.50287897,11.66],[11.96120368,57.50286031,11.4],[11.96601174,57.5028123,4.8],[11.9660664,57.50278164,4.8],[11.9682005,57.50027089,1.2],[11.96825049,57.50022156,1.13],[11.96929575,57.49967532,0.53],[11.96931608,57.49962833,0.46],[11.96745394,57.49776024,1.6],[11.96744394,57.49771991,1.6],[11.96857867,57.49596949,2.26],[11.968588,57.49593083,2.13],[11.96770469,57.49344155,7.46],[11.96769903,57.49341056,7.53],[11.968579,57.49145669,9],[11.96861899,57.49144003,9.06],[11.97670935,57.49061448,13.46],[11.97679168,57.49062381,13.6],[11.97846318,57.49125066,13.53],[11.97853184,57.49127466,12.93],[11.97929945,57.49121966,9.86],[11.97938078,57.49123399,9.6],[11.98020836,57.49217555,10.13],[11.98027402,57.49221288,10.13],[11.98191362,57.49245647,6.86],[11.98201595,57.49248813,6.13],[11.98636437,57.4943442,6.6],[11.9864287,57.49436519,6.53],[11.99378089,57.49478378,3.73],[11.99384055,57.49477745,3.66],[11.99561166,57.49301734,3],[11.99568099,57.49299601,2.8],[12.00001574,57.49337913,4.73],[12.0000474,57.49335413,5],[11.99934201,57.49114913,5.8],[11.99933402,57.49110814,5.66],[11.99926305,57.48912639,4.26],[11.99925339,57.48908273,4.19],[11.9988938,57.48860346,4.86],[11.99887914,57.48857247,5],[11.99922139,57.48808288,6.73],[11.99925138,57.48806122,6.8],[12.00373999,57.48575297,28.53],[12.00377499,57.48574097,28.73],[12.00780016,57.48468175,40.53],[12.00785582,57.48467042,40.59],[12.01038965,57.48449114,38.86],[12.01044731,57.48448081,38.8],[12.01040869,57.48392992,39.33],[12.01044135,57.48391492,39.46],[12.01124822,57.48412779,40.73],[12.01125255,57.48412945,40.8],[12.01075622,57.48401145,40.93],[12.00951856,57.48384812,40.93],[12.00977919,57.48365917,39.53],[12.00981085,57.48365351,39.4],[12.01532484,57.48458185,21.8],[12.0154615,57.48461185,21.8],[12.02203027,57.48636231,6.6],[12.02217193,57.48637197,6.66],[12.02537343,57.48594211,7.86],[12.02543443,57.48592778,8.06],[12.02843611,57.48481439,14.86],[12.02848344,57.48481872,15.26],[12.03354748,57.48666308,35.66],[12.03359181,57.48667308,35.73],[12.03896933,57.48701076,37.4],[12.03902833,57.48702075,37.46],[12.04539847,57.48875959,39.06],[12.04546613,57.48876925,39.2],[12.04972022,57.48884017,36.13],[12.04981588,57.48883884,36.2],[12.05419163,57.48948025,40],[12.05429929,57.48948825,39.93],[12.0626106,57.48892986,16.26],[12.06270626,57.48892786,16],[12.07489502,57.48910001,5.33],[12.07497135,57.48910001,5.53],[12.07712148,57.48856052,7.26],[12.07716114,57.48854652,7.4],[12.07509317,57.48608454,5.4],[12.07511317,57.48606654,5.33],[12.07736156,57.48531947,3.2],[12.07736889,57.48531281,3.2],[12.07868537,57.48603574,3.53],[12.07873537,57.4860484,3.26],[12.0813938,57.48658092,2.2],[12.0814418,57.48658758,2.13],[12.0819144,57.48636962,2.8],[12.08195373,57.48634296,3.06],[12.08438668,57.48375276,5.73],[12.08441934,57.48371676,5.73],[12.08808853,57.48090525,14.8],[12.08812052,57.48087259,14.73],[12.08958489,57.47857596,20.4],[12.08960022,57.47854697,20.66],[12.08946629,57.47800407,22.73],[12.08948228,57.47798007,22.66],[12.09007455,57.47780846,22],[12.09011455,57.47778313,22.06],[12.09123732,57.47651731,25.06],[12.09126665,57.47649198,25],[12.09430753,57.47431773,32.13],[12.09434619,57.47428107,32.26],[12.09680283,57.47090275,17.46],[12.09686382,57.47084509,17.2],[12.09999264,57.4687286,7.26],[12.1000773,57.4686626,7.2],[12.10637969,57.46338251,5.53],[12.10643302,57.46334718,5.6],[12.10768187,57.46345546,7],[12.10770953,57.4634488,7],[12.11100919,57.46191955,7.26],[12.11106618,57.46189555,7.2],[12.11735336,57.46040571,12.33],[12.11741869,57.46038671,12.6],[12.12920059,57.45641255,13.66],[12.12927458,57.45638789,13.6],[12.13476981,57.45353299,13.4],[12.13482947,57.45349533,13.4],[12.13631797,57.45190885,8.33],[12.13635663,57.45184919,8.26],[12.13724741,57.44945343,9.46],[12.13726674,57.44941543,9.66],[12.13820358,57.4482373,11.73],[12.13823358,57.44820731,11.73],[12.14401368,57.44372755,9.06],[12.14406601,57.44368689,9.06],[12.1518962,57.43692605,6.6],[12.15192019,57.43690039,6.73],[12.15431613,57.43530996,9],[12.15463712,57.43504363,9],[12.15673177,57.43281998,13.26],[12.1567581,57.43278632,13.4],[12.15732325,57.43163485,19.73],[12.15733158,57.43160052,20.2],[12.15729029,57.43037504,23.26],[12.15728863,57.43035938,23.53],[12.15451229,57.42403141,28.8],[12.15451196,57.42399742,29],[12.15590134,57.42189643,22.4],[12.15593534,57.42183477,22.06],[12.15687043,57.41922971,19],[12.15688209,57.41920871,19],[12.16621202,57.41888015,16.53],[12.16620869,57.41883382,16.06],[12.16496142,57.41803623,10.53],[12.16489042,57.41795757,10.4],[12.16257543,57.41446165,7],[12.16254777,57.41441699,7],[12.16247847,57.41404536,7],[12.16250147,57.41399903,7],[12.16305606,57.41343943,7],[12.16304107,57.41340244,7],[12.1613852,57.41312849,6.93],[12.16135021,57.41309783,6.93],[12.15398159,57.40617562,8.26],[12.1539476,57.40614096,8.53],[12.15350877,57.40465858,16.26],[12.15348811,57.40463592,16.26],[12.15094862,57.40337377,5.53],[12.15088229,57.40331844,5.4],[12.14049507,57.3935668,4],[12.14048574,57.39352114,4],[12.14084636,57.3931082,4.33],[12.14090835,57.39308587,4.4],[12.14346683,57.39247772,4],[12.14354549,57.39245906,4],[12.14802751,57.39176345,13.6],[12.14806051,57.39174079,13.66],[12.1483111,57.3912632,15.86],[12.14830244,57.39123254,16],[12.14718267,57.38913414,20.13],[12.14719333,57.38910715,20.73],[12.14813979,57.38824168,17.4],[12.15090512,57.38623969,17],[12.15090213,57.38567907,15.8],[12.1508778,57.38562574,15.66],[12.14864965,57.38437024,17.2],[12.14857099,57.38434791,17.2],[12.14446492,57.3839035,16.46],[12.14437559,57.38388184,16.6],[12.14121912,57.38256936,9.8],[12.14112912,57.38254203,9.46],[12.13432285,57.38083303,3.53],[12.13423319,57.3808137,3.4],[12.13155867,57.3805525,2.8],[12.13147534,57.38053417,2.73],[12.13076172,57.37999956,2.13],[12.13075006,57.3799499,2.2],[12.13103156,57.37791011,4.13],[12.13104589,57.37786945,4.19],[12.13264192,57.37537709,9.6],[12.13266125,57.3753391,9.66],[12.13267293,57.37461921,10],[12.13269192,57.37459188,10],[12.13427344,57.37383368,9.93],[12.13432277,57.37379402,9.93],[12.13519898,57.3724868,9.93],[12.13525264,57.37244714,10],[12.13988961,57.3698932,12.46],[12.13994027,57.36986187,12.53],[12.1412718,57.36865703,13.73],[12.1413068,57.3686117,13.8],[12.14158176,57.36803044,13.86],[12.1415741,57.36798645,13.93],[12.1408412,57.36707221,15.4],[12.14081987,57.36703121,15.4],[12.14067963,57.3662173,13.93],[12.14068363,57.36616964,13.93],[12.14166749,57.36469782,15.4],[12.14165549,57.36465816,15.26],[12.14022562,57.36387927,14.66],[12.14016729,57.36385228,14.66],[12.13528787,57.36282255,8],[12.13518654,57.36279322,8.06],[12.12939633,57.36067366,7],[12.12932134,57.360646,7],[12.12594066,57.3587993,8.26],[12.12587333,57.35877764,8.2],[12.12166397,57.35830487,4.8],[12.12158631,57.35829154,4.8],[12.1179399,57.3572798,5.4],[12.11794156,57.35724347,5.4],[12.12167583,57.35155645,6],[12.12170249,57.35151912,6.06],[12.12224039,57.35122855,6.33],[12.12223073,57.35126388,6.26],[12.12157747,57.35125784,6.46],[12.1215888,57.35123318,6.46],[12.12342422,57.34958676,7.93],[12.12347188,57.34955443,7.93],[12.12726788,57.34782907,7.53],[12.12730487,57.34780974,7.6],[12.13722663,57.34211164,13.26],[12.13728629,57.34208331,13.26],[12.1500777,57.33733586,11.26],[12.1501507,57.3372982,11.06],[12.1522992,57.33565372,8.06],[12.1523392,57.33560439,7.86],[12.15465221,57.33161647,6.26],[12.1547052,57.33157814,6.2],[12.16521603,57.32690662,6.53],[12.16526036,57.32687796,6.46],[12.16271452,57.32625547,3.66],[12.16264752,57.32623014,3.6],[12.1620503,57.32550625,7],[12.16199964,57.32547892,7.26],[12.16069207,57.32535427,5.53],[12.16062474,57.32533594,5.6],[12.15988784,57.3248087,8.46],[12.15982818,57.32478937,8.46],[12.15702241,57.32495163,1.93],[12.15696375,57.3249443,2.06],[12.1565478,57.3243411,3.4],[12.1565338,57.32430877,3.53],[12.15712766,57.32335895,4.4],[12.15713632,57.32331896,4.19],[12.15684407,57.32268208,3],[12.15682908,57.32034642,3.06],[12.15957238,57.31816047,7.4],[12.15961238,57.31812247,7.4],[12.16109885,57.31602374,7.13],[12.16113951,57.31598908,7.2],[12.16505883,57.31646394,12],[12.16512616,57.31646593,12.13],[12.16862486,57.31619906,17.2],[12.16867419,57.31620172,17.13],[12.17124526,57.31679711,15.33],[12.17135426,57.3168121,15.33],[12.17516667,57.31698383,15],[12.175175,57.31698516,15],[12.17555995,57.31683752,14.8],[12.17557961,57.31680219,14.8],[12.17632604,57.31472208,9],[12.17635003,57.31465808,8.66],[12.17620474,57.31392914,7.2],[12.17620907,57.31386781,7.26],[12.17688797,57.3128116,6.6],[12.1769303,57.31276727,6.6],[12.18015878,57.31255841,6.73],[12.18023811,57.31253775,6.53],[12.18198193,57.31136093,10],[12.18200459,57.31133094,10.06],[12.18204389,57.31078972,11.13],[12.18199789,57.31075373,11.4],[12.18066196,57.3104278,12.73],[12.18059563,57.31039514,12.53],[12.17874691,57.30896409,16.33],[12.17871492,57.30894443,16.26],[12.1743525,57.30810268,9.6],[12.17427117,57.30807969,9.53],[12.17251928,57.3073088,6.86],[12.17245062,57.30727814,6.93],[12.17205833,57.30677785,6.73],[12.171992,57.30674752,6.53],[12.16925552,57.30616001,5.33],[12.16922653,57.30612968,5.66],[12.1681971,57.30432051,7.26],[12.16818211,57.30427385,7],[12.16807615,57.30254369,2.8],[12.16805749,57.30249736,2.86],[12.16596215,57.29967801,7.4],[12.16593415,57.29963335,7.4],[12.16590281,57.29888174,5.8],[12.16587681,57.29882708,5.6],[12.16517087,57.29821817,3.86],[12.16514921,57.29817084,3.73],[12.16631172,57.296639,0.6],[12.16633238,57.29658934,0.6],[12.16631207,57.2948185,2.06],[12.16630241,57.29479184,2.13],[12.16388836,57.29264444,5.4],[12.1638537,57.29260211,5.4],[12.16331819,57.29110096,2],[12.16331553,57.29105163,2],[12.1636534,57.28985709,2],[12.1636794,57.28981043,2],[12.16740171,57.28448575,7.13],[12.16741937,57.28445275,7.2],[12.16803011,57.28290598,9],[12.16803844,57.28287365,9.06],[12.16810599,57.28116692,9.13],[12.16812899,57.28112626,9.13],[12.16936526,57.2810846,8.8],[12.16937692,57.28111026,8.66],[12.16881098,57.28141319,8.8],[12.16879099,57.28144685,8.93],[12.16870008,57.28259874,8.46],[12.16876041,57.28260407,8.46],[12.17831573,57.28047307,12.2],[12.17836006,57.28046541,12.06],[12.17949397,57.28083136,13.6],[12.17955563,57.28081536,13.73],[12.18046197,57.27924999,22.53],[12.18047097,57.279227,22.6],[12.18064486,57.27802385,23.33],[12.18067219,57.27799486,23.2],[12.18256027,57.27626916,25.2],[12.18259393,57.27624617,25.26],[12.18472669,57.27542876,25.66],[12.18474568,57.2753921,25.53],[12.18455438,57.27492149,23.4],[12.18448939,57.27488416,23.26],[12.17868845,57.27238019,19.53],[12.17862812,57.27235253,19.6],[12.17760426,57.27157665,19.13],[12.17759093,57.27154499,19.06],[12.17945852,57.26808377,16.86],[12.17947085,57.26803211,16.79],[12.17941422,57.26704021,14.26],[12.17939689,57.26698588,14.13],[12.17856102,57.26534602,9.2],[12.17854769,57.26528169,9.13],[12.17859438,57.26313555,9.73],[12.17860304,57.26307722,9.6],[12.1788856,57.26197063,8.33],[12.17891493,57.26191564,8.33],[12.18084904,57.2590089,7.06],[12.18086637,57.25895224,7.13],[12.18103528,57.25704108,7.2],[12.18103295,57.25698675,7.06],[12.18058483,57.25343475,8.13],[12.18059116,57.25338575,8.13],[12.18246979,57.25038209,7.2],[12.18249345,57.2503471,7.26],[12.18271898,57.24970055,7.26],[12.18271365,57.24967955,7.2],[12.18229172,57.24972954,3.86],[12.18038639,57.24709955,3.66],[12.18293814,57.24505016,6.73],[12.18299447,57.2450175,6.8],[12.18549134,57.24426194,10.86],[12.18556,57.24422995,10.8],[12.19073222,57.24134508,10],[12.19078855,57.24131109,9.93],[12.19104918,57.24078481,12.13],[12.19103485,57.24073981,12.26],[12.19026391,57.24015757,10.33],[12.19025258,57.24012091,10.2],[12.19077285,57.23944833,9],[12.19081685,57.23941534,9],[12.1945665,57.23905318,5],[12.1946245,57.23902885,5],[12.19913113,57.23662224,3.73],[12.19918946,57.23658525,3.66],[12.20348306,57.23335156,2.33],[12.20354139,57.23331823,2.33],[12.20519159,57.23317627,2.46],[12.20522758,57.23315428,2.4],[12.21626623,57.22508428,2.4],[12.21631956,57.22503762,2.4],[12.21878263,57.22238923,2.86],[12.21881996,57.2223399,2.86],[12.22035935,57.21960686,3.66],[12.22037968,57.21955953,3.6],[12.22116498,57.21524489,1.8],[12.22117231,57.21519823,1.8],[12.2219739,57.21478796,2.93],[12.2219869,57.2147463,3],[12.22012039,57.21399077,3],[12.22011273,57.21395711,3],[12.22089245,57.21167871,4.93],[12.22090345,57.21163038,4.93],[12.22130709,57.20856838,9],[12.22130643,57.20852772,8.93],[12.22094793,57.20691024,10.4],[12.22092727,57.20686458,10.73],[12.2198991,57.20553808,8.2],[12.2198401,57.20551275,8.2],[12.21400627,57.20577164,16.79],[12.21395961,57.20577263,16.93],[12.21175419,57.20552086,19.79],[12.2116922,57.2055202,19.79],[12.21057526,57.20579245,18.73],[12.21048993,57.20579112,18.6],[12.20627184,57.20468404,12.26],[12.20619118,57.20468537,12.26],[12.20422462,57.20511829,7.33],[12.20414696,57.20515362,7.2],[12.20223458,57.20665928,6.86],[12.20225058,57.20666728,6.86],[12.20423597,57.20509156,9],[12.20423398,57.20508757,9],[12.20244518,57.20554539,10.86],[12.20238685,57.2055424,11.26],[12.20040245,57.20461634,24.86],[12.20036079,57.20460834,25.26],[12.19615407,57.20460061,10],[12.19605574,57.20457895,9.2],[12.19362388,57.20348877,7.4],[12.19356755,57.20345844,7.2],[12.19259604,57.20257094,9.73],[12.19254438,57.20254728,9.86],[12.1907816,57.20222743,9.26],[12.1907346,57.2022071,9.33],[12.19050269,57.20160023,11.86],[12.19046303,57.2015849,11.86],[12.18487544,57.20235557,8.13],[12.18481678,57.20234324,8.26],[12.1805318,57.20013127,7.06],[12.18046681,57.20010561,6.93],[12.17627251,57.19934985,5.33],[12.17619751,57.19932819,5.13],[12.17041736,57.19700305,20],[12.1703487,57.19697839,19.93],[12.1628277,57.19585394,9.73],[12.1628237,57.19585427,9.93],[12.16773414,57.19656411,15.26],[12.16779147,57.19657644,15.6],[12.17409347,57.1982648,5.66],[12.17416847,57.19828813,5.6],[12.17626566,57.19934696,5.4],[12.17634365,57.19936996,5.46],[12.18049296,57.20007956,8],[12.18050362,57.20007989,8],[12.18064489,57.19997696,15.4],[12.17579823,57.19766363,16],[12.17737854,57.19521071,13.06],[12.17744287,57.19517305,12.93],[12.17915808,57.19421353,12.8],[12.17921541,57.1941962,12.8],[12.18067997,57.1945488,11.66],[12.1807413,57.19452747,11.53],[12.18570454,57.19150322,4.53],[12.1857562,57.19147456,4.4],[12.1877819,57.19082582,2],[12.18777524,57.19083415,2],[12.18671704,57.1909475,1.86],[12.18668638,57.1909395,1.73],[12.18539187,57.1901623,1]]}}]}