{"type":"FeatureCollection","features":[{"type":"Feature","properties":{"name":"20260502 Cicloturismo","time":"2026-05-02T07:05:37Z"},"geometry":{"type":"LineString","coordinates":[[5.35575333,50.79049866,111],[5.35569871,50.79118081,114.53],[5.35568905,50.79120647,114.86],[5.35473373,50.7929178,121.73],[5.3547244,50.7929418,121.66],[5.35462782,50.79416195,120.46],[5.35463415,50.79420128,120.53],[5.35527687,50.79594866,119],[5.3552822,50.79597066,119],[5.35524354,50.79700217,119.33],[5.35525687,50.79703883,119.4],[5.35545182,50.79740912,120.46],[5.35547982,50.79744078,120.53],[5.356178,50.79797195,120.2],[5.35618466,50.79798861,120.26],[5.35602375,50.79830188,121.73],[5.35601276,50.79832721,121.73],[5.35574081,50.79838751,121.46],[5.35573582,50.79838518,121.46],[5.35616345,50.79838486,121.93],[5.35619545,50.79840619,122.06],[5.35697332,50.79907874,121.53],[5.35699898,50.7991064,121.46],[5.35723757,50.79962333,121.66],[5.35722491,50.79965199,121.66],[5.34939833,50.80242696,115.6],[5.349352,50.80244329,115.53],[5.34880339,50.80260023,114.6],[5.34875206,50.80260656,114.6],[5.34806416,50.80255995,114.06],[5.34803483,50.80256828,113.86],[5.34636606,50.80436538,106.53],[5.3463254,50.80440804,106.53],[5.34569046,50.80472666,106.66],[5.3456108,50.80474566,106.6],[5.34323459,50.80466173,104.2],[5.34314626,50.80465473,104.33],[5.34184041,50.80423889,105],[5.34180175,50.80421756,104.8],[5.34146381,50.80395296,104.4],[5.34144815,50.80393096,104.46],[5.34103429,50.80312978,106.33],[5.34098629,50.80311578,106.4],[5.34245141,50.80287228,110.13],[5.34249007,50.80287028,109.93],[5.33817812,50.80360526,101.06],[5.33810946,50.80361026,100.8],[5.3342154,50.80375269,94.8],[5.33414874,50.80375468,94.93],[5.33341214,50.8035041,95.26],[5.33336215,50.80350344,95.13],[5.33184227,50.80397531,96.73],[5.33179828,50.8039853,96.93],[5.3293162,50.80438306,101.73],[5.32926587,50.80438672,102],[5.28297207,50.80684993,70.26],[5.28291907,50.80685059,70.33],[5.28268576,50.80676395,70.6],[5.28265243,50.80672962,70.6],[5.28231022,50.80616972,70.6],[5.28229989,50.80614806,70.53],[5.28167992,50.80417343,65.86],[5.28165793,50.8041581,65.8],[5.28050012,50.80475853,68.33],[5.28046546,50.80475454,68.4],[5.2733697,50.80279303,69.53],[5.27333637,50.80276437,69.6],[5.27389663,50.80236444,70.93],[5.27392629,50.80233644,71.06],[5.27529427,50.80087945,76.33],[5.27531227,50.80085979,76.4],[5.27620434,50.79956639,76.53],[5.27619134,50.79952773,76.66],[5.2712713,50.79789302,85],[5.2712383,50.79787836,85],[5.27028186,50.79704262,88.06],[5.27025287,50.79702129,88.13],[5.2697613,50.79683503,88.6],[5.26975564,50.79683104,88.53],[5.27002992,50.79663209,88.46],[5.27003325,50.79662709,88.46],[5.26969097,50.79689003,88.4],[5.26963631,50.79691302,88.4],[5.26937399,50.79690101,88.6],[5.26932766,50.79687101,88.66],[5.26558211,50.79222383,91.66],[5.26556045,50.79219117,91.66],[5.26559943,50.79201255,92.2],[5.26563509,50.79199089,92.33],[5.26646364,50.79177667,92.6],[5.2665003,50.79158401,92.6],[5.26649764,50.79159867,92.6],[5.26625998,50.79186133,92.6],[5.26513277,50.79217485,89.73],[5.26506844,50.79217584,89.4],[5.25820917,50.7917906,77.6],[5.25813051,50.79178994,77.46],[5.22334786,50.7918586,69],[5.22330787,50.79186526,69],[5.20951768,50.79998431,60.93],[5.20948735,50.80000264,60.8],[5.21037399,50.79946866,60.66],[5.21041798,50.79944867,60.66],[5.21082893,50.79949832,60.6],[5.21083192,50.79951431,60.53],[5.21048867,50.79946033,61.26],[5.21046401,50.79946899,61.4],[5.2101221,50.80000954,62.2],[5.21010277,50.80004054,62.2],[5.20865995,50.80336804,63.26],[5.20863096,50.80339403,63.33],[5.20566297,50.80436465,62.86],[5.20561998,50.80438231,62.86],[5.19946982,50.80727416,65.19],[5.19942716,50.80728982,65.33],[5.19599383,50.80828318,66.4],[5.19594717,50.80829517,66.4],[5.19540093,50.80822852,65.6],[5.19542659,50.80817252,65.73],[5.19225593,50.81002015,60.73],[5.19222193,50.81004115,60.6],[5.1920163,50.81029909,60.2],[5.19201663,50.81029909,60.26],[5.19071611,50.81090231,62],[5.19066745,50.8109363,62],[5.18928067,50.81247212,58.26],[5.18925901,50.81250745,58.06],[5.18922903,50.81268943,57.26],[5.18924269,50.81272176,57.26],[5.18958864,50.81323069,59.73],[5.18956998,50.81326135,60],[5.18881371,50.81350826,62.13],[5.18877205,50.81352925,62.06],[5.18868607,50.81389953,61.4],[5.18866007,50.81393152,61.33],[5.18807019,50.81427672,59.26],[5.18635553,50.81528805,59.06],[5.18951019,50.81561505,58.86],[5.19018904,50.81544219,58.4],[5.19016471,50.8153902,58.46],[5.1900618,50.8154528,58.33],[5.19007113,50.81547646,58.4],[5.19069164,50.81626732,58],[5.19070064,50.81628765,58],[5.19060704,50.81669689,58.73],[5.19059071,50.81672755,58.8],[5.18922721,50.81737937,57],[5.18919321,50.81738936,57],[5.18880568,50.81702479,57.46],[5.18880868,50.81701813,57.4],[5.18915359,50.8173454,57],[5.18916692,50.81736306,57],[5.1891033,50.81757865,54.86],[5.18907664,50.81760231,54.33],[5.18766474,50.8180759,50.33],[5.18762874,50.81809456,50.2],[5.18582205,50.81949729,49.93],[5.18578472,50.81949962,49.8],[5.18362774,50.81822793,49.46],[5.18359175,50.8182166,49.46],[5.18223459,50.81859276,51.73],[5.1822166,50.81859476,51.66],[5.18139949,50.8175076,53.53],[5.1813615,50.81749327,53.4],[5.17948741,50.81802204,57.2],[5.17944775,50.81802503,57.26],[5.1771813,50.81743025,58.6],[5.17713564,50.81741492,58.53],[5.17660003,50.81699766,59.6],[5.17657604,50.81696067,59.66],[5.17571332,50.81509032,59.46],[5.17570833,50.81508566,59.73],[5.17331252,50.81506262,59],[5.17324319,50.81505163,59.4],[5.17119074,50.81432186,59],[5.17114075,50.8143152,58.86],[5.16850989,50.81453576,58.13],[5.1684019,50.81453676,58.26],[5.16344555,50.81405172,48.46],[5.16336589,50.81404706,48.4],[5.16187299,50.81420765,46.73],[5.16180833,50.81420432,46.66],[5.16101408,50.81383606,48],[5.16093975,50.81382773,48],[5.00068796,50.79689354,50],[5.0006213,50.79688755,50],[4.9969522,50.79688891,48.6],[4.99687554,50.79689524,48.66],[4.95927542,50.80056302,54.33],[4.95922676,50.80056802,54.26],[4.95883081,50.800583,53.8],[4.95882015,50.80058134,53.8],[4.95883878,50.80039339,53.86],[4.95883545,50.80037739,53.93],[4.95880044,50.80052368,54.4],[4.95878178,50.80053834,54.53],[4.95848881,50.80061429,55.8],[4.95845348,50.80062128,55.93],[4.9546059,50.80099589,57.86],[4.95455624,50.80100589,58],[4.94872324,50.80238421,43.8],[4.94863591,50.80240754,43.4],[4.94786934,50.80280712,41.4],[4.94786701,50.80280878,41.53],[4.94578187,50.80309932,44.66],[4.94572454,50.80311798,44.73],[4.94506331,50.8035352,43.6],[4.94501365,50.80355619,43.6],[4.9429335,50.80427667,45],[4.9428965,50.80429733,45],[4.94083716,50.80571129,52.2],[4.94081583,50.80572662,52.4],[4.94002035,50.80659478,52.2],[4.93998202,50.80662278,52.26],[4.93907347,50.80678404,51.06],[4.93902981,50.8068017,51],[4.93842259,50.80728586,49.73],[4.93842126,50.80732319,49.86],[4.93682622,50.80737815,46],[4.93680723,50.80737615,46],[4.93657098,50.80772006,48],[4.93654799,50.80773705,48.33],[4.93598075,50.80792097,54],[4.93597109,50.8079243,53.86],[4.93361106,50.80757156,52],[4.93357873,50.80757956,52],[4.93035731,50.80963262,57.6],[4.93032531,50.80964595,57.6],[4.92957905,50.80974554,59.4],[4.92953172,50.8097562,59.46],[4.92506089,50.81121074,59.8],[4.92502123,50.8112124,59.93],[4.9249346,50.81134371,60.53],[4.92490394,50.81135904,60.6],[4.83863837,50.83946494,60.93],[4.83860171,50.83947627,61],[4.81998751,50.8475848,80.86],[4.81993118,50.84760746,80.93],[4.80069798,50.8536196,66.8],[4.80064032,50.85363693,66.66],[4.76715465,50.86146309,43.46],[4.76714532,50.86146742,43.46],[4.76646073,50.86131084,44],[4.76641807,50.86129351,44],[4.7646043,50.86025536,42.2],[4.76455864,50.86023336,42.33],[4.76361175,50.85994547,42.73],[4.76354476,50.85993747,42.66],[4.76303879,50.85990351,42.53],[4.7629858,50.85990784,42.53],[4.7628145,50.86018512,43],[4.76278984,50.86019545,43],[4.75961053,50.86016351,45.2],[4.75956587,50.86016517,45.26],[4.75776178,50.86039227,47.06],[4.75772245,50.8603996,47],[4.75494578,50.86124495,45.53],[4.75489645,50.86125628,45.6],[4.75029287,50.86201953,44.6],[4.75024487,50.86202886,44.73],[4.74467839,50.8633381,44.53],[4.74463239,50.86335343,44.66],[4.74461705,50.86346975,45.53],[4.74464338,50.86349308,45.73],[4.74601413,50.86439746,47.2],[4.74603579,50.86440812,47.4],[4.74705724,50.86406398,48.4],[4.7470589,50.86405799,48.33],[4.74617667,50.86449586,47],[4.74617134,50.86449786,47.06],[4.74484286,50.86357167,44.33],[4.7448022,50.86354901,44.26],[4.74420261,50.86342569,43.6],[4.74415161,50.86343635,43.53],[4.74150533,50.86416736,46.33],[4.741468,50.86418069,46.2],[4.7379094,50.86570829,44.93],[4.7378554,50.86572695,44.6],[4.73256888,50.86704158,40.86],[4.73251922,50.86705491,40.93],[4.72771708,50.86845736,43.13],[4.72767775,50.86846769,43.13],[4.72618896,50.86871184,45],[4.72615097,50.86872417,45],[4.72498745,50.86929867,45],[4.72495412,50.86931233,45],[4.72233781,50.87015969,43.93],[4.72230848,50.87017002,43.8],[4.72051675,50.87097574,43.4],[4.72050975,50.87098273,43.2],[4.71993721,50.8709607,39.66],[4.71988788,50.87102703,39.33],[4.71929368,50.87218058,39.8],[4.71929102,50.87223591,40.06],[4.71954563,50.8730448,40.13],[4.71955329,50.87306279,40.26],[4.71985722,50.87316507,41.86],[4.72001555,50.87343207,42],[4.71993092,50.87365437,42.33],[4.71993258,50.87368736,42.4],[4.72015201,50.87523647,40],[4.72014835,50.87526846,40],[4.71946124,50.87815486,36.8],[4.71945525,50.87817986,36.73],[4.71852707,50.88046241,37.26]]}}]}