{"type":"FeatureCollection","features":[{"type":"Feature","properties":{"name":"20260520 Cicloturismo","time":"2026-05-20T09:02:07Z"},"geometry":{"type":"LineString","coordinates":[[8.337767,47.04998533,432.12],[8.33756906,47.04996832,432.14],[8.33754473,47.04998598,432.16],[8.33609931,47.05147012,432.04],[8.33606898,47.05148045,432.02],[8.33591435,47.05146013,432.43],[8.33591402,47.05145547,432.43],[8.33608598,47.05146413,432.77],[8.33610764,47.05144714,432.83],[8.33679185,47.05063626,433.32],[8.33682651,47.0505996,433.45],[8.33751308,47.0500267,435.82],[8.33756041,47.04999637,435.95],[8.33783804,47.04995437,436.29],[8.3378927,47.04996137,436.34],[8.33833296,47.05010933,438.23],[8.33833895,47.050105,438.36],[8.33778928,47.04996304,441.63],[8.33774095,47.04995371,441.63],[8.33747166,47.05002269,441.63],[8.33747299,47.05001236,441.62],[8.33857153,47.04941381,441.56],[8.33862252,47.04939348,441.6],[8.34004942,47.04911694,441.78],[8.34011408,47.04911361,441.73],[8.34191492,47.04925887,441.61],[8.34196058,47.04924188,441.58],[8.34328467,47.04723777,442.19],[8.34331266,47.04720011,442.14],[8.34458942,47.04578197,440.98],[8.34461708,47.04575998,440.95],[8.3481248,47.04476594,441.05],[8.34818179,47.04473528,441.07],[8.35123293,47.04235109,454.3],[8.35126359,47.04233043,454.4],[8.35200219,47.04218619,457.41],[8.35203318,47.04217686,457.55],[8.35263639,47.04188763,460.14],[8.35266105,47.04186964,460.31],[8.35360502,47.04059705,468.75],[8.35362135,47.04057705,468.83],[8.3539483,47.04036845,471.21],[8.35397996,47.04035712,471.38],[8.35450952,47.04031384,473.63],[8.35454185,47.0403165,473.75],[8.35739979,47.04066915,485.72],[8.35743678,47.04067615,485.87],[8.35872592,47.040975,491.42],[8.35875958,47.04098699,491.59],[8.3599074,47.04155712,495.06],[8.35994906,47.04155546,495.11],[8.36156849,47.04125607,499.81],[8.36160115,47.04124241,499.95],[8.36362664,47.04010227,494.01],[8.36373363,47.04003927,493.34],[8.36435994,47.03946963,488.22],[8.3644716,47.03940397,487.62],[8.36527956,47.03911067,483.98],[8.36537955,47.03908434,483.94],[8.36732079,47.03914667,480.29],[8.36743278,47.03916267,479.81],[8.36870438,47.03956226,478.1],[8.36879571,47.03959325,477.98],[8.36977665,47.04042119,473.13],[8.36987164,47.04052485,472.31],[8.37068458,47.0416948,460.73],[8.37078658,47.04174946,459.83],[8.37201717,47.04211571,456.38],[8.3720665,47.04213637,456.47],[8.37293974,47.04267994,459.65],[8.37300873,47.0427026,459.68],[8.37533296,47.04283683,450.5],[8.37545796,47.04286216,450.01],[8.37624292,47.04333811,445.1],[8.37632658,47.04337344,444.77],[8.37694223,47.04340576,442.73],[8.37704889,47.04341809,442.4],[8.3774712,47.04360739,440.61],[8.37753819,47.04365872,440.32],[8.37865371,47.04477659,437.46],[8.3786827,47.04481492,437.43],[8.37881933,47.04509122,437.61],[8.37882833,47.04512722,437.66],[8.37881966,47.04558949,439.44],[8.37883232,47.04561348,439.69],[8.37943021,47.04585533,445.06],[8.37945154,47.04587066,445.27],[8.38055555,47.04693833,457.29],[8.38056455,47.04695666,457.51],[8.38054965,47.0479047,465.81],[8.38054765,47.04792503,466.01],[8.38016524,47.04918308,475.52],[8.38017057,47.04920374,475.7],[8.38157046,47.04947495,474.32],[8.38166545,47.04950961,474.12],[8.38305133,47.05028717,471.06],[8.38309932,47.0503135,471.14],[8.38393357,47.05062709,471.93],[8.38396923,47.05064875,472.02],[8.38457746,47.05115897,475.17],[8.38458212,47.05116663,475.28],[8.38444856,47.0517575,477.12],[8.38444556,47.05177683,477.27],[8.38451653,47.05189113,478.18],[8.38454253,47.05190846,478.35],[8.38887149,47.05380405,480.99],[8.38892782,47.05383005,480.99],[8.39335316,47.0561614,477.7],[8.39340682,47.0561884,477.71],[8.39589531,47.05732356,472.91],[8.39596997,47.05736689,472.76],[8.39888718,47.05915074,461.62],[8.39901084,47.05923307,460.93],[8.40094542,47.06079798,447.52],[8.40106142,47.06087797,446.9],[8.40263435,47.06168825,440.71],[8.40273468,47.06175024,440.41],[8.40659977,47.06439104,434.78],[8.40666177,47.06443304,434.89],[8.40786765,47.0652686,436.24],[8.40790431,47.0652976,436.36],[8.4087875,47.06613877,439.48],[8.40882316,47.06616276,439.7],[8.41042593,47.06696687,449.15],[8.41045859,47.0669852,449.16],[8.41147408,47.06771571,452.2],[8.41151141,47.06773637,452.28],[8.41333353,47.0683725,456.36],[8.41336952,47.06838883,456.44],[8.4158795,47.06981248,460.81],[8.41592116,47.06983414,460.89],[8.41835257,47.0708462,460.64],[8.41841157,47.07087286,460.49],[8.42021907,47.07186867,458.1],[8.4202774,47.071899,458.04],[8.42190192,47.07255221,457.53],[8.42196191,47.07258087,457.52],[8.42516936,47.07433502,448.09],[8.42525469,47.07439068,447.72],[8.42886904,47.07726901,443.25],[8.4289137,47.07731034,443.24],[8.43356856,47.08212811,436.05],[8.43359189,47.08214344,436.11],[8.43388851,47.0820358,435.73],[8.43395184,47.08203414,435.45],[8.43505509,47.08227507,435.1],[8.43512308,47.08227108,435.09],[8.43643997,47.08197382,434.56],[8.43648463,47.08196416,434.54],[8.43690424,47.08171288,435.06],[8.43693323,47.08168688,435.08],[8.43703888,47.08140693,434.86],[8.43705321,47.08139494,434.84],[8.43795215,47.08099737,433.66],[8.43806514,47.0811407,433.99],[8.43868203,47.08067678,434],[8.43872169,47.08065545,434.02],[8.43931697,47.08051684,433.7],[8.43935763,47.08049751,433.66],[8.43952994,47.08021389,433.83],[8.4395406,47.08020589,433.82],[8.44133824,47.08131157,438.53],[8.4413629,47.08132623,438.65],[8.4415608,47.0819991,440.75],[8.44157946,47.08202743,440.83],[8.4424343,47.0827673,445.49],[8.44245696,47.0827943,445.56],[8.44366364,47.08505635,446.79],[8.44368563,47.08509368,446.85],[8.44434289,47.08567625,446.56],[8.44436455,47.08570158,446.57],[8.44433189,47.0860522,446.78],[8.44434989,47.08609819,446.73],[8.44489815,47.08698678,444.77],[8.44495015,47.08704244,444.55],[8.44559043,47.08748538,443.23],[8.44565309,47.08751571,443.22],[8.44944076,47.08917041,441.35],[8.44948175,47.08919707,441.49],[8.45177475,47.09151694,453.31],[8.45177475,47.09151661,453.31],[8.45165185,47.09186687,453.53],[8.45162552,47.09191353,453.49],[8.45110323,47.09258812,453.45],[8.45110589,47.09262678,453.53],[8.45195844,47.09304099,455.27],[8.45198277,47.09306932,455.42],[8.45216033,47.09391319,457.81],[8.45217399,47.09394652,457.91],[8.45253959,47.09434112,459.17],[8.45257825,47.09436378,459.23],[8.45313151,47.09456971,460.42],[8.45318184,47.09457904,460.42],[8.45383944,47.09459169,462.64],[8.45388943,47.09458336,462.75],[8.45739178,47.09319804,463.59],[8.45744844,47.09318138,463.68],[8.45814371,47.09311609,464.35],[8.45820971,47.09311975,464.32],[8.45958326,47.09333967,460.81],[8.45966559,47.09333301,460.64],[8.46012155,47.0932057,459.15],[8.46018355,47.09317337,458.93],[8.46051818,47.09288176,457.82],[8.46052784,47.09288775,457.82],[8.46005223,47.09329667,458.41],[8.45999423,47.093318,458.45],[8.459025,47.09341728,459.71],[8.459027,47.09344728,459.66],[8.45998527,47.09432122,452.02],[8.46008326,47.09442055,451.44],[8.46141149,47.0961468,430.15],[8.46151282,47.09622413,428.87],[8.46257712,47.09656275,420.67],[8.46268411,47.09657941,419.74],[8.46374001,47.09651115,409.79],[8.46375134,47.09650849,409.78],[8.46300574,47.0965891,410.72],[8.46298408,47.09661076,410.86],[8.46295779,47.0976696,412.45],[8.46295346,47.09769793,412.52],[8.46271088,47.09800352,414.01],[8.46270155,47.09803251,414.05],[8.46285513,47.09810545,415.36],[8.46287179,47.09811345,415.44],[8.46246915,47.09811946,415.97],[8.46242816,47.09813612,415.91],[8.45990736,47.09959662,432.67],[8.4598727,47.09961595,432.74],[8.458061,47.10051268,438.66],[8.45801567,47.10053301,438.7],[8.45715345,47.10080759,438.9],[8.45710245,47.10083192,438.92],[8.45519601,47.10187004,442.97],[8.45517501,47.10188004,443.06],[8.45467873,47.1017754,441.79],[8.4546224,47.10177839,441.6],[8.45383616,47.10245365,439.7],[8.45376983,47.10248531,439.57],[8.45287122,47.10260762,436.95],[8.45278589,47.10264161,436.83],[8.45242527,47.1031259,435.33],[8.45239527,47.10319756,435.09],[8.45228295,47.10388216,431],[8.45223196,47.10390782,430.5],[8.45201197,47.10395847,428.56],[8.45196731,47.10395681,428.15],[8.45071003,47.10371221,425.33],[8.4506587,47.10373787,425.46],[8.44993254,47.10548672,426.06],[8.44991854,47.10553305,426.05],[8.44991754,47.10585467,425.71],[8.44992387,47.10587133,425.59],[8.45004452,47.10587834,425.3],[8.45005951,47.105894,425.25],[8.45000321,47.10603432,424.87],[8.45001154,47.10605898,424.8],[8.45014618,47.10613062,424.34],[8.45015117,47.10614395,424.3],[8.44983921,47.10609098,424.2],[8.44998187,47.10586465,424.2],[8.44979457,47.10595794,425.57],[8.44977924,47.10598327,425.65],[8.44887981,47.10807736,425.43],[8.44885615,47.10813602,425.46],[8.44855792,47.10944422,424.27],[8.44856625,47.10950621,424.33],[8.44871521,47.10993517,424.37],[8.44874854,47.1099935,424.36],[8.44921649,47.11050878,423.79],[8.44927482,47.11055677,423.67],[8.45205262,47.11235857,420.82],[8.45212561,47.1123999,420.87],[8.45389317,47.11333648,420.51],[8.4539705,47.11336914,420.52],[8.45766728,47.11462123,420.22],[8.45773828,47.11465256,420.24],[8.46173868,47.11667429,420.39],[8.46180834,47.11671162,420.47],[8.46251261,47.11729388,421.47],[8.46254694,47.11734121,421.58],[8.46277488,47.11779351,422.48],[8.46278954,47.11783751,422.58],[8.46301076,47.11890904,426.16],[8.46300876,47.11894404,426.3],[8.46221957,47.12028654,428.1],[8.46220891,47.12034853,427.95],[8.46247944,47.12323697,424.07],[8.46247611,47.12329163,424.13],[8.4618936,47.12477948,424.21],[8.46187927,47.12482348,424.27],[8.46146682,47.12677795,429.62],[8.46145916,47.12681894,429.74],[8.46152137,47.12846303,435.68],[8.46152803,47.12849569,435.81],[8.4623624,47.13044135,442.68],[8.46238573,47.13047201,442.76],[8.46619998,47.13434257,437.03],[8.46620098,47.13440057,436.91],[8.46512864,47.13662023,442.32],[8.46510631,47.13665256,442.52],[8.46409911,47.13738243,446.96],[8.46405578,47.13740709,447.09],[8.46213867,47.13809088,450.45],[8.46208467,47.13810388,450.49],[8.45931918,47.13828441,448.67],[8.45923485,47.13829607,448.65],[8.45842824,47.13864834,447.94],[8.45836891,47.13869367,447.89],[8.45765265,47.13926058,446.94],[8.45764666,47.13926524,446.89],[8.45782529,47.13915992,446.51],[8.45781996,47.13917791,446.49],[8.45653842,47.14071179,437.09],[8.45650442,47.14075912,436.55],[8.45667473,47.14101175,433.34],[8.45667706,47.14106441,432.75],[8.45620646,47.14185469,428.27],[8.45619246,47.14189868,428.15],[8.45641142,47.14219597,427.47],[8.45639076,47.1422353,427.31],[8.45580615,47.14236429,427.15],[8.45578015,47.14241195,427.07],[8.45549595,47.14360782,429.67],[8.45549828,47.14364781,429.92],[8.45600875,47.14631965,422.2],[8.45599142,47.14641365,421.7],[8.4556708,47.14715493,419.95],[8.45564181,47.14720626,420.04],[8.4550206,47.14799383,421.36],[8.4549956,47.14803216,421.44],[8.45454373,47.14893404,425.5],[8.45453973,47.14896737,425.64],[8.4548166,47.1497862,430.46],[8.45482026,47.14981153,430.62],[8.45499079,47.15153433,432.31],[8.45499378,47.15156666,432.47],[8.45491952,47.15208359,434.96],[8.45491186,47.15211825,435.08],[8.45453197,47.15281812,436.8],[8.45450064,47.15285378,436.78],[8.45289213,47.15423029,432.67],[8.4528388,47.15429162,432.48],[8.45240017,47.15520755,429.63],[8.45239117,47.15528321,429.3],[8.45244916,47.15581317,427.25],[8.45247382,47.15588716,426.99],[8.45282045,47.15644212,424.39],[8.45287644,47.15650745,424.2],[8.45432902,47.15746737,421.35],[8.45439468,47.15751303,421.18],[8.45472297,47.15796699,421.04],[8.4547333,47.15801799,421.3],[8.45444108,47.15958315,423.83],[8.45442075,47.15964314,423.65],[8.45404414,47.16018242,426.07],[8.45403014,47.16021075,426.34],[8.45390821,47.16069932,429.09],[8.45388922,47.16073132,429.13],[8.45319138,47.16156149,431.73],[8.45318639,47.16156448,431.8],[8.45410551,47.16374793,430.39],[8.45409818,47.16380226,430.39],[8.4536046,47.16460852,430.1],[8.45358894,47.16467451,429.92],[8.45378957,47.16535148,426.98],[8.45381156,47.16543848,426.45],[8.4537789,47.1657938,424.32],[8.4537309,47.16586846,423.84],[8.45173939,47.16674499,424.55],[8.45171039,47.16678598,424.6],[8.45163482,47.17004707,418.72],[8.45162916,47.17011907,418.66],[8.45121934,47.17290723,416.93],[8.45120801,47.17296722,416.9],[8.45203957,47.17416779,417.11],[8.4520789,47.17421845,417.12],[8.45263514,47.17478139,417.59],[8.45264613,47.17479272,417.58],[8.45250416,47.17469775,417.49],[8.45245883,47.17469509,417.5],[8.45215153,47.17481739,417.7],[8.4521012,47.17484772,417.77],[8.45177824,47.17514469,418.36],[8.45174191,47.17518468,418.39],[8.45174324,47.17535032,418.56],[8.45177557,47.17538798,418.59],[8.45311275,47.17629651,419.21],[8.45317041,47.17632917,419.23],[8.45478794,47.17709172,419.42],[8.4548536,47.17711672,419.43],[8.45801237,47.17811647,418.58],[8.45804903,47.17812713,418.63],[8.45955117,47.17841532,417.71],[8.4595855,47.17841865,417.77],[8.46251988,47.179459,417.12],[8.46257788,47.17947133,417],[8.46306916,47.17928671,415.75],[8.46310216,47.17925738,415.75],[8.46349943,47.17858623,415.23],[8.46349843,47.17858557,415.26],[8.46303853,47.17928581,413.93],[8.46306652,47.17930247,413.98],[8.46572748,47.17997212,424.63],[8.46576748,47.17998112,424.72],[8.46672642,47.18010473,423.2],[8.46682542,47.18013472,422.64],[8.468121,47.18115161,416.49],[8.46819166,47.1811836,416.46],[8.47288937,47.1826387,415.01],[8.47296403,47.18265736,415.03],[8.47524987,47.18293822,414.96],[8.4753262,47.18293955,414.94],[8.47777905,47.18273334,414.96],[8.47785504,47.18271901,414.94],[8.48227506,47.18138405,416.72],[8.48234039,47.18136539,416.67],[8.48255901,47.18099876,416.33],[8.48259567,47.18095877,416.42],[8.48298763,47.18070081,416.85],[8.48305196,47.18068082,416.8],[8.48352658,47.18054286,416.85],[8.48357858,47.1805372,416.9],[8.48399754,47.18074749,417.19],[8.48405854,47.18076782,417.21],[8.48444518,47.18073249,418.02],[8.48451184,47.18071416,418.09],[8.49262489,47.17817743,415.86],[8.49268789,47.17815743,415.74],[8.4935078,47.17759385,415.22],[8.49357513,47.17757185,415.27],[8.49445871,47.17758219,415.26],[8.4945307,47.17756486,415.16],[8.50283977,47.1750171,415.01],[8.50290577,47.17499677,414.96],[8.50581821,47.17352667,417.43],[8.50587754,47.17350201,417.51],[8.51082254,47.17195201,416.75],[8.51089387,47.17192468,416.7],[8.51229944,47.17130413,416.99],[8.51236077,47.1712708,416.94],[8.51342999,47.17053656,417.39],[8.51347432,47.17049423,417.41],[8.51406625,47.16973067,417.5],[8.51409891,47.16968067,417.47],[8.51496237,47.1679762,418.15],[8.5149857,47.16793821,418.18],[8.51496869,47.16742859,418.32],[8.51494703,47.16738359,418.29],[8.51439579,47.16671704,417.64],[8.5143858,47.16667204,417.58],[8.51437249,47.1663724,417.22],[8.51438649,47.16633907,417.2],[8.51467644,47.1661068,418.73],[8.51466878,47.1660778,418.88],[8.51423551,47.16544752,419.64],[8.51420985,47.16540452,419.62],[8.51413286,47.16509487,420.34],[8.51403687,47.16511053,420.34],[8.51418918,47.16500489,420.38],[8.51420651,47.16497923,420.47],[8.51435979,47.16453966,424.41],[8.51436478,47.16453566,424.61],[8.51429248,47.16421036,425.28],[8.51428049,47.16417203,425.24],[8.51212364,47.15861851,416.56],[8.51209998,47.15856385,416.44],[8.51087221,47.15646876,420.27],[8.51085755,47.15642143,420.32],[8.51078928,47.15582814,418.85],[8.51079427,47.15576981,418.67],[8.51104719,47.1548212,417.37],[8.51105152,47.15476121,417.41],[8.51095857,47.15413227,416.07],[8.51093857,47.15407761,415.94],[8.51073293,47.15377265,415.3],[8.51068093,47.15372932,415.19],[8.50959334,47.15305909,415.22],[8.50954268,47.15301709,415.26],[8.50886075,47.15229984,415.12],[8.50883009,47.15225351,415.1],[8.50849692,47.15041704,417.77],[8.50847359,47.15036605,417.79],[8.50818164,47.14986277,417.52],[8.50814198,47.14981744,417.57],[8.50717108,47.14890422,419.24],[8.50714075,47.14885856,419.2],[8.50630032,47.14739309,416.83],[8.50628232,47.14735443,416.89],[8.50579313,47.14593758,417.67],[8.5057768,47.14588525,417.64],[8.50561919,47.14229725,417.02],[8.5056112,47.14224525,417.09],[8.505306,47.14105838,417.5],[8.50528867,47.14100805,417.52],[8.50477615,47.13987351,417.35],[8.50476215,47.13983118,417.36],[8.50466855,47.13919091,418.5],[8.50467021,47.13914625,418.55],[8.50478784,47.13872196,418.94],[8.5048185,47.1386723,419],[8.5055321,47.13794072,418.32],[8.50557776,47.13788872,418.27],[8.50598902,47.13723011,417.65],[8.50602202,47.13717245,417.62],[8.50617897,47.13675615,417.2],[8.50618996,47.13669549,417.12],[8.5061503,47.13633617,416.83],[8.5061273,47.13627884,416.81],[8.50411456,47.13348713,416.66],[8.50408257,47.1334448,416.82],[8.50208151,47.1311828,424.05],[8.50204485,47.13114547,424.12],[8.50012237,47.13015665,423.09],[8.50005338,47.13011799,422.9],[8.49970441,47.12982135,422.04],[8.49965475,47.12976369,421.93],[8.49840292,47.12775754,417.93],[8.49837793,47.12769821,417.9],[8.49803607,47.125917,417.11],[8.49800774,47.12586367,417.11],[8.49763445,47.1254437,417.14],[8.49758345,47.12540237,417.18],[8.49590996,47.12418857,419.59],[8.49587963,47.12415491,419.59],[8.49564436,47.12374796,420.74],[8.49563237,47.12370696,420.92],[8.49551147,47.1228654,422.38],[8.4955148,47.12282507,422.32],[8.49599769,47.12172019,422.1],[8.49601535,47.12166386,422.03],[8.49662911,47.11902111,419.84],[8.4966531,47.11897378,419.85],[8.49742033,47.11803756,419.56],[8.49746366,47.11800223,419.61],[8.49855559,47.11750967,420.72],[8.49861892,47.11747434,420.63],[8.49952684,47.11683842,419.71],[8.49957017,47.11678376,419.72],[8.49988538,47.11522955,420.04],[8.49991071,47.11516955,420.01],[8.50074327,47.11392098,417.98],[8.50077526,47.11386265,417.89],[8.50154009,47.11201614,417.67],[8.50156875,47.11196381,417.66],[8.502437,47.11102292,416.82],[8.50247066,47.11096726,416.81],[8.50265423,47.10988033,416.37],[8.50267422,47.10982833,416.32],[8.50352205,47.10840614,417.45],[8.50355771,47.10836114,417.44],[8.50401833,47.10800652,417.44],[8.50408466,47.10797619,417.4],[8.50538056,47.10756029,416.3],[8.50544156,47.10752363,416.26],[8.5063161,47.10664242,417.59],[8.50637209,47.10661376,417.65],[8.50810765,47.10608188,417.08],[8.50816698,47.10603222,416.96],[8.50836162,47.10575791,416.33],[8.50837995,47.10570058,416.26],[8.50863216,47.10454573,417.64],[8.50865682,47.10450607,417.74],[8.51047119,47.10253435,420.53],[8.51051485,47.10247835,420.23],[8.51099842,47.10149409,417.06],[8.51104308,47.10143776,417.01],[8.51220464,47.10077119,416.38],[8.51225164,47.10072753,416.38],[8.51280121,47.09958664,416.62],[8.5128422,47.09954998,416.68],[8.51440708,47.09863681,416.72],[8.51445608,47.09858681,416.64],[8.51625415,47.09609472,416.91],[8.51630481,47.09605106,416.87],[8.5169301,47.09562679,416.72],[8.51699176,47.09559646,416.74],[8.51826867,47.09519823,417.14],[8.51833766,47.09516924,417.08],[8.51893927,47.09477296,416.62],[8.5189866,47.0947233,416.59],[8.51948217,47.09370642,417.58],[8.51951683,47.09365942,417.66],[8.52072503,47.09262985,416.72],[8.52076203,47.09256552,416.65],[8.52107388,47.09103564,416.38],[8.52108988,47.09098198,416.42],[8.52142716,47.09041104,416.98],[8.52146982,47.09036971,417.01],[8.52195012,47.09006242,417.27],[8.52201345,47.09003676,417.33],[8.52314171,47.08971252,417.78],[8.52321004,47.08968219,417.83],[8.52368766,47.08929725,417.86],[8.52372066,47.08924492,417.87],[8.5239326,47.08848498,418.07],[8.52392294,47.08841965,418.01],[8.52362832,47.08787236,417.57],[8.52360566,47.0878087,417.54],[8.52353304,47.08719375,417.48],[8.52350605,47.08712609,417.44],[8.5230871,47.08645715,416.85],[8.52307244,47.08639682,416.8],[8.52326473,47.08570855,416.56],[8.52327306,47.08564255,416.51],[8.52324845,47.08467131,416.11],[8.52324445,47.08460865,416.07],[8.52288384,47.0838097,415.34],[8.52286118,47.08375204,415.33],[8.52281919,47.08333008,415.9],[8.52283185,47.08326809,416.18],[8.52317743,47.08235485,417.17],[8.52319676,47.08229552,417.16],[8.52337668,47.0813496,417.28],[8.52339268,47.08129594,417.28],[8.52373529,47.08057532,416.66],[8.52376529,47.08051932,416.61],[8.52462419,47.07946809,416.15],[8.52466185,47.0794131,416.13],[8.52511074,47.07824153,416.31],[8.52513307,47.07818987,416.39],[8.52576762,47.07699464,416.82],[8.52579661,47.07694431,416.84],[8.52674851,47.07598976,416.48],[8.52678451,47.07593743,416.45],[8.5281073,47.07350166,415.11],[8.52813296,47.07343733,415.11],[8.52819057,47.07164317,416.53],[8.52818758,47.07158118,416.48],[8.52795737,47.07028162,416.13],[8.52793838,47.07022763,416.16],[8.52715582,47.06904705,416.39],[8.52711016,47.06899672,416.37],[8.52527669,47.06747624,416.69],[8.52523003,47.06742058,416.67],[8.52456681,47.06617938,417.12],[8.52451815,47.06612505,417.25],[8.52305156,47.06496517,417.48],[8.52300257,47.06491317,417.47],[8.52261763,47.06414158,417.4],[8.5225793,47.06408392,417.39],[8.5216754,47.06326833,417.14],[8.52163874,47.063226,417.14],[8.52123914,47.06249341,417],[8.52117348,47.06244641,416.99],[8.51872961,47.06145923,416.5],[8.51863462,47.06144157,416.47],[8.51570713,47.0611937,416.47],[8.51561547,47.06119037,416.49],[8.51468653,47.06131399,416],[8.51461187,47.06133799,415.91],[8.51405225,47.06163362,415.03],[8.51400125,47.06168628,414.86],[8.51294773,47.06312115,415],[8.51290507,47.06316815,414.99],[8.51166321,47.06420936,416.46],[8.51161921,47.06426035,416.29],[8.51104628,47.06516928,414.47],[8.51099629,47.06522027,414.41],[8.51013936,47.06579588,414.01],[8.5100887,47.06584721,413.99],[8.50988142,47.06621317,414.01],[8.50986342,47.06626383,414.06],[8.50946523,47.06773934,415.16],[8.50944057,47.06779033,415.15],[8.50886698,47.06836626,415.11],[8.50880865,47.06840126,415.14],[8.50817335,47.06864288,415.52],[8.50809269,47.06865288,415.52],[8.50608947,47.06872387,414.65],[8.50601047,47.06874787,414.58],[8.50576482,47.06890186,414.42],[8.50572249,47.06895052,414.42],[8.50536055,47.06961446,414.96],[8.50532989,47.06965946,415.04],[8.50500959,47.06991409,415.54],[8.50495059,47.06994175,415.61],[8.50383966,47.07031298,416.23],[8.503772,47.07032831,416.23],[8.50229775,47.07052087,416.27],[8.50222475,47.0705452,416.24],[8.5001269,47.07171768,416.27],[8.50005991,47.07174768,416.4],[8.49800071,47.07240486,416.84],[8.49793338,47.07242986,416.69],[8.49628616,47.07317605,414.92],[8.49621783,47.07320871,414.89],[8.49388339,47.0746578,414.98],[8.49382939,47.07468846,415.01],[8.49186088,47.07548497,416.01],[8.49179555,47.07551663,416.04],[8.49016732,47.07647617,415.12],[8.49010466,47.07651783,415.09],[8.48969202,47.07687312,414.98],[8.48965202,47.07692512,414.99],[8.48904512,47.07791971,415.74],[8.48900446,47.07796837,415.7],[8.48857683,47.07831799,416.19],[8.48851283,47.07835699,416.21],[8.48554196,47.07918417,415.02],[8.48547197,47.07922083,415.02],[8.48230895,47.08164112,420.02],[8.48226295,47.08167245,420.06],[8.4796479,47.08305116,423.82],[8.47959691,47.08307916,423.8],[8.47713484,47.08462723,427.68],[8.47709118,47.08465189,427.98],[8.47517237,47.08556534,428.97],[8.47508971,47.0856,428.76],[8.47279385,47.08634582,428.17],[8.47273286,47.08636881,428.12],[8.47044066,47.08737936,421.8],[8.470367,47.08742769,421.67],[8.46826421,47.0892025,423.43],[8.46822988,47.08923883,423.48],[8.46662308,47.0914969,423.06],[8.46657709,47.09154323,423.08],[8.4647246,47.09293403,421.8],[8.46469127,47.09297036,421.68],[8.46440998,47.09342963,421.97],[8.46439398,47.09346662,422.05],[8.46396052,47.09472679,425.17],[8.46394186,47.09475912,425.26],[8.46322631,47.095389,426.77],[8.46318131,47.09541433,426.78],[8.46145979,47.09612183,424.95],[8.46140413,47.0961135,425],[8.46124815,47.09594854,425.9],[8.46125915,47.09593255,426.06],[8.4616454,47.09580962,427.76],[8.46164573,47.09580863,427.76],[8.46115645,47.09585561,427.65],[8.46114412,47.09584628,427.64],[8.4596685,47.09400426,452.17],[8.45965784,47.0939916,452.32],[8.45890945,47.0933338,463.33],[8.45888979,47.09332147,463.48],[8.45832087,47.09319255,465.21],[8.45827254,47.09318689,465.29],[8.45735196,47.0932802,466.87],[8.45729263,47.09329953,466.96],[8.45420753,47.09457464,467.37],[8.45413953,47.09459463,467.39],[8.45297158,47.09462462,466.27],[8.45287925,47.09459796,466.06],[8.45218329,47.09415667,463.74],[8.45213363,47.09409068,463.48],[8.45186667,47.0931194,461.23],[8.45181101,47.0930504,460.85],[8.45106372,47.09270112,457.89],[8.45101773,47.09265079,457.34],[8.45098873,47.09248981,456.25],[8.45100539,47.09243515,456.08],[8.45144502,47.09193119,455.34],[8.45148401,47.09188053,455.4],[8.45156566,47.09157223,455.94],[8.45155367,47.09152124,456.04],[8.44987548,47.08966739,448.62],[8.44980482,47.08960039,448.29],[8.44893486,47.08896045,444.57],[8.44883853,47.08890779,444.18],[8.4456458,47.08757371,444.39],[8.4455918,47.08754905,444.36],[8.4447972,47.08699181,443.7],[8.44476287,47.08695281,443.72],[8.44319453,47.08441416,447.83],[8.44316653,47.08436617,447.77],[8.44288128,47.08354157,447.02],[8.44286128,47.08349457,446.89],[8.44243799,47.08281799,446.76],[8.442409,47.08277733,446.76],[8.44165975,47.08209673,444.28],[8.44161109,47.08203807,443.94],[8.44113453,47.08118215,439.46],[8.4410942,47.08114582,439.2],[8.43950301,47.08023328,433.84],[8.43946368,47.08019062,433.88],[8.43949599,47.07979266,434.17],[8.43949632,47.07974266,434.16],[8.43937302,47.07942104,433.94],[8.43937801,47.07937538,433.89],[8.43961294,47.0788471,433.72],[8.43961261,47.0788121,433.78],[8.43942599,47.07846182,432.94],[8.43939533,47.07842716,432.84],[8.43860879,47.07774893,433.47],[8.43856546,47.07773127,433.46],[8.43758788,47.07749234,433.82],[8.43752989,47.07748335,433.74],[8.43676693,47.07745838,433.01],[8.4367066,47.07744772,433.02],[8.43605434,47.07717079,433.04],[8.43603368,47.07713846,433.08],[8.43611433,47.07691217,433.95],[8.43614166,47.07688384,434.14],[8.43758099,47.07561456,445.42],[8.43757499,47.07559256,445.64],[8.43664231,47.07403217,449.67],[8.43659765,47.07398651,449.47],[8.43619635,47.0737662,447.81],[8.43608002,47.07372554,446.99],[8.43515771,47.07355024,442.17],[8.43504838,47.07350058,441.33],[8.43391514,47.07254033,435.91],[8.43389648,47.07250533,435.97],[8.43437909,47.07213544,438.97],[8.43439708,47.07211511,439.2],[8.43427381,47.07174456,442.96],[8.4342768,47.07171856,443.13],[8.43450074,47.07152463,445.3],[8.43450074,47.07150597,445.42],[8.43327964,47.06938323,444.55],[8.43326298,47.0693499,444.7],[8.43323465,47.06859398,444.05],[8.43321999,47.06853965,443.78],[8.43230991,47.06672494,449.6],[8.43230191,47.06668528,449.57],[8.4327635,47.06547938,444.9],[8.43279249,47.06543039,444.82],[8.43341673,47.06494881,446.22],[8.43341274,47.06492348,446.44],[8.4322389,47.06365596,445.48],[8.43218591,47.06358997,445.3],[8.43111136,47.06180276,437.71],[8.43105803,47.06172843,437.4],[8.42951686,47.06010225,436.48],[8.42948686,47.06006726,436.61],[8.42911863,47.05944003,437.97],[8.42910397,47.05940304,438.01],[8.42900568,47.05841686,442.18],[8.42900867,47.05838653,442.36],[8.42934885,47.05729637,446.42],[8.42936018,47.05727437,446.49],[8.43121752,47.05618037,455.38],[8.43124452,47.05615837,455.42],[8.43149612,47.05580042,456.77],[8.43150878,47.05577243,456.86],[8.4315601,47.05536416,458.44],[8.43155711,47.05534117,458.56],[8.43074067,47.05403614,465.44],[8.43072568,47.05401781,465.56],[8.42913738,47.0528239,475.14],[8.42911938,47.0528059,475.31],[8.426317,47.04955163,500.72],[8.42630734,47.04953097,500.8],[8.42575305,47.04728835,503.62],[8.42575039,47.04727535,503.66],[8.42602601,47.04715472,504.45],[8.42602335,47.04712239,504.44],[8.42573514,47.04648886,505.96],[8.42573747,47.04645987,506.11],[8.42587278,47.04633257,506.89],[8.42591077,47.04632191,507.01],[8.42718297,47.04610405,507.96],[8.42722563,47.04608239,507.95],[8.42758486,47.04551817,509.75],[8.42759152,47.04549584,509.99],[8.42728108,47.04435243,513.3],[8.42727475,47.04432477,513.34],[8.42734534,47.04363956,513.92],[8.42734401,47.0436149,514.11],[8.42717544,47.04265302,515.48],[8.42716944,47.04261536,515.68],[8.4268889,47.04176816,516.27],[8.42688524,47.04173483,516.25],[8.42722113,47.04072262,516.65],[8.42721547,47.04068696,516.66],[8.42694888,47.03994802,512.17],[8.42691255,47.03987502,511.85],[8.42622561,47.03886708,506.27],[8.42615695,47.03877242,505.6],[8.4234908,47.03567962,470.6],[8.4234698,47.03564996,470.34],[8.42363872,47.03512543,467.35],[8.42365938,47.0350901,467.12],[8.42445431,47.03471583,465.71],[8.42451797,47.03467117,465.5],[8.42534754,47.03383926,461.35],[8.42542054,47.0337986,461.11],[8.42729139,47.03312808,461.3],[8.42735205,47.03311309,461.41],[8.42912561,47.0328882,460.34],[8.42920794,47.03285754,460.21],[8.42998487,47.03209726,456.99],[8.43007687,47.03207227,456.71],[8.43185445,47.03234787,450.49],[8.43199911,47.03235186,450.13],[8.43343872,47.03225191,444.01],[8.43356405,47.03224825,444.02],[8.43496399,47.03231649,433.93],[8.43504298,47.03231183,433.37],[8.43559124,47.0320599,430.02],[8.43557991,47.03205524,429.38],[8.43570321,47.03226987,429.93],[8.43572287,47.0322912,429.99],[8.43605151,47.0323265,430.44],[8.43611184,47.03231984,430.48],[8.43652914,47.03220289,430.79],[8.43658447,47.03218156,430.85],[8.43740407,47.03160832,431.1],[8.4374574,47.03157799,431.12],[8.43833532,47.03124006,431.24],[8.43839398,47.03121107,431.26],[8.43948283,47.03055721,432.71],[8.43953049,47.03055122,432.74],[8.441023,47.03119608,434.45],[8.44110266,47.03121474,434.47],[8.44245792,47.0312094,433.66],[8.44254158,47.03118341,433.58],[8.44403715,47.03041286,433.11],[8.44410648,47.03038486,433.15],[8.44598036,47.02985999,433.24],[8.44603569,47.02983066,433.29],[8.44819217,47.02788017,433.53],[8.44825283,47.02783817,433.55],[8.45032431,47.02660403,434.31],[8.45038697,47.02657137,434.35],[8.45259546,47.02558853,433.16],[8.45265646,47.0255522,433.14],[8.45332805,47.02505158,433.45],[8.45337805,47.02500592,433.49],[8.45413759,47.02415635,434.15],[8.45418425,47.02411702,434.2],[8.45471022,47.02383673,434.57],[8.45477988,47.0238164,434.58],[8.45761672,47.0234772,434.16],[8.45770372,47.02348653,434.13],[8.45932728,47.0241711,433.23],[8.45941728,47.02419776,433.19],[8.46203781,47.02463664,432.8],[8.4621308,47.02463631,432.83],[8.46263911,47.024594,433.15],[8.46269977,47.02456867,433.19],[8.46455491,47.02346821,432.66],[8.46462724,47.02345521,432.65],[8.46731473,47.02371603,432.44],[8.46738706,47.02371969,432.46],[8.46805066,47.02361039,433.14],[8.46809966,47.02357906,433.28],[8.46833327,47.02325176,433.91],[8.46834793,47.0231941,433.94],[8.4683123,47.02210552,434.07],[8.46831396,47.02205153,434.12],[8.46854689,47.02137127,434.14],[8.46858555,47.02132361,434.12],[8.47070565,47.01969315,434.98],[8.47074998,47.01965982,435],[8.47227955,47.01887059,434.56],[8.47233688,47.01882426,434.57],[8.47345471,47.01727772,434.94],[8.47350737,47.01723773,435.01],[8.47398034,47.0170121,435.13],[8.47406067,47.01698844,435.11],[8.47629754,47.01643255,433.77],[8.47637487,47.01640589,433.74],[8.4773911,47.01563466,435.06],[8.47744176,47.01560067,435.28],[8.47809438,47.01526041,437.11],[8.47815038,47.01523541,437.22],[8.47978259,47.01460054,435.89],[8.47986492,47.01456921,435.83],[8.48094619,47.01436961,435.19],[8.48103452,47.01434728,435.18],[8.48189347,47.01398834,434.79],[8.4819458,47.01393801,434.77],[8.48277167,47.01277081,434.23],[8.482788,47.01271815,434.22],[8.48294747,47.01118796,436.86],[8.48295613,47.01114296,436.9],[8.48330038,47.01032171,437.81],[8.48331038,47.01028005,437.98],[8.48346293,47.00881491,439.46],[8.48347026,47.00876491,439.41],[8.48365688,47.00820764,439.4],[8.48367488,47.00816164,439.39],[8.48499149,47.00555768,444.45],[8.48501482,47.00551735,444.56],[8.48617959,47.00388692,448.66],[8.48619225,47.00384426,448.71],[8.48575371,47.00253508,450.1],[8.48573605,47.00248442,450.13],[8.48546245,47.00212681,450.15],[8.48541712,47.00209015,450.19],[8.48478584,47.00182786,450.76],[8.48473351,47.00180086,450.85],[8.48445924,47.00145224,451.45],[8.48441924,47.00141624,451.52],[8.4838403,47.00114795,452.27],[8.48378397,47.00112362,452.34],[8.48278939,47.00086403,452.92],[8.48273006,47.00084604,453.03],[8.47794448,46.99899084,457.51],[8.47789748,46.99896485,457.56],[8.47770251,46.99878388,457.89],[8.47769285,46.99874955,457.95],[8.47791911,46.99830562,458.14],[8.47792077,46.99828129,458.16],[8.47772721,46.99777506,459.84],[8.47770055,46.9977454,459.96],[8.47689766,46.99730684,462.69],[8.47686333,46.99727784,462.84],[8.47615346,46.99639265,465.95],[8.4761148,46.99636765,466.07],[8.474692,46.99608113,469.42],[8.47466001,46.99606147,469.48],[8.47446508,46.99570286,470.36],[8.47445309,46.99566953,470.45],[8.47446476,46.99542556,471.03],[8.47448542,46.99539256,471.1],[8.47466439,46.99526526,471.16],[8.47471572,46.9952546,471.16],[8.47621928,46.99506242,470.63],[8.47627727,46.99504509,470.62],[8.47772879,46.99432955,470.91],[8.47778745,46.99431389,470.92],[8.47885004,46.99432954,470.09],[8.4789227,46.99432388,470.05],[8.48106891,46.99387235,468.88],[8.48113624,46.99386769,468.73],[8.48143923,46.99392001,467.81],[8.48148956,46.99394534,467.74],[8.48209284,46.99436764,466.4],[8.4821585,46.99439464,466.34],[8.4838434,46.99492185,465.26],[8.48392473,46.99494651,465.27],[8.48476636,46.99496282,465.2],[8.48486369,46.99493982,465.2],[8.48587063,46.99441954,464.97],[8.48595429,46.99438254,464.95],[8.48699556,46.9942016,464.4],[8.48708289,46.99417727,464.31],[8.48828716,46.99371736,463.66],[8.48836482,46.99368703,463.55],[8.48963339,46.99300444,462.15],[8.48970805,46.99297644,462.08],[8.49073965,46.99275517,461.03],[8.49081098,46.99272318,461],[8.49262982,46.99095641,459.34],[8.49270915,46.99093408,459.44],[8.49468069,46.99090174,459.5],[8.49476135,46.99089541,459.49],[8.49613627,46.99062583,457.47],[8.4962356,46.99061117,457.38],[8.49730955,46.99055887,455.17],[8.49742221,46.99057253,455.05],[8.49905746,46.99122545,449.94],[8.49915879,46.99126545,449.58],[8.4997171,46.99168908,446.81],[8.49981076,46.99174708,446.38],[8.50051007,46.99197639,443.69],[8.5006404,46.99200072,443.3],[8.50701008,46.99265145,434.04],[8.50709074,46.99265911,434.01],[8.51076943,46.99283283,435.67],[8.51138809,46.99285216,434.59],[8.51381129,46.99330366,435.42],[8.51389195,46.99331499,435.39],[8.51526186,46.99338689,435.23],[8.51531786,46.99339822,435.29],[8.51632975,46.99392981,435.25],[8.51639641,46.9939598,435.12],[8.51687571,46.9940481,434.3],[8.51696071,46.99404677,434.19],[8.5188919,46.99389454,434.65],[8.51896589,46.99388054,434.61],[8.52072905,46.99322905,437.77],[8.52080238,46.99320639,437.7],[8.52304621,46.99269254,435.6],[8.52310887,46.99266688,435.61],[8.52338083,46.99243091,435.51],[8.52339949,46.99238891,435.51],[8.52359374,46.99155966,434.94],[8.52362907,46.99151133,434.92],[8.52440998,46.99092839,436.51],[8.52446697,46.99090973,436.65],[8.52552023,46.99075348,436.09],[8.52560356,46.99074848,436.02],[8.52738542,46.99086106,435.73],[8.52745408,46.99086073,435.7],[8.52967091,46.99068354,436.91],[8.52974157,46.99067321,436.88],[8.53057414,46.99002932,438.57],[8.53062647,46.99001066,438.65],[8.53189535,46.9900013,440.14],[8.53195668,46.98999664,440.22],[8.53255596,46.98980369,441.27],[8.53260629,46.98977936,441.35],[8.53288693,46.98955273,442.01],[8.53291359,46.98951407,442.11],[8.53310752,46.98903579,443.33],[8.53314185,46.9890038,443.45],[8.53434374,46.98842491,445.84],[8.53439407,46.98840591,445.9],[8.53611227,46.98820499,447.41],[8.53617526,46.98820066,447.51],[8.5372985,46.98825059,448.44],[8.53736883,46.9882466,448.46],[8.53813977,46.98809598,449.19],[8.5382051,46.98809931,449.27],[8.54801507,46.98914856,450.75],[8.54807606,46.98915855,450.8],[8.55291334,46.99059982,452.26],[8.552986,46.99061048,452.32],[8.55586581,46.99062045,454.51],[8.55593181,46.99063744,454.61],[8.55622044,46.9907724,455.2],[8.55626677,46.9908084,455.31],[8.55663171,46.99121102,455.76],[8.55667837,46.99124401,455.81],[8.55722897,46.99152629,456.64],[8.55726796,46.99155895,456.71],[8.55772257,46.99217087,457.16],[8.5577719,46.99220386,457.17],[8.5586605,46.99263679,458.24],[8.55872216,46.99265779,458.3],[8.56049669,46.99312297,460.59],[8.56054235,46.99314563,460.67],[8.56112324,46.99402584,460.15],[8.56118424,46.99407117,460.02],[8.56207418,46.99450344,457.1],[8.56214417,46.99454443,456.89],[8.56494266,46.99628124,449.19],[8.56503866,46.99633057,448.82],[8.56595061,46.99655386,446.32],[8.5660726,46.99656652,446.04],[8.56832484,46.99665351,442.24],[8.56841784,46.99668284,442.26],[8.56895081,46.9969618,441.48],[8.56901214,46.9970118,441.3],[8.56985072,46.99787737,438.91],[8.56991438,46.99792536,438.77],[8.57080663,46.99842062,438.14],[8.57084062,46.99843728,438.13],[8.57484636,46.9998197,438.47],[8.57492269,46.9998357,438.45],[8.57740448,46.99976008,439.58],[8.57746414,46.99977541,439.61],[8.57783976,46.99996504,439.53],[8.57788442,47.00000303,439.49],[8.57837336,47.00056262,438.19],[8.57842935,47.00060695,438.06],[8.57892432,47.00081724,437.49],[8.57900498,47.0008329,437.46],[8.58203843,47.0011634,436.78],[8.58211476,47.00116939,436.75],[8.58555746,47.00128532,437.41],[8.58563412,47.00128499,437.37],[8.59158666,47.00071316,439.09],[8.59160532,47.0007115,439.04],[8.59142176,47.00048826,437.34],[8.5914211,47.0004846,437.32],[8.59283443,47.00057826,438.38],[8.59289076,47.0005676,438.42],[8.59360669,47.00029167,438.5],[8.59365668,47.00026534,438.53],[8.59419662,46.99987472,439.27],[8.59420328,46.99983639,439.37],[8.59357537,46.99866986,438.63],[8.59355204,46.99861686,438.55],[8.59345075,46.9980146,438],[8.59344142,46.99799127,437.98],[8.59328179,46.99793129,437.85]]}}]}