{"type":"FeatureCollection","features":[{"type":"Feature","properties":{"name":"20260524 Cicloturismo","time":"2026-05-24T08:03:32Z"},"geometry":{"type":"LineString","coordinates":[[9.03884133,46.21232966,241.35],[9.03903459,46.21273557,241.34],[9.03904525,46.21276723,241.37],[9.03910186,46.2132238,241.68],[9.03911219,46.2132488,241.7],[9.03918518,46.21326546,241.8],[9.03920484,46.21324847,241.8],[9.03935379,46.21294219,242.57],[9.03936145,46.21291253,242.78],[9.03923683,46.21251159,244.29],[9.03921717,46.21247526,244.38],[9.03778805,46.21065913,242.32],[9.03775405,46.21061813,242.15],[9.03702982,46.20990088,241.37],[9.03699316,46.20985722,241.37],[9.03697684,46.20945625,241.23],[9.03693418,46.20942125,241.19],[9.03454634,46.2085484,239.78],[9.03448268,46.20852507,239.82],[9.0323505,46.20796024,240.06],[9.03228784,46.20794491,240.07],[9.02956407,46.2076301,238.67],[9.02948974,46.20761244,238.59],[9.02761455,46.20679659,238.1],[9.02754489,46.20676493,238.04],[9.026377,46.20584871,237.34],[9.026329,46.20580338,237.31],[9.02417355,46.20357229,235.11],[9.02411989,46.2035313,234.94],[9.02049553,46.20142297,234.15],[9.0204692,46.20139497,234.21],[9.02055718,46.20122133,234.22],[9.02059351,46.20119467,234.19],[9.02595813,46.19749473,233.74],[9.02598579,46.19747707,233.69],[9.02654474,46.1976057,233.39],[9.02659307,46.19758904,233.45],[9.02840051,46.19634026,234.85],[9.02844517,46.1963126,234.93],[9.02903177,46.19624129,236.21],[9.02907443,46.19622829,236.42],[9.02925172,46.19606599,237.88],[9.02925638,46.19604,237.88],[9.0291964,46.19586337,239.55],[9.02917807,46.19584104,239.72],[9.02860124,46.19531422,244.17],[9.02851125,46.19530722,245.17],[9.02840193,46.19507962,245.1],[9.02836994,46.19505429,245],[9.02349325,46.19184156,235.16],[9.02347026,46.1918249,235.21],[9.02268915,46.19107074,235.83],[9.02267515,46.19105141,235.85],[9.02253095,46.19019159,235.23],[9.02252296,46.19017259,235.24],[9.02230168,46.1900973,235.32],[9.02229235,46.19009863,235.33],[9.0219751,46.1895424,236.1],[9.02195244,46.18951841,236.12],[9.02164214,46.18954707,236.24],[9.02158181,46.18956773,236.11],[9.01750348,46.1910901,230.57],[9.01746882,46.19109143,230.5],[9.0170732,46.19080779,229.68],[9.01703354,46.1907598,229.59],[9.01594468,46.18922089,227.94],[9.01590535,46.18917656,228.01],[9.01559105,46.18909424,228.3],[9.01556139,46.18910057,228.3],[9.01383024,46.18965806,229.94],[9.01382225,46.18969039,229.94],[9.01517324,46.19187072,230.05],[9.01515291,46.19189105,230.01],[9.01113897,46.19338064,231.36],[9.01110364,46.19339164,231.5],[9.0097238,46.19265783,229.02],[9.00971547,46.1926505,229.01],[9.00888362,46.19155804,229.91],[9.00886262,46.19151604,229.83],[9.00871471,46.1907818,226.86],[9.00869805,46.19073447,226.75],[9.00786257,46.18911529,227.3],[9.00784358,46.18907463,227.31],[9.00758837,46.18809541,226.8],[9.00757237,46.18805075,226.73],[9.00705019,46.18674388,226.62],[9.00703386,46.18669988,226.62],[9.00676691,46.18632493,226.47],[9.00674992,46.18628827,226.45],[9.00643647,46.18438349,225.61],[9.00642648,46.18433783,225.61],[9.00585202,46.18220675,225.53],[9.00584203,46.18216509,225.53],[9.00554844,46.18159682,225.08],[9.00553478,46.18155782,225.03],[9.00553477,46.18109821,224.83],[9.00552577,46.18105455,224.88],[9.00522024,46.17996135,224.72],[9.00520558,46.17991602,224.73],[9.00494996,46.17946539,224.89],[9.00493663,46.17942573,224.9],[9.00492329,46.17903345,224.98],[9.0049143,46.17900312,225.07],[9.00433216,46.17803928,226.84],[9.00431683,46.17801228,226.75],[9.00440846,46.17778801,226.82],[9.0044028,46.17776601,226.91],[9.00349228,46.17681584,229.3],[9.00345895,46.17678584,229.29],[9.00240777,46.1760153,228.83],[9.00236311,46.17599064,228.79],[9.00007569,46.17501189,228.05],[9.00000536,46.17498989,227.93],[8.9971549,46.17450779,226.13],[8.99711224,46.17450413,226.23],[8.99285458,46.17450537,224.25],[8.99277092,46.17450337,224.03],[8.98622242,46.17470567,219.9],[8.98616509,46.17470633,219.91],[8.98091153,46.17461057,219.07],[8.98086354,46.17460891,219.04],[8.9736235,46.17405111,218.11],[8.97355284,46.17404378,218.14],[8.96981179,46.173562,217.87],[8.96972979,46.17354967,217.88],[8.96677863,46.17302415,216.86],[8.96672897,46.17299582,216.78],[8.96688294,46.16845363,215.49],[8.9668986,46.16840697,215.48],[8.97011744,46.16399978,215.8],[8.97010644,46.16397145,215.81],[8.95464568,46.15875497,212.83],[8.95458402,46.15874831,213.19],[8.95540577,46.15640395,213.69],[8.95541843,46.15636862,213.69],[8.95535813,46.15624332,213.21],[8.95535747,46.15624166,213.18],[8.95553542,46.15607169,213.53],[8.95554942,46.15603603,213.55],[8.95707265,46.15170954,214.75],[8.95703632,46.15166855,215.23],[8.9577699,46.15153794,215.4],[8.95776824,46.15150061,215.41],[8.95681033,46.15125168,216.73],[8.95675734,46.15124435,216.77],[8.95495624,46.15111558,224.95],[8.95492191,46.15110959,225.08],[8.95407638,46.15082308,228.99],[8.95404905,46.15081075,229.18],[8.95222677,46.1495395,243.23],[8.95220811,46.1495245,243.36],[8.95097013,46.14797117,247.8],[8.95092014,46.14794984,247.88],[8.95042653,46.14777759,249.62],[8.95038153,46.14777026,249.87],[8.94954562,46.14773935,254.73],[8.94950162,46.14773802,255.01],[8.94859408,46.1478796,261.03],[8.94856608,46.1478636,261.24],[8.94855207,46.14764697,262.62],[8.9485834,46.14763064,262.73],[8.95020352,46.14721721,271.6],[8.95023618,46.14720888,271.8],[8.95033049,46.14710123,272.93],[8.95031316,46.14708257,273.14],[8.94818849,46.14755524,288.49],[8.94816249,46.1475569,288.78],[8.94497164,46.14732564,310.04],[8.94494531,46.14732398,310.19],[8.94173307,46.1465024,327.38],[8.94169841,46.14649641,327.61],[8.93595997,46.14577482,356.13],[8.93592831,46.14577049,356.33],[8.93480417,46.14550502,363.03],[8.93477217,46.14550069,363.18],[8.93335738,46.14540852,372.94],[8.93333005,46.14540286,373.27],[8.9327265,46.14515631,376.94],[8.93271184,46.14513632,377.08],[8.93271884,46.1449407,378.15],[8.9327325,46.1449197,378.26],[8.93293513,46.14480874,378.89],[8.93296979,46.14480441,379.01],[8.93383102,46.14494096,381.8],[8.93386568,46.14494262,381.94],[8.93578442,46.1447795,391.5],[8.93581908,46.14477884,391.61],[8.93912557,46.14504235,403.3],[8.9391619,46.14504401,403.46],[8.94063731,46.14508914,408.81],[8.94067497,46.14508848,408.94],[8.94111523,46.14500653,410.63],[8.94114356,46.14499087,410.78],[8.94130188,46.14487857,411.52],[8.94131687,46.14485291,411.65],[8.94123355,46.14470694,412.35],[8.94119722,46.14469661,412.48],[8.94020739,46.14479378,417.24],[8.94017506,46.14479411,417.38],[8.9390989,46.14466522,422.52],[8.93903257,46.14465989,422.95],[8.93739419,46.14398712,430.49],[8.93736819,46.14397279,430.73],[8.93630937,46.14374859,436.99],[8.93627871,46.14374493,437.16],[8.93271893,46.14374188,458.97],[8.93268927,46.14374022,459.1],[8.9311022,46.1435848,469.88],[8.93107321,46.14358147,470.05],[8.92917784,46.14319312,480.94],[8.92914618,46.14319046,481.13],[8.923494,46.14290356,514.34],[8.92345934,46.14290156,514.49],[8.92208992,46.14298803,522.3],[8.92208392,46.14298969,522.44],[8.91928468,46.1427658,535.7],[8.91925102,46.14276514,535.88],[8.91645669,46.14294207,545.07],[8.91641136,46.14294607,545.1],[8.91066918,46.14363656,547.77],[8.91060452,46.14363457,547.78],[8.90850268,46.14322906,547.16],[8.90843202,46.1432244,547.22],[8.9057016,46.14333484,550.8],[8.90565427,46.1433355,550.93],[8.90504136,46.14323988,552.49],[8.9050067,46.14323855,552.58],[8.90487041,46.1433255,553.14],[8.90486542,46.14332484,553.15],[8.90486109,46.14331884,553.19],[8.9048191,46.14313485,553.2],[8.90435885,46.14263492,554.59],[8.90434419,46.14259226,554.62],[8.9044088,46.14178602,555.56],[8.90442979,46.14174569,555.64],[8.90569692,46.1401369,558.69],[8.90574158,46.14010024,558.78],[8.90667249,46.13938801,559.87],[8.90671415,46.13935968,559.96],[8.9070641,46.13929572,560.57],[8.90707676,46.13929439,560.6],[8.9069951,46.13922242,561.52],[8.90700776,46.13918976,561.51],[8.9072084,46.13900979,561.28],[8.90725673,46.13896946,561.3],[8.91060083,46.13638509,553.36],[8.91069349,46.1363241,552.91],[8.91326906,46.13511585,539.18],[8.91341572,46.13504119,538.16],[8.91480234,46.13420225,527.18],[8.914929,46.13411059,526.27],[8.92055873,46.1295042,489.49],[8.92065473,46.12942387,489.02],[8.92255662,46.12770303,480.18],[8.92261361,46.1276417,480.05],[8.92579906,46.12251456,476.3],[8.92583206,46.1224609,476.26],[8.92834729,46.11809128,466.44],[8.92839062,46.11801829,466.2],[8.9312743,46.11332928,451.92],[8.9313063,46.11325595,451.79],[8.93187343,46.11075815,448.13],[8.93188509,46.11068982,448.09],[8.93197036,46.10925728,445.63],[8.9319657,46.10919262,445.61],[8.93172814,46.10805604,448.56],[8.93171114,46.10800405,448.77],[8.93100501,46.10626625,450.77],[8.93099001,46.10620592,450.8],[8.9308827,46.10383406,443.62],[8.9308727,46.10376106,443.24],[8.93041979,46.10237281,438.66],[8.93039413,46.10230248,438.58],[8.92242232,46.09135205,417.07],[8.92238799,46.09130572,417.22],[8.91994264,46.08846468,416.33],[8.91992198,46.08840602,416.25],[8.91990155,46.08583091,414.4],[8.91989656,46.08577658,414.55],[8.92022886,46.08016406,409.33],[8.92023519,46.08008873,409.26],[8.92049081,46.07914781,408.08],[8.92052714,46.07907215,407.93],[8.92119508,46.0781062,404.44],[8.92126207,46.07803487,404.22],[8.92551809,46.0745445,391.93],[8.92551842,46.0745405,391.91],[8.92699288,46.07363761,391.01],[8.92705254,46.07360428,390.84],[8.92842545,46.07297535,387.77],[8.92852078,46.07293902,387.5],[8.93412415,46.07137498,368.33],[8.93422148,46.07132965,368.22],[8.93510207,46.07067005,367.83],[8.93513606,46.07063006,367.93],[8.93536002,46.07024143,368.52],[8.93537535,46.07020143,368.6],[8.9354573,46.06975216,369.01],[8.93545863,46.0697105,369.07],[8.93534043,46.0677977,365.26],[8.93533443,46.06773471,365.06],[8.93515782,46.06702443,363],[8.93513349,46.06695744,362.85],[8.93180092,46.0603259,346.59],[8.93175559,46.06025457,346.34],[8.92975217,46.05428608,346.94],[8.92973351,46.05424208,347.08],[8.9262046,46.04851357,336.86],[8.92616294,46.04844291,336.64],[8.92604197,46.04814727,335.94],[8.92602331,46.04807094,335.7],[8.92595968,46.04729699,332.45],[8.92592335,46.04722633,332.11],[8.92539708,46.04672104,330.4],[8.92537642,46.04666204,330.33],[8.92561737,46.04589542,331.17],[8.92564603,46.04584276,331.26],[8.92678353,46.04414892,328.34],[8.9267742,46.04409693,328.24],[8.92483071,46.04266544,331.49],[8.92477871,46.04263011,331.59],[8.92427743,46.04243847,332.27],[8.92422543,46.04240981,332.28],[8.92355021,46.04139025,332.83],[8.92351855,46.04135125,333.09],[8.9231476,46.04114531,334.93],[8.92312894,46.04111831,335],[8.9234775,46.04020409,337.95],[8.92348949,46.04015276,337.94],[8.92355512,46.03876188,332.95],[8.92356811,46.03867588,332.65],[8.92416265,46.03655668,323.51],[8.92416831,46.03645102,322.81],[8.92412831,46.03566507,315.77],[8.92411965,46.03558274,315.08],[8.92344049,46.03320227,306.1],[8.92340583,46.03312661,305.96],[8.92243659,46.03183436,304.94],[8.92238693,46.0317827,304.94],[8.92037642,46.03028385,301.96],[8.92031609,46.03023052,301.83],[8.91945618,46.02915894,300.48],[8.91941652,46.02909695,300.45],[8.91778642,46.02636152,297.77],[8.91775209,46.02629619,297.8],[8.91679057,46.02404969,295.15],[8.91675891,46.02398336,295.02],[8.91338243,46.01739458,290.33],[8.9133441,46.01734125,290.28],[8.91312612,46.01715994,290.27],[8.91305713,46.01712494,290.28],[8.91108437,46.01634219,297.71],[8.91105038,46.01632053,297.89],[8.90868276,46.01451558,311.1],[8.90865076,46.01448925,311.18],[8.9080135,46.013815,308.69],[8.90795284,46.01376101,308.42],[8.90758757,46.01366169,307.64],[8.91208057,45.99745803,281.57],[8.91363318,45.99775994,278.97],[8.91371651,45.99775728,279.1],[8.91434179,45.99765566,280.21],[8.91439812,45.99763767,280.33],[8.91493938,45.99735006,282.84],[8.91497337,45.99732407,283.01],[8.91538531,45.99680316,286.69],[8.91539364,45.9967725,286.9],[8.91550187,45.99524644,297.07],[8.91550553,45.99521678,297.28],[8.91565946,45.99470155,300.96],[8.91567446,45.99467389,301.18],[8.916265,45.99399204,306.83],[8.91628833,45.99397104,307.03],[8.9170469,45.99352752,311.79],[8.91708356,45.99351352,312.01],[8.91832774,45.99324065,317.5],[8.91838007,45.99323865,317.73],[8.92092851,45.99340414,330.28],[8.92097384,45.99340148,330.5],[8.92401454,45.99295647,342.04],[8.92406453,45.99295314,342.19],[8.92914911,45.99405342,346.94],[8.92921377,45.99407508,347],[8.92985436,45.99441803,347.77],[8.92990702,45.99445703,347.84],[8.93119422,45.99559358,349.6],[8.93124488,45.99562191,349.78],[8.93377192,45.99655593,362.89],[8.93380592,45.99656526,363.14],[8.9371593,45.99676075,365.98],[8.93730363,45.99676608,365.36],[8.93979189,45.99673745,355.48],[8.93994522,45.99674311,355.07],[8.94123885,45.99705972,349.94],[8.94136918,45.99703506,349.07],[8.94156417,45.99690408,347.37],[8.94161916,45.99681208,346.52],[8.94184544,45.99589947,338.42],[8.94185444,45.99582981,337.63],[8.94160282,45.99502453,331.15],[8.94166182,45.99499287,330.87],[8.94185181,45.99501153,330.23],[8.94189214,45.99504886,330.07],[8.94226476,45.99565915,328.57],[8.94229676,45.99573048,328.44],[8.94235605,45.99629444,326.6],[8.94237538,45.9963661,326.1],[8.94257603,45.99645108,323.72],[8.94261336,45.99641008,323.12],[8.94240273,45.99570478,318.35],[8.94237274,45.99560745,317.81],[8.94235341,45.99509047,314.32],[8.94236074,45.99499981,313.49],[8.94242971,45.9947685,309.57],[8.94243704,45.99475717,309.02],[8.94312696,45.99438857,304.37],[8.94314495,45.99432658,304.12],[8.94263804,45.99305134,300.31],[8.94263271,45.99295968,299.9],[8.94267203,45.99259236,297.86],[8.94269602,45.99251236,297.26],[8.94303626,45.99186479,287.75],[8.94306692,45.99183713,287.72],[8.9432669,45.99180147,287.57],[8.94332323,45.99182313,287.54],[8.94476515,45.99273572,283.93],[8.94487981,45.99278305,283.6],[8.94625575,45.99313629,277.31],[8.94630341,45.99312396,277.28],[8.9469873,45.99227741,277.38],[8.9470343,45.99223975,277.39],[8.9486375,45.99126124,278.53],[8.94870349,45.99122425,278.55],[8.95180328,45.99008211,278.4],[8.95187494,45.99005045,278.42],[8.95565091,45.98801284,283.3],[8.95567124,45.98799084,283.46],[8.95575655,45.98772289,285.26],[8.95575122,45.98769756,285.41],[8.95545798,45.98708134,289.26],[8.95545365,45.98705735,289.43],[8.9556665,45.98634181,294.37],[8.95566749,45.98631715,294.63],[8.95554459,45.98575725,299.56],[8.95554359,45.98573192,299.73],[8.95563519,45.98518702,303.23],[8.95563186,45.98516036,303.42],[8.95541366,45.98448846,307.41],[8.95541167,45.98446113,307.6],[8.95551992,45.98337833,314.45],[8.95551726,45.98335067,314.58],[8.95486842,45.98188646,313.75],[8.95485976,45.98180546,313.39],[8.95492037,45.98118749,310.26],[8.95493236,45.98114383,309.79],[8.95515995,45.98090022,306.34],[8.95516094,45.98089522,306.31],[8.9550533,45.98051195,304.99],[8.95506496,45.98045962,304.88],[8.95552186,45.97918371,300.32],[8.95553786,45.97910038,300.08],[8.95557183,45.97798578,298.18],[8.95554583,45.97791045,298.1],[8.95471324,45.97647757,296.06],[8.95466358,45.97640691,295.98],[8.95349036,45.97522967,294.14],[8.95343236,45.97516368,294.09],[8.95269311,45.9739401,292.6],[8.95263578,45.97386577,292.38],[8.95221248,45.97343847,291.1],[8.95212849,45.97336947,290.8],[8.95105088,45.97260588,288.15],[8.95098222,45.97253555,288.01],[8.94927003,45.97028673,283.3],[8.9492217,45.97021007,283.21],[8.94804687,45.96795724,281.68],[8.94802021,45.96789558,281.68],[8.94787466,45.96640837,284.28],[8.947858,45.96634104,284.39],[8.94751304,45.96566475,284.46],[8.94748304,45.96559475,284.3],[8.94718745,45.96454515,282.19],[8.94716812,45.96446849,282.13],[8.94703018,45.96314258,281.79],[8.94702918,45.96307292,281.76],[8.94717243,45.96165901,282.39],[8.94716977,45.96159368,282.43],[8.94686456,45.96005847,282],[8.94685457,45.95999348,281.97],[8.94680862,45.95901557,280.5],[8.94681361,45.95893958,280.29],[8.94702953,45.95785498,278.12],[8.94705019,45.95778932,278.08],[8.94787634,45.95560889,278.15],[8.947883,45.95558389,278.18],[8.94882958,45.9553013,277.8],[8.94889491,45.95527197,277.7],[8.94996451,45.95476173,277.96],[8.95002184,45.95473173,278],[8.95080276,45.95417616,278.58],[8.95084009,45.95415216,278.61],[8.951697,45.95386524,277.85],[8.951772,45.95384758,277.7],[8.95320589,45.9538256,277.04],[8.95327689,45.95382127,277.03],[8.96107297,45.95317077,281.7],[8.96117363,45.95315711,281.75],[8.96275921,45.9527682,281.32],[8.96283821,45.95273821,281.28],[8.96420479,45.95199198,278.67],[8.96426412,45.95193932,278.45],[8.96463008,45.95146101,277.03],[8.96464541,45.95139201,276.92],[8.96456709,45.95024644,276.6],[8.96456376,45.95021545,276.54],[8.96448379,45.95017814,276.22],[8.96447679,45.9501798,276.14],[8.96477837,45.94972654,276.3],[8.96481403,45.94969421,276.24],[8.96598558,45.94893964,275.98],[8.96601524,45.94889864,275.8],[8.96633508,45.94747145,278.29],[8.96633674,45.94742445,278.34],[8.96620947,45.94676153,278.76],[8.96619547,45.94671387,278.81],[8.96548602,45.9448484,278.5],[8.96546969,45.94480007,278.41],[8.9651808,45.94367288,281.34],[8.96516447,45.94362689,281.79],[8.96433737,45.94194643,287.23],[8.96432638,45.94190377,287.3],[8.96433038,45.9412252,287.66],[8.96432972,45.94121721,287.65],[8.96455763,45.94020265,287.31],[8.96458529,45.94015432,287.27],[8.96498058,45.93982435,286.45],[8.96505024,45.93979269,286.39],[8.96779871,45.93885588,283.28],[8.96788904,45.93882189,283.07],[8.96846434,45.93847859,281.66],[8.96853734,45.93841793,281.56],[8.96952394,45.93757568,279.33],[8.9696006,45.93750268,279.07],[8.96997724,45.93702737,278.06],[8.97002424,45.93694637,277.99],[8.97043184,45.93608909,278.36],[8.97045017,45.93602243,278.44],[8.97040219,45.93523649,279.11],[8.97042185,45.93517549,279.15],[8.97095343,45.9341656,279.89],[8.97100109,45.9341196,279.89],[8.97691295,45.93025101,275.17],[8.97720661,45.93004168,275.47],[8.98199869,45.92592534,288.45],[8.98203802,45.92589068,288.48],[8.98398646,45.92396459,285.72],[8.98404379,45.9239026,285.53],[8.98456706,45.92297333,283.52],[8.98458372,45.922905,283.44],[8.98526464,45.9176364,281.24],[8.98526464,45.9175734,281.25],[8.98509602,45.91683646,281.25],[8.98506802,45.9167808,281.25],[8.98432212,45.91578091,283.16],[8.98430579,45.91573625,283.24],[8.98422654,45.91428736,279.67],[8.98421655,45.91420436,279.4],[8.98399928,45.91342074,276.92],[8.98397095,45.91335008,276.73],[8.98264181,45.91107393,276.28],[8.98262015,45.91100827,276.29],[8.98251519,45.91045665,276.15],[8.98251153,45.91038599,276.16],[8.98252549,45.90862111,274.93],[8.98252116,45.90855078,274.89],[8.98235656,45.90783616,274.61],[8.98232656,45.90776583,274.61],[8.98151934,45.90656994,274.1],[8.98148501,45.90651261,274.06],[8.98118741,45.90572101,273.82],[8.98115108,45.90566868,273.89],[8.98029816,45.90490011,274.45],[8.9802565,45.90484211,274.45],[8.97942567,45.90300389,274.42],[8.97939101,45.90294523,274.45],[8.9756306,45.89714378,285.77],[8.97561027,45.89710479,285.89],[8.97514477,45.89591059,290.08],[8.97513144,45.89587126,290.23],[8.97478332,45.89322658,295.5],[8.97478066,45.89318125,295.56],[8.97492025,45.89255565,296.24],[8.97494458,45.89250532,296.3],[8.9754365,45.8915804,297],[8.97546783,45.89153007,296.96],[8.97586211,45.89105012,296.99],[8.97590777,45.89100346,297.12],[8.97795416,45.88900801,301.14],[8.97799349,45.88897602,301.31],[8.9808304,45.8871024,312.19],[8.98085706,45.88706874,312.3],[8.98108865,45.88659114,314.27],[8.98109598,45.88655415,314.46],[8.98123348,45.88510033,321.11],[8.98124814,45.88505967,321.47],[8.98315134,45.88144438,330.43],[8.983168,45.88140305,330.3],[8.98364583,45.87964821,327.83],[8.98365416,45.87959821,327.83],[8.98373546,45.87769472,325.15],[8.98373247,45.87763739,325.04],[8.98317913,45.87402811,327.95],[8.98316847,45.87397678,327.87],[8.98265961,45.87250691,329.67],[8.98263861,45.87246025,329.69],[8.9821374,45.87167366,330.77],[8.98209141,45.87163166,330.85],[8.97696519,45.86746179,331.37],[8.97691953,45.86740813,331.37],[8.97669591,45.86686116,331.31],[8.97669558,45.86679716,331.26],[8.97705984,45.86595356,330.51],[8.9770775,45.86589523,330.46],[8.97702285,45.8655276,330.21],[8.97700352,45.86546294,330.22],[8.97684421,45.86523329,330.33],[8.97678955,45.86518563,330.4],[8.97532372,45.86416011,336.34],[8.97529306,45.86412312,336.53],[8.97484116,45.86351887,339.7],[8.97482716,45.86348321,339.9],[8.97494279,45.86290027,342.67],[8.97492746,45.86286661,342.86],[8.97323263,45.86210615,342.94],[8.97318397,45.86207682,342.84],[8.97164946,45.86084932,339.72],[8.97158747,45.86079766,339.41],[8.97053328,45.85966815,342.28],[8.97050895,45.85963982,342.52],[8.96943289,45.85798938,346.66],[8.96940789,45.85795705,346.66],[8.96890297,45.85775543,347.02],[8.96886531,45.8577281,347.03],[8.96872401,45.8573838,346.8],[8.96868168,45.85733847,346.72],[8.9672785,45.85604093,345.5],[8.96723451,45.85598893,345.49],[8.96535182,45.85331994,345.84],[8.96530083,45.85327161,345.8],[8.96469255,45.85284599,345.82],[8.96462122,45.852808,345.79],[8.96214305,45.85166953,344.76],[8.96207606,45.85163554,344.82],[8.96164211,45.85128692,345.2],[8.96160478,45.85123392,345.25],[8.96147017,45.85077595,345.71],[8.96146651,45.85071729,345.73],[8.96156248,45.85026099,346.36],[8.96158781,45.85020866,346.4],[8.96189511,45.84983403,346.84],[8.96194344,45.84979104,346.9],[8.96351326,45.84856253,348.68],[8.96354492,45.8485202,348.77],[8.96425881,45.84627463,368.84],[8.96426047,45.8462523,369.04],[8.96416554,45.84579372,373.58],[8.96415754,45.84577106,373.78],[8.96293812,45.84315785,395.03],[8.96292679,45.84313386,395.28],[8.96226869,45.8420941,402.82],[8.96224903,45.84207144,402.93],[8.96165815,45.8415739,407.51],[8.96163249,45.84155757,407.63],[8.95975844,45.84051521,418.62],[8.95972045,45.84049588,418.62],[8.95717888,45.83938359,430.49],[8.95715455,45.83933826,430.56],[8.95535902,45.83874874,429.16],[8.95528669,45.83872141,429.1],[8.95272086,45.83758525,427.32],[8.95264087,45.83754925,427.4],[8.951253,45.83689101,431.04],[8.951208,45.83686568,431.3],[8.95037979,45.83623678,436.98],[8.95035346,45.83620845,437.21],[8.94996591,45.83568088,441.55],[8.94995191,45.83565355,441.75],[8.94974704,45.83499264,446.02],[8.94974038,45.83495931,446.02],[8.94964815,45.83395976,447.19],[8.94964216,45.83390977,447.11],[8.94972711,45.83300217,444.78],[8.94971678,45.83291151,444.36],[8.94935356,45.83097529,435.34],[8.94933523,45.83089363,435.03],[8.94919593,45.83061332,433.44],[8.94917027,45.83054133,432.87],[8.94904296,45.82931741,430.11],[8.94903563,45.82923375,429.9],[8.94926755,45.82788117,422.87],[8.94922656,45.82782884,422.29],[8.9490899,45.82776952,421.74],[8.94901057,45.82776919,420.88],[8.94749433,45.82823778,420.74],[8.947416,45.82823844,421.22],[8.94648909,45.82815419,425.51],[8.94644009,45.82814386,425.65],[8.94572816,45.82785326,425.76],[8.94566683,45.82782393,425.76],[8.94414562,45.82694241,426.26],[8.94411629,45.82692441,426.39],[8.94401097,45.82664611,426.43],[8.94395998,45.82660312,426.23],[8.94192918,45.82534432,426.95],[8.94187952,45.82531033,427],[8.93973578,45.8233636,431.25],[8.93968445,45.8233276,431.25],[8.93736526,45.82234112,424.67],[8.93730193,45.82231446,424.58],[8.93687068,45.82191717,422.57],[8.93685002,45.82189017,422.39],[8.93667711,45.8212016,420.81],[8.93665945,45.82115527,420.81],[8.93620352,45.82053235,421.35],[8.93617786,45.82049202,421.39],[8.935675,45.81944279,423.06],[8.935654,45.81940346,423.13],[8.93548108,45.81869655,424.34],[8.93547442,45.81865989,424.43],[8.93563032,45.81777932,425.88],[8.93562933,45.81773099,425.87],[8.93519081,45.81603085,423.65],[8.93518348,45.81598385,423.63],[8.93518377,45.81408904,425.59],[8.93518676,45.81403671,425.8],[8.93589383,45.81198462,427.84],[8.93589117,45.81193762,428.04],[8.93553126,45.81121235,429.14],[8.9355146,45.81116069,429.14],[8.93542634,45.81048907,427.76],[8.93541235,45.81042174,427.5],[8.93507943,45.8094018,424.48],[8.9350661,45.80933914,424.32],[8.93525071,45.80847621,423.9],[8.93523905,45.80841355,423.79],[8.93481742,45.80788127,422.44],[8.93479543,45.80782161,422.16],[8.93511555,45.80518381,419.14],[8.93512721,45.80512148,419.02],[8.93569302,45.80326562,420.51],[8.93570368,45.80320662,420.51],[8.93558971,45.80213138,419.55],[8.93559904,45.80206939,419.38],[8.93605994,45.80093781,418.71],[8.93607893,45.80088181,418.77],[8.93614991,45.80039652,419.69],[8.93614558,45.80034553,419.94],[8.93497388,45.79525722,436.98],[8.93496555,45.79522722,437.16],[8.93434908,45.79400407,440.99],[8.93434742,45.79396241,441.09],[8.93444405,45.79359812,441.83],[8.93446371,45.79355846,441.9],[8.93571705,45.7913025,448.25],[8.93573204,45.79126317,448.33],[8.93588655,45.78969011,457.88],[8.93587722,45.78966312,458.1],[8.93538164,45.78923125,460.84],[8.93533131,45.78920925,460.81],[8.93333347,45.7888127,458.45],[8.93326614,45.78879437,458.47],[8.93141092,45.78797515,452.24],[8.93131192,45.78793582,451.55],[8.93064729,45.78784286,450.05],[8.93057229,45.78782153,449.92],[8.92905707,45.78687963,448.3],[8.92897707,45.7868393,448.15],[8.92283152,45.78395875,447.88],[8.92277686,45.78392076,447.79],[8.92271587,45.78379944,447.44],[8.92274153,45.78375578,447.38],[8.92346443,45.78308918,447.58],[8.92350642,45.78304519,447.58],[8.92352608,45.78289754,447.6],[8.92349042,45.78285021,447.59],[8.92146721,45.78122202,438.98],[8.92136588,45.78115202,438.61],[8.91870733,45.77959981,431.29],[8.91863834,45.77953882,431.19],[8.91737642,45.77811192,428.62],[8.91731476,45.77805026,428.48],[8.91586687,45.77690969,426.17],[8.91580087,45.77684703,426.1],[8.91497594,45.77577012,424.26],[8.91491661,45.77570712,424.14],[8.91380903,45.77478521,422.29],[8.91375237,45.77472888,422.21],[8.91112063,45.7718808,418.93],[8.91107197,45.77181047,418.8],[8.91032476,45.76986496,415.17],[8.91029943,45.7697903,415.03],[8.91007218,45.7687087,413.84],[8.91004852,45.76863004,413.75],[8.90951829,45.76721949,412.36],[8.90948896,45.76714416,412.26],[8.9071193,45.7626785,405.42],[8.90708764,45.7626195,405.33],[8.90690735,45.76203688,404.46],[8.90687302,45.76197489,404.31],[8.90634742,45.76135928,403.37],[8.90630842,45.76130062,403.33],[8.90593283,45.76048436,402.58],[8.9058985,45.76043236,402.54],[8.90556387,45.76010873,402.15],[8.90550854,45.76006507,402.09],[8.9046526,45.75944746,400.82],[8.90457627,45.7594108,400.75],[8.90316503,45.7590612,399.33],[8.9031057,45.75900054,399.05],[8.90170422,45.7550354,372.48],[8.90169089,45.75498307,371.87],[8.90183253,45.75474509,369.81],[8.90188686,45.75470543,369.58],[8.90403534,45.75327664,368.77],[8.90407467,45.75323898,368.79],[8.90450559,45.75266003,368.88],[8.90452858,45.7526167,368.84],[8.90465519,45.75204242,367.95],[8.90470519,45.75201943,367.77],[8.90501482,45.75200376,367.55],[8.90507748,45.75201575,367.61],[8.90575474,45.75225501,370.18],[8.90582207,45.75227101,370.38],[8.90615604,45.75225101,370.04],[8.90623904,45.75222268,369.75],[8.90740549,45.75123324,375.21],[8.90743182,45.75121258,375.45],[8.90794277,45.75105199,378.51],[8.9079901,45.75103066,378.53],[8.90839773,45.75066906,376.59],[8.90845439,45.75065073,376.23],[8.90854738,45.75067272,375.55],[8.90857238,45.75071038,375.22],[8.90865302,45.75100002,373.18],[8.90871368,45.75104868,372.57],[8.90940864,45.75111901,368.6],[8.90949497,45.75114867,368.24],[8.90984726,45.7514763,369.5],[8.90984693,45.75150763,369.91],[8.90937438,45.75177454,376.8],[8.90936838,45.75179253,377.5],[8.90964627,45.75241806,384.89],[8.9096556,45.75244672,385.11],[8.90969755,45.75269899,387.08],[8.90969689,45.75271398,387.15],[8.90958259,45.75273762,387.61],[8.90957226,45.75273895,387.67],[8.90972525,45.75258662,387.67],[8.9094007,45.75184444,366.52],[8.90940037,45.75182211,366.16],[8.90973431,45.7516325,361.7],[8.90976597,45.75160817,361.33],[8.90981328,45.75143818,359.08],[8.90979995,45.75140285,358.53],[8.90945001,45.7511219,354.18],[8.90940801,45.75110824,353.86],[8.9086921,45.75112388,353.39],[8.90866077,45.75111055,353.6],[8.90851715,45.75070032,358.11],[8.90849949,45.75068932,358.34],[8.90807591,45.75101293,362.2],[8.90804492,45.75103226,362.39],[8.90754332,45.75120387,363.88],[8.90748599,45.7512402,363.73],[8.90675405,45.75181414,357.93],[8.90667372,45.7518278,357.32],[8.90568714,45.75140787,355.27],[8.90563181,45.75137854,355.33],[8.9048229,45.75079428,354.69],[8.90479124,45.75074329,354.48],[8.90440501,45.74987604,351.47],[8.90439201,45.74983704,351.3],[8.90435475,45.7494041,349.26],[8.90435442,45.74936677,349.1],[8.90483024,45.74805262,346.74],[8.90484223,45.74800896,346.63],[8.90543054,45.74476167,343.06],[8.90543587,45.74472201,343.01],[8.90551249,45.74378677,341.41],[8.9055095,45.74374244,341.33],[8.90532556,45.74360415,341.08],[8.9052919,45.74356149,341.08],[8.9053292,45.74315258,341.45],[8.9053162,45.74312392,341.46],[8.90513325,45.74307029,341.55],[8.90512526,45.74306996,341.58],[8.90531691,45.74298698,341.3],[8.90532024,45.74296065,341.31],[8.90523672,45.740115,336.78],[8.90523339,45.74006967,336.71],[8.90506475,45.73989936,336.23],[8.90499942,45.7398907,336.23],[8.90196597,45.73996384,336.57],[8.90191298,45.73995751,336.42],[8.90182,45.73988053,336.12],[8.90180667,45.73984153,336.05],[8.90183431,45.73935857,335.21],[8.90186997,45.73932624,335.1],[8.90314283,45.73940351,334.85]]}}]}