{"type":"FeatureCollection","features":[{"type":"Feature","properties":{"name":"20260523 Cicloturismo","time":"2026-05-23T07:24:56Z"},"geometry":{"type":"LineString","coordinates":[[8.56762233,46.618058,1492.85],[8.56578565,46.61731504,1504.75],[8.56575666,46.61730771,1504.93],[8.56349803,46.61712057,1515.04],[8.56346837,46.61711124,1515.19],[8.56314978,46.61689433,1517.97],[8.56313679,46.616874,1518.03],[8.56311548,46.61654074,1519.92],[8.56312614,46.61651841,1520.11],[8.56337107,46.61629613,1522.17],[8.56340073,46.6162828,1522.34],[8.56383601,46.6162022,1524.7],[8.56387167,46.61620286,1524.9],[8.56592168,46.61677623,1538.04],[8.56595501,46.61678056,1538.27],[8.56730082,46.6166167,1546.89],[8.56732648,46.61661537,1547.1],[8.56860397,46.61667289,1554.34],[8.5686373,46.61666923,1554.53],[8.56931053,46.61645534,1559.59],[8.56944852,46.61638968,1561.07],[8.57076588,46.61558531,1570.55],[8.57078854,46.61557098,1570.72],[8.57107677,46.61516042,1574.69],[8.57107976,46.61513709,1574.86],[8.57094218,46.61423969,1583.22],[8.57095184,46.61422069,1583.4],[8.57174964,46.6136462,1590.04],[8.57176997,46.6136302,1590.21],[8.57196791,46.61335696,1592.72],[8.57197324,46.61333463,1592.92],[8.57193259,46.61305503,1595.3],[8.57192259,46.6130317,1595.51],[8.571115,46.61161473,1609.45],[8.57111334,46.6115904,1609.64],[8.57120696,46.61127813,1612.2],[8.57122195,46.61125647,1612.37],[8.57187944,46.61072193,1617.09],[8.57189677,46.61070327,1617.49],[8.57200638,46.610381,1619.57],[8.57200272,46.610354,1619.7],[8.57173013,46.60997307,1622.3],[8.57170313,46.60995541,1622.45],[8.57002374,46.60911601,1630.25],[8.56999341,46.60909935,1630.39],[8.56825071,46.60798734,1639.19],[8.56822372,46.60796768,1639.31],[8.56567269,46.60562295,1656.66],[8.5656607,46.60560195,1656.78],[8.56556612,46.60512106,1659.71],[8.56556711,46.60509807,1659.88],[8.56576598,46.60452489,1664.1],[8.56576764,46.6045219,1664.22],[8.56550736,46.60441028,1664.64],[8.5654837,46.60438295,1664.69],[8.56439265,46.60290092,1675.72],[8.56437799,46.60287759,1675.86],[8.56302432,46.59974253,1697.83],[8.56301799,46.59971587,1698.04],[8.56296175,46.59909497,1703.11],[8.56296308,46.59907498,1703.29],[8.56315069,46.59884136,1705.08],[8.56315969,46.59882003,1705.21],[8.56322396,46.59840513,1709.08],[8.56322829,46.59840114,1709.23],[8.56311265,46.59826616,1710.43],[8.56310899,46.59823916,1710.53],[8.56317022,46.59743198,1716.76],[8.56316656,46.59741132,1716.93],[8.56227456,46.59595205,1729.88],[8.56226657,46.59593139,1730.06],[8.56225858,46.59559414,1732.57],[8.56226524,46.59557415,1732.69],[8.56254983,46.59536558,1734.7],[8.56255383,46.59536425,1734.74],[8.5624012,46.59520864,1736.03],[8.56238787,46.59518431,1736.15],[8.56204409,46.59422049,1743.56],[8.56204209,46.59419883,1743.76],[8.56205909,46.5939669,1745.82],[8.56207042,46.59394857,1745.95],[8.56275257,46.59321175,1752.25],[8.5627589,46.59318742,1752.44],[8.56278652,46.59263953,1757.3],[8.56278252,46.59261753,1757.48],[8.56256296,46.59217595,1761.68],[8.56254696,46.59215262,1761.87],[8.56183414,46.59149813,1768.47],[8.56180781,46.5914848,1768.67],[8.56043804,46.59109938,1776.92],[8.56040638,46.59110704,1777.12],[8.56020377,46.59125333,1778.78],[8.56020643,46.59127533,1779],[8.560477,46.59160858,1783.1],[8.56049233,46.59162324,1783.32],[8.5616228,46.59223933,1791.83],[8.56163246,46.59225966,1792.02],[8.5614592,46.5925869,1795.17],[8.56143487,46.59259923,1795.31],[8.56094528,46.59260591,1797.44],[8.56091595,46.59259558,1797.57],[8.55955062,46.59163352,1808.55],[8.55952929,46.59161919,1808.71],[8.55812858,46.59098014,1819.45],[8.55810992,46.59096881,1819.6],[8.55759181,46.59037999,1826.03],[8.55758348,46.590365,1826.19],[8.55765613,46.58946925,1833.99],[8.55765013,46.58944725,1834.23],[8.55715098,46.5887838,1842.33],[8.55714165,46.58876714,1842.52],[8.55687554,46.58797542,1850.16],[8.55687488,46.58795776,1850.31],[8.55709723,46.58669511,1861.81],[8.55710756,46.58667412,1861.99],[8.55742577,46.58624459,1866.54],[8.55744276,46.58622726,1866.72],[8.55780734,46.586074,1870.4],[8.55785767,46.58611166,1870.43],[8.55784167,46.58611399,1870.43],[8.55763268,46.58584966,1870.49],[8.55746188,46.58434065,1884.34],[8.55746487,46.58431999,1884.49],[8.55799193,46.58330928,1894.06],[8.55800026,46.58329528,1894.25],[8.55820188,46.58322766,1895.7],[8.55822087,46.58321233,1895.84],[8.55879769,46.58263385,1902.66],[8.55881569,46.58261619,1902.87],[8.55905057,46.58216597,1907.9],[8.55905256,46.58214598,1908.08],[8.55897429,46.58183741,1910.61],[8.55896096,46.58181608,1910.74],[8.55824524,46.58090704,1921.8],[8.55824124,46.58089171,1922.02],[8.55827751,46.58018756,1927.52],[8.55827618,46.58017057,1927.56],[8.55799657,46.57863229,1932.08],[8.5579999,46.5786123,1932.12],[8.55827242,46.57813278,1934.84],[8.55828708,46.57811245,1935.01],[8.55878395,46.57773425,1938.35],[8.55880294,46.57771759,1938.48],[8.55894054,46.57743966,1940.54],[8.55894187,46.577418,1940.66],[8.55826865,46.57586773,1948.99],[8.55825632,46.5758444,1949.11],[8.558245,46.57559378,1950.51],[8.55824566,46.57557012,1950.64],[8.5584439,46.57527052,1952.15],[8.55846623,46.57525353,1952.26],[8.55924145,46.57483965,1956.68],[8.55926344,46.57482166,1956.82],[8.55943238,46.57449574,1959.09],[8.55943172,46.57447208,1959.18],[8.55851872,46.57298737,1963.28],[8.55850239,46.57295704,1963.39],[8.55758176,46.57075042,1969.32],[8.55757043,46.57072309,1969.45],[8.55711008,46.56862322,1984.26],[8.55710409,46.56860956,1984.42],[8.55561867,46.56666087,2003.58],[8.55561134,46.56664787,2003.73],[8.55574287,46.56570282,2012.66],[8.55574753,46.56568583,2012.82],[8.55606399,46.56508238,2019.52],[8.55607398,46.56506838,2019.69],[8.55747165,46.56441505,2031.08],[8.55747531,46.56439939,2031.27],[8.55735609,46.56400319,2034.94],[8.55735243,46.56398753,2035.14],[8.55643024,46.56260096,2049.64],[8.55642125,46.5625863,2049.77],[8.55638895,46.56234772,2051.85],[8.55639161,46.56233073,2051.98],[8.55679852,46.56214983,2055.53],[8.55682652,46.56215316,2055.72],[8.55853576,46.5626618,2069.06],[8.55851076,46.56290679,2069.06],[8.55853142,46.56285947,2073.31],[8.55862708,46.56268681,2070.65],[8.55901399,46.56282103,2072.68],[8.55904265,46.56282369,2072.88],[8.55950123,46.56273909,2076.7],[8.55952489,46.56272676,2076.86],[8.55968418,46.56254082,2078.97],[8.55969184,46.56252182,2079.18],[8.55968521,46.56226256,2081.9],[8.55968188,46.56224423,2082.09],[8.55912788,46.56084799,2094.66],[8.55912888,46.56082699,2094.8],[8.55974466,46.56009621,2103.23],[8.55976232,46.56008122,2103.41],[8.56039586,46.55969832,2108.04],[8.56042485,46.55968499,2108.19],[8.56164296,46.55925455,2110.96],[8.56166562,46.55924489,2110.93],[8.5620745,46.558926,2109.85],[8.56208283,46.55892134,2109.83],[8.56228249,46.559034,2109.61],[8.56232949,46.55901934,2109.53],[8.56632721,46.55756288,2096.84],[8.5664062,46.55751622,2096.73],[8.56688949,46.55716692,2095.8],[8.56694615,46.55711392,2095.68],[8.56733643,46.55661629,2094.89],[8.56735609,46.55656429,2094.83],[8.56738009,46.55618333,2094.23],[8.56736943,46.556151,2094.17],[8.56695354,46.55550478,2093.45],[8.56695154,46.55547878,2093.49],[8.5671718,46.55533084,2095],[8.56718546,46.55531918,2095.11],[8.56701986,46.55534551,2094.89],[8.56702686,46.55531952,2094.64],[8.56734179,46.55487096,2090.24],[8.56736812,46.55484363,2089.99],[8.56947325,46.55397989,2073.57],[8.56951358,46.55395989,2073.24],[8.57114272,46.55310142,2059.17],[8.57117605,46.55308309,2058.85],[8.57172963,46.5526375,2053.44],[8.57175563,46.55260917,2053.11],[8.57277562,46.55090984,2037.42],[8.57279161,46.55087951,2037.17],[8.57276694,46.55060625,2034.93],[8.57274428,46.55058192,2034.74],[8.57020339,46.55000196,2018.59],[8.57016906,46.54998763,2018.36],[8.56973813,46.54972738,2014.92],[8.5697178,46.54970805,2014.74],[8.56921995,46.54906522,2008.27],[8.56919495,46.54905789,2008.17],[8.56907298,46.54911287,2008.3],[8.56906765,46.54912687,2008.34],[8.56930362,46.54967143,2004.28],[8.56929262,46.54969876,2003.95],[8.56913166,46.5498154,2002.38],[8.56909467,46.54982306,2002.23],[8.56882104,46.54977442,2000.54],[8.56879238,46.54976176,2000.31],[8.56869642,46.5495688,1998.48],[8.56869609,46.54955847,1998.36],[8.56889771,46.54919454,1994.85],[8.56889771,46.54915921,1994.65],[8.56876278,46.54875495,1991.62],[8.56872612,46.54874429,1991.51],[8.56863413,46.54876062,1991.25],[8.56862513,46.54877828,1991.15],[8.56848184,46.54938413,1986.32],[8.56847218,46.54940646,1986.23],[8.56813658,46.54948379,1984.84],[8.56810125,46.54947079,1984.67],[8.56798029,46.54928985,1982.82],[8.56798528,46.54927252,1982.73],[8.56842017,46.54871495,1978.3],[8.5684365,46.54868762,1977.87],[8.56842183,46.54853965,1976.6],[8.56840017,46.54852766,1976.59],[8.56830018,46.54853466,1976.04],[8.56828319,46.54855199,1975.91],[8.56814725,46.54890393,1973.62],[8.56811359,46.54892493,1973.46],[8.56780862,46.5488856,1971.8],[8.56779729,46.54885994,1971.67],[8.56817789,46.54846069,1968.24],[8.56818322,46.54843703,1968.16],[8.56782195,46.54854068,1966.24],[8.56780896,46.54852169,1966.03],[8.56792658,46.54801915,1961.99],[8.56792724,46.54801215,1961.87],[8.56808647,46.54785687,1959.87],[8.56808713,46.54786953,1959.68],[8.56799949,46.54789251,1959.67],[8.5679875,46.54790217,1959.72],[8.56800714,46.54819676,1960.34],[8.56800148,46.54820742,1960.33],[8.56798115,46.54821641,1960.43],[8.56956848,46.54694908,1947.31],[8.5699297,46.54639419,1942.19],[8.56991837,46.54637786,1942.11],[8.56978607,46.54633753,1941.38],[8.56970941,46.54639519,1940.46],[8.56932922,46.54694873,1937.23],[8.56930322,46.54697472,1937.02],[8.56873068,46.54735758,1930.04],[8.56870735,46.54736791,1929.84],[8.56708331,46.54757803,1920.52],[8.56707598,46.54758102,1920.3],[8.56694509,46.54814421,1916.54],[8.56694109,46.54816554,1916.46],[8.56681412,46.54824518,1916.06],[8.56678346,46.54824485,1916.02],[8.56664617,46.54814457,1915.12],[8.56664517,46.54813858,1915.03],[8.56681471,46.54733047,1907.81],[8.56683004,46.54730948,1907.72],[8.56703033,46.54717852,1906.31],[8.56706099,46.54716919,1906.14],[8.56797686,46.5470186,1901.08],[8.56800552,46.54699827,1900.86],[8.56864989,46.54596717,1891.46],[8.56865189,46.54595551,1891.45],[8.56855429,46.54587689,1891.24],[8.56852096,46.54589022,1891.21],[8.5678444,46.54652411,1884.79],[8.5677994,46.54653244,1884.55],[8.56724048,46.54650418,1881.87],[8.56720015,46.54649518,1881.67],[8.56662458,46.54625127,1877.35],[8.56663058,46.54623094,1877.2],[8.56726281,46.54622957,1873.13],[8.56730614,46.54622191,1872.93],[8.56775641,46.54601198,1869.66],[8.56778574,46.54599398,1869.46],[8.5677824,46.54591499,1868.87],[8.56775341,46.54591699,1868.77],[8.56742547,46.54608993,1866.91],[8.56739581,46.54610193,1866.82],[8.56723484,46.54605129,1866.45],[8.56723418,46.54603029,1866.43],[8.56765503,46.54551839,1861.87],[8.56767536,46.54549906,1861.64],[8.56799963,46.54532314,1859.43],[8.56802829,46.54531148,1859.25],[8.56899447,46.54525719,1852.87],[8.56903113,46.5452532,1852.63],[8.569798,46.54506464,1847.75],[8.56983533,46.54505498,1847.58],[8.57029992,46.54472375,1843.54],[8.57033225,46.54470709,1843.35],[8.57088984,46.54454984,1839.78],[8.57092217,46.54453684,1839.54],[8.57076987,46.54446586,1838.04],[8.57072621,46.54447519,1837.84],[8.56894186,46.54496085,1825.79],[8.5689222,46.54495519,1825.77],[8.56883423,46.54481557,1825.78],[8.56885223,46.54479891,1825.68],[8.5694158,46.54465865,1822.37],[8.56944313,46.54464532,1822.11],[8.56984868,46.54430942,1818.38],[8.56987034,46.54429876,1818.22],[8.57081217,46.54410925,1811.5],[8.57082183,46.54408526,1811.46],[8.57079953,46.54401664,1810.43],[8.57071087,46.54400365,1810.44],[8.56940629,46.54416422,1805.5],[8.56934763,46.54416289,1805.16],[8.56923197,46.54403026,1802.71],[8.56923563,46.54402327,1802.51],[8.57089416,46.54374471,1792.45],[8.57093949,46.54372205,1792.14],[8.57090782,46.54361174,1791.43],[8.57085649,46.54360408,1791.34],[8.57021155,46.54380502,1788.37],[8.57015456,46.54381868,1787.97],[8.57000324,46.54371735,1786.86],[8.57003624,46.54368269,1786.76],[8.57108016,46.54328979,1780.5],[8.57114849,46.54325946,1780.12],[8.57221975,46.54265188,1772.13],[8.57226741,46.54262489,1771.65],[8.57227573,46.54248991,1769.92],[8.57223174,46.54249024,1769.79],[8.57138318,46.54287812,1764.83],[8.57134618,46.54287479,1764.66],[8.57127452,46.54274616,1763.56],[8.57129985,46.54272817,1763.4],[8.57221074,46.54237661,1758.06],[8.57222607,46.54235228,1757.97],[8.57161153,46.54258093,1754.91],[8.5715702,46.54259359,1754.66],[8.57143222,46.54252426,1753.67],[8.57144555,46.5424976,1753.47],[8.57207781,46.54217734,1749.07],[8.57209714,46.54216901,1748.72],[8.57273368,46.54207039,1744.04],[8.57276268,46.54205539,1743.72],[8.57311493,46.54160215,1738.25],[8.57314393,46.54158382,1738],[8.57414753,46.54114224,1732.75],[8.57421019,46.54113124,1732.5],[8.57790418,46.54078062,1709.36],[8.57794451,46.54077229,1709.07],[8.57900969,46.54050176,1701.67],[8.57905402,46.5404851,1701.44],[8.57972122,46.5400899,1694.99],[8.57973988,46.54007291,1694.72],[8.58005774,46.53910108,1686.06],[8.58004641,46.53903742,1685.73],[8.57925914,46.53824881,1678.8],[8.57918814,46.53815282,1678.11],[8.57901016,46.53761052,1674.61],[8.57902216,46.53749386,1673.78],[8.57909315,46.53725953,1671.81],[8.57915115,46.53714553,1670.83],[8.57985943,46.53620126,1659.23],[8.57989642,46.53610393,1658.2],[8.57993041,46.53509467,1648.7],[8.57995474,46.53498601,1648.09],[8.58075767,46.53344809,1632.48],[8.580787,46.53337609,1631.47],[8.58079534,46.53279947,1622.37],[8.58079501,46.53279947,1622.15],[8.581263,46.5336608,1622.15],[8.58128033,46.53363014,1611.19],[8.58141661,46.53277387,1605.53],[8.58140061,46.53267754,1605.02],[8.581011,46.53201824,1598.55],[8.58104966,46.53196791,1597.82],[8.5814323,46.53202157,1594.81],[8.58149063,46.5320869,1594.31],[8.58200658,46.53320483,1587.59],[8.58209424,46.53327649,1586.72],[8.5830482,46.53349712,1581.76],[8.58318953,46.53353845,1581.15],[8.58450381,46.53405706,1572.07],[8.58456881,46.53412572,1571.18],[8.58458647,46.53435836,1568.03],[8.58452647,46.53442069,1566.83],[8.58375385,46.53465365,1560.92],[8.58368952,46.53471398,1560.05],[8.58370919,46.53501029,1557.25],[8.58377752,46.53508195,1556.69],[8.58420417,46.53530092,1554.41],[8.58433583,46.53533891,1553.41],[8.58525379,46.53548587,1546.81],[8.58541945,46.5354972,1546.08],[8.58641509,46.53543853,1542.19],[8.58657342,46.53539787,1541.37],[8.5878937,46.53471459,1535.74],[8.58801336,46.53468759,1535.48],[8.58983263,46.53458935,1530.84],[8.58994729,46.53458135,1530.42],[8.59027227,46.53442171,1528.23],[8.59028293,46.53435071,1527.61],[8.58969665,46.53381743,1521.38],[8.58965432,46.53377477,1520.69],[8.58898007,46.53287055,1509.57],[8.58890974,46.53282222,1509.17],[8.58785113,46.53235561,1501.79],[8.58776113,46.53232495,1501.25],[8.58659119,46.53203969,1492.73],[8.58648986,46.53200036,1492.19],[8.58578022,46.53155308,1486.09],[8.58574022,46.53150642,1485.25],[8.58587854,46.53138878,1482.41],[8.58595354,46.53140344,1482],[8.58689248,46.53185439,1477.83],[8.58701914,46.53188905,1477.19],[8.58853104,46.53212495,1463.02],[8.58858504,46.53213461,1462.56],[8.58924232,46.53237221,1457.22],[8.58929032,46.53238787,1456.8],[8.58946696,46.53231289,1454.93],[8.58944663,46.53227823,1454.62],[8.58777605,46.53171532,1447.28],[8.58766739,46.53166199,1446.86],[8.58664478,46.53077405,1439.52],[8.58650679,46.53070872,1438.71],[8.58464887,46.53032045,1423.56],[8.58457888,46.53030679,1422.8],[8.5844369,46.53016582,1420.07],[8.5844669,46.53014082,1419.16],[8.58645914,46.53043442,1412.06],[8.58659014,46.53046108,1411.41],[8.59055497,46.5314066,1384],[8.5906613,46.53143726,1383.18],[8.59115993,46.53163789,1379.48],[8.59125326,46.53168789,1378.85],[8.59213221,46.53236848,1370.32],[8.5921992,46.53242081,1369.44],[8.59240852,46.53246347,1367.26],[8.59244751,46.53243381,1366.51],[8.59090326,46.53097858,1353.93],[8.59078427,46.53089992,1353.25],[8.58866733,46.53025799,1340.99],[8.588612,46.530215,1339.76],[8.58861133,46.53012434,1337.51],[8.58866666,46.53010301,1336.56],[8.58942462,46.53026898,1332.1],[8.58955562,46.53028964,1331.56],[8.59090956,46.53037693,1326.33],[8.59106689,46.53040792,1325.8],[8.59232048,46.53097587,1312],[8.59233047,46.53093987,1311.23],[8.59039793,46.52935535,1294.53],[8.5903666,46.52928436,1293.41],[8.59059125,46.52906271,1289.87],[8.59070424,46.52905072,1289.09],[8.59150754,46.52920669,1283.99],[8.59159954,46.52918703,1283.22],[8.59169387,46.52907037,1281.73],[8.59169054,46.52899537,1281.03],[8.59149789,46.52870438,1278.74],[8.59142856,46.52863305,1278.14],[8.59016528,46.52768678,1270.74],[8.59002162,46.52760379,1270.13],[8.58922798,46.52721048,1265.99],[8.58906399,46.52714148,1264.93],[8.58823767,46.52689952,1258.33],[8.58815501,46.52686419,1257.21],[8.58813034,46.52672921,1254.45],[8.58818333,46.52669388,1253.78],[8.5901216,46.52688016,1246.95],[8.59026193,46.52691449,1246.31],[8.59556746,46.52851866,1217.25],[8.59574879,46.52856165,1216.15],[8.60198326,46.52954813,1189.1],[8.60211492,46.52956846,1188.75],[8.60358585,46.5297104,1184.66],[8.60367651,46.5297114,1184.4],[8.60761295,46.52942735,1179.23],[8.60769194,46.52941836,1178.9],[8.60884252,46.52907812,1172.07],[8.60889285,46.52906746,1171.74],[8.61060534,46.52883463,1166.88],[8.61065167,46.52882597,1166.76],[8.6108026,46.52851578,1164.68],[8.61080926,46.52851412,1164.68],[8.61082992,46.52851312,1164.59],[8.61036192,46.52887645,1167.58],[8.60988097,46.52891842,1167.9],[8.60987531,46.52892175,1167.92],[8.61219279,46.52863626,1164.68],[8.61223212,46.5286246,1164.58],[8.61216079,46.52846332,1163.44],[8.61211513,46.52844866,1163.25],[8.61130319,46.52845898,1159.38],[8.6112472,46.52845399,1159.13],[8.6105493,46.52821674,1154.56],[8.61056796,46.52818708,1154.56],[8.61118824,46.52839204,1155.77],[8.61122757,46.52840003,1155.87],[8.61206178,46.52840673,1159.54],[8.61209377,46.52840939,1159.63],[8.61261336,46.52854498,1161.72],[8.61265135,46.52854631,1161.76],[8.61515716,46.52819316,1155.15],[8.61528549,46.52816183,1154.48],[8.61578181,46.52796751,1151.79],[8.61589281,46.52789652,1151.21],[8.61666444,46.52719024,1146.76],[8.61677044,46.52710558,1146.18],[8.61727841,46.52687726,1143.82],[8.6174194,46.5268526,1143.18],[8.61824337,46.5268556,1139.95],[8.61837303,46.52687093,1139.47],[8.6205746,46.5272805,1132.35],[8.62068193,46.52728916,1131.88],[8.62260416,46.52715421,1126.07],[8.62271949,46.52712588,1125.66],[8.62362477,46.52683158,1122.24],[8.62373343,46.52678292,1121.76],[8.6247717,46.52607899,1116.62],[8.62485603,46.52602833,1116.32],[8.62601229,46.52546273,1114.69],[8.62609895,46.52543507,1114.7],[8.62927653,46.52448613,1108.58],[8.62944419,46.5244438,1108.01],[8.63328565,46.52375595,1100.73],[8.63338631,46.52372129,1100.51],[8.63421627,46.52331868,1098.62],[8.63429927,46.52326735,1098.42],[8.63529454,46.52247008,1094.92],[8.63537687,46.52241842,1094.74],[8.63636849,46.52199013,1092.03],[8.63647915,46.52195647,1091.63],[8.63757477,46.52177652,1087.79],[8.63770543,46.52177086,1087.22],[8.63932474,46.52192481,1081.44],[8.63946573,46.52193514,1080.94],[8.64016137,46.52188282,1078.27],[8.64029436,46.52185083,1077.73],[8.64355021,46.52044498,1065.45],[8.6436622,46.52041398,1065],[8.64529311,46.52014573,1059.04],[8.64539511,46.52012474,1058.76],[8.64828596,46.51933623,1050.58],[8.64838562,46.5193149,1050.37],[8.65123714,46.51889806,1043.82],[8.65130114,46.51888806,1043.76],[8.65325963,46.51842989,1041.65],[8.65333396,46.51840789,1041.58],[8.65754539,46.51654242,1032.99],[8.65766772,46.51650742,1032.49],[8.66246918,46.51571328,1020.08],[8.66256851,46.51569162,1019.91],[8.66972377,46.51381466,1007.88],[8.66981976,46.513795,1007.91],[8.67408286,46.51340422,1001.33],[8.67415785,46.51339423,1001.3],[8.68120104,46.5121297,995.97],[8.68127037,46.51212037,995.68],[8.68404186,46.51206181,992.18],[8.68415219,46.51204815,991.97],[8.68599406,46.51123327,987.22],[8.68605206,46.51122061,987.34],[8.69314124,46.50991509,982.45],[8.69320957,46.50990143,982.4],[8.69616609,46.50908494,977.43],[8.69625575,46.50906261,977.29],[8.69887593,46.50852278,975.95],[8.69896093,46.50850678,975.85],[8.70278071,46.50808502,973.34],[8.70286371,46.50806769,973.25],[8.70365999,46.50781674,972.58],[8.70373265,46.50778041,972.5],[8.7044256,46.50721982,972.09],[8.70448193,46.50720149,972.28],[8.70494954,46.50738347,971.91],[8.7050142,46.50742513,971.79],[8.7060354,46.50825632,972.73],[8.7060424,46.50825698,972.82],[8.70792017,46.50711285,971.43],[8.70797583,46.50709219,971.48],[8.70894573,46.50768114,972.26],[8.70899773,46.50767914,972.28],[8.71088655,46.50717933,971.58],[8.71094354,46.507161,971.65],[8.71151347,46.50685974,970.87],[8.71157647,46.50684308,970.84],[8.71288136,46.50687539,970.26],[8.71293835,46.50687705,970.26],[8.713061,46.50694104,970.99],[8.71308233,46.50697704,971.24],[8.71327524,46.50772929,972.19],[8.71330057,46.50777929,971.97],[8.71362455,46.50816592,970.54],[8.71366621,46.50816758,970.71],[8.71454605,46.5075784,976.01],[8.71457971,46.50755974,976.17],[8.71724574,46.50628968,984.06],[8.71728474,46.50627002,984.24],[8.7189989,46.50531353,982.64],[8.7190599,46.50528287,982.38],[8.72037281,46.50494262,981.8],[8.72046481,46.50489262,981.63],[8.7209101,46.50426799,979.23],[8.72095576,46.50421233,978.86],[8.72152873,46.50401869,977.16],[8.72160239,46.50398403,977.01],[8.72294523,46.50320118,979.45],[8.72298023,46.50318318,979.48],[8.72332682,46.50280757,978.61],[8.72339581,46.50277157,978.5],[8.72696553,46.50190448,971.02],[8.72698819,46.50189182,971.11],[8.72718048,46.50196614,971.58],[8.72720381,46.50195614,971.66],[8.72706621,46.50125757,972.92],[8.72706321,46.50121758,972.96],[8.72719119,46.50101894,972.86],[8.72723885,46.50098228,972.88],[8.73219126,46.4983232,958.99],[8.73228526,46.49826454,958.29],[8.73240724,46.49812288,956.82],[8.73243657,46.49804422,956.11],[8.73245623,46.49790123,953.08],[8.73237823,46.49759324,950.99],[8.73249488,46.49738159,949.87],[8.73255354,46.49733159,949.65],[8.73343314,46.49677732,949.27],[8.73349847,46.49672899,949.25],[8.73799737,46.49326804,942.11],[8.73805236,46.49322638,941.8],[8.74015983,46.49179091,938.02],[8.74018549,46.49175791,938.13],[8.73990485,46.49152663,939.72],[8.73984986,46.49151297,939.87],[8.73852962,46.49150464,939.88],[8.73845363,46.49150031,939.91],[8.737991,46.49138367,939.89],[8.73792634,46.49137968,939.89],[8.73732341,46.49161328,941.61],[8.73728142,46.49163661,941.85],[8.73670283,46.49207588,945.98],[8.73666417,46.49209121,946.17],[8.7364092,46.49202257,947.79],[8.73638287,46.49199724,947.92],[8.73646119,46.49177762,947.14],[8.73646952,46.49177861,947.08],[8.73631889,46.49191824,947.04],[8.73628323,46.4919369,947.16],[8.73604393,46.4919449,947.89],[8.73603693,46.49191657,948.01],[8.73730913,46.49028541,945.44],[8.73736079,46.49023875,945.26],[8.738757,46.48909622,942.53],[8.73881866,46.48905256,942.51],[8.73970726,46.48860198,941.95],[8.73976059,46.48858265,942.06],[8.74131245,46.48815912,944.4],[8.74137145,46.48814646,944.35],[8.74233903,46.48803887,944.59],[8.74240102,46.48803854,944.71],[8.74629565,46.48864321,945.75],[8.74637298,46.48865754,945.58],[8.75036184,46.48975705,926.99],[8.75052317,46.48981438,925.74],[8.75400279,46.49167766,897.06],[8.75411445,46.49171599,896.3],[8.7543191,46.49166433,893.72],[8.75431644,46.49161467,892.79],[8.75363349,46.49124637,887.31],[8.7535685,46.49119337,886.71],[8.75368216,46.49100272,884.07],[8.75376882,46.49100206,883.53],[8.75560074,46.49163632,875.6],[8.7557294,46.49166998,875.07],[8.75749967,46.49192361,864.5],[8.75763533,46.49190228,863.21],[8.75824896,46.49154465,856.98],[8.75831762,46.49146299,856.22],[8.75894686,46.49006873,843.25],[8.75903285,46.48997473,842.5],[8.75933184,46.48972841,839.26],[8.75944317,46.48965708,838.05],[8.76007481,46.48939644,832.74],[8.76021614,46.48936478,831.86],[8.76097279,46.48930845,828.13],[8.76112745,46.48931711,827.34],[8.76299272,46.48963037,819.72],[8.76312705,46.48963303,819.15],[8.76544461,46.48935412,809.21],[8.76555827,46.48934213,808.78],[8.76652224,46.48933346,805.87],[8.76662457,46.48933712,805.62],[8.76951341,46.48972698,800.85],[8.76962941,46.48972232,800.46],[8.77056704,46.48961469,797.43],[8.7707127,46.48958503,796.79],[8.77209498,46.4891434,789.3],[8.77227097,46.48910707,788.26],[8.77514722,46.48872649,772.99],[8.77530888,46.48868783,772.27],[8.77721979,46.48762922,761.53],[8.77735379,46.48757322,760.88],[8.78088996,46.48648606,748.64],[8.78098562,46.48645507,748.44],[8.78174823,46.48606645,746.63],[8.78181722,46.48601512,746.44],[8.78267711,46.4851449,744.32],[8.78267145,46.48512657,744.21],[8.78146834,46.48461408,738.45],[8.78142401,46.48459575,738.22],[8.78112008,46.48429716,736.86],[8.78111308,46.48429117,736.84],[8.78156741,46.48465417,737.6],[8.78272381,46.48512288,744.05],[8.78275747,46.48511822,744.21],[8.78476557,46.48407913,746.39],[8.78482356,46.48405713,746.47],[8.78865464,46.48289408,742.72],[8.78875164,46.48284908,742.09],[8.7916418,46.48107726,734.95],[8.79172313,46.4810316,734.86],[8.79471462,46.47951512,729.07],[8.79482461,46.47947312,728.63],[8.79594491,46.47910483,724.1],[8.79607957,46.4790705,723.61],[8.79707587,46.4789962,719.65],[8.79721553,46.4789692,718.93],[8.79874315,46.47853926,712.06],[8.79885581,46.47851893,711.61],[8.80005841,46.47854889,709.24],[8.8001184,46.47854756,709.16],[8.80066701,46.47843527,709.2],[8.80073267,46.47841194,709.11],[8.80125629,46.47795801,708.24],[8.80122696,46.47794501,708.22],[8.79962344,46.47807966,703.37],[8.79961878,46.47807733,703.28],[8.80038036,46.47808103,703.81],[8.80041869,46.47807603,703.86],[8.80103157,46.47787447,706.43],[8.8010389,46.47785314,706.62],[8.80090659,46.47770384,706.59],[8.80084793,46.47768184,706.41],[8.80021697,46.47758255,702.61],[8.80015864,46.47753322,702.13],[8.79999167,46.47726689,700.15],[8.79996234,46.47719323,699.67],[8.79996334,46.47689658,698.32],[8.799996,46.47682692,698.06],[8.80275072,46.47416287,690.27],[8.80281172,46.47411988,690.17],[8.80336869,46.47382791,689.53],[8.80344535,46.47379858,689.44],[8.80689379,46.4726618,685.85],[8.80696545,46.4726268,685.7],[8.80958531,46.47118764,679.88],[8.80966864,46.47113365,679.78],[8.8111522,46.47009911,677.83],[8.81120953,46.47005545,677.76],[8.81184814,46.46941151,676.83],[8.81191514,46.46936885,676.74],[8.81377569,46.46869698,673.64],[8.81384402,46.46866832,673.56],[8.81678117,46.46722788,669.03],[8.81683616,46.46720688,669],[8.81689649,46.46715423,668.82],[8.81689649,46.46712857,668.65],[8.81670622,46.46683729,667.66],[8.81672255,46.4668173,667.57],[8.81797244,46.46627505,665.45],[8.8180321,46.46625206,665.39],[8.81889169,46.46601582,664.38],[8.81894168,46.46599382,664.32],[8.82001923,46.46525694,662.42],[8.82005822,46.46522361,662.41],[8.82090906,46.4638841,661.61],[8.82094072,46.46384011,661.42],[8.82174398,46.46313818,656.99],[8.82178831,46.46308785,656.66],[8.82329783,46.46107368,652.72],[8.82333849,46.46101068,652.62],[8.82571114,46.45705308,649.16],[8.82573513,46.45700908,649.34],[8.82587375,46.45646578,649.03],[8.82590774,46.45638812,648.8],[8.82729386,46.45362365,644.1],[8.82731719,46.45357899,644.12],[8.82781047,46.45307607,643.98],[8.82783647,46.45302707,643.86],[8.8279484,46.45228811,642.19],[8.82797473,46.45222011,642.07],[8.82907926,46.44995427,635.03],[8.82910026,46.44988861,634.9],[8.82899501,46.44823208,631.34],[8.82900401,46.44815942,631.16],[8.82972956,46.44656121,628.38],[8.82977322,46.44649421,628.24],[8.83026885,46.44592391,627.07],[8.83033818,46.44586791,626.94],[8.83123278,46.44532598,625.95],[8.83128911,46.44527265,625.87],[8.83265831,46.44366909,622.4],[8.83271431,46.44360843,622.4],[8.83435849,46.44196193,620.57],[8.83439882,46.4419256,620.75],[8.83788577,46.43954296,620.72],[8.8379341,46.43950097,620.68],[8.83808708,46.43929799,620.65],[8.83811074,46.43923933,620.42],[8.83816005,46.4387327,621.35],[8.83817838,46.4387007,621.74],[8.83843367,46.43834742,624.64],[8.838476,46.43830909,624.78],[8.83886429,46.43808179,623.67],[8.83890895,46.43803313,623.35],[8.8392169,46.43740651,621.46],[8.83928123,46.43734652,621.24],[8.8400445,46.43704225,622.65],[8.84007583,46.43703659,622.96],[8.84066842,46.43713423,624.05],[8.84073175,46.4371279,623.8],[8.84205667,46.43693867,620.27],[8.84214166,46.43692168,620.08],[8.84331092,46.43660042,615.81],[8.84338058,46.43658776,615.74],[8.84404054,46.4365611,614.6],[8.84409654,46.43654077,614.33],[8.84546942,46.43574656,612.1],[8.84551975,46.4357129,612.09],[8.84588203,46.43532294,611.89],[8.84592336,46.43529828,611.86],[8.84658865,46.43512399,611.61],[8.84666531,46.43509266,611.43],[8.84749126,46.43465638,608.38],[8.84758892,46.43459205,607.78],[8.84977147,46.43278984,585.51],[8.84984313,46.43274151,584.04],[8.85008612,46.43264852,580.16],[8.85018178,46.43264086,579.1],[8.85065042,46.43269418,574.24],[8.85068841,46.43267618,573.81],[8.85226831,46.43150464,565.72],[8.85233097,46.43143764,565.43],[8.85331548,46.4294421,556.26],[8.85333714,46.42938044,555.99],[8.85357203,46.42826354,553.4],[8.85358902,46.42820888,553.42],[8.85425155,46.42650066,546.58],[8.85428088,46.426402,545.88],[8.85430789,46.42577203,541.52],[8.85432788,46.42566637,540.41],[8.85457985,46.42502341,535.11],[8.85465385,46.42492241,534.32],[8.85661907,46.42263286,509.71],[8.85674106,46.42255153,508.69],[8.85944997,46.4218493,488.35],[8.85949896,46.4218053,487.31],[8.8594023,46.42169432,484.55],[8.85932831,46.42169199,483.87],[8.8574334,46.42217854,475.39],[8.85733074,46.4222022,474.97],[8.85706009,46.42212221,473.67],[8.85706608,46.42207188,473.43],[8.85920764,46.42154633,468.49],[8.8593323,46.42151167,468.19],[8.8599496,46.42114038,465.81],[8.86003559,46.42106272,465.37],[8.86170182,46.41923716,456.82],[8.86177348,46.41916616,456.48],[8.86294674,46.41825355,451.21],[8.86302907,46.41818156,450.79],[8.86366169,46.41747226,447.43],[8.86373535,46.41739593,447.04],[8.86467695,46.41661398,442.54],[8.86475095,46.41653565,442.04],[8.8662561,46.41383816,431.32],[8.8662961,46.41378516,431.23],[8.86850894,46.41167033,421.74],[8.86857294,46.411587,421.77],[8.8692672,46.40997444,413.54],[8.86931053,46.40988678,413.17],[8.87142196,46.40591334,397.2],[8.87146796,46.40584434,396.94],[8.87196091,46.40529736,396],[8.87202191,46.40524537,395.68],[8.87331645,46.40432786,395.84],[8.87334445,46.4043032,395.91],[8.87339743,46.40412791,396.31],[8.87339976,46.40412325,396.34],[8.8742573,46.40337069,395.89],[8.87427096,46.40334303,395.95],[8.87264048,46.4026895,398.27],[8.87264081,46.40266351,398.49],[8.87285374,46.40236726,401.14],[8.87286674,46.40235493,401.13],[8.87391462,46.40156273,398.92],[8.87396728,46.40150707,398.58],[8.8748485,46.40025185,393.49],[8.87489083,46.40020586,393.48],[8.87559508,46.39972292,392.4],[8.87562808,46.39967659,392.3],[8.87560409,46.39949195,391.45],[8.87556576,46.39944529,391.25],[8.87469816,46.39868337,387.57],[8.87465517,46.39864471,387.47],[8.8743619,46.39822943,386.88],[8.87437023,46.39818844,386.72],[8.87526581,46.39732818,382.89],[8.87533747,46.39726785,382.55],[8.877296,46.39586968,369.59],[8.87737199,46.39581602,369.22],[8.87987851,46.39461951,367.05],[8.87994817,46.39458852,366.95],[8.88366732,46.39307607,360.89],[8.88375198,46.39303407,360.68],[8.8854865,46.39176688,356.86],[8.88553883,46.39173055,356.82],[8.88616176,46.39148228,355.13],[8.88619209,46.39146295,355.09],[8.88629138,46.39118732,354.59],[8.88632704,46.39116399,354.55],[8.8878609,46.39114999,352.95],[8.88792623,46.39114833,352.91],[8.88870147,46.39092373,353.11],[8.8887568,46.39091607,353.14],[8.89136427,46.39076065,350.39],[8.89142593,46.39074832,350.06],[8.8928718,46.39015141,348.7],[8.89292713,46.39012808,348.64],[8.8939007,46.3895715,346.23],[8.89395303,46.38953884,346.12],[8.89562615,46.38807735,343.99],[8.89566081,46.38803836,343.98],[8.89623138,46.38716846,342.38],[8.89625338,46.38712447,342.12],[8.8962114,46.38674783,340.9],[8.89622006,46.38669217,340.79],[8.89660198,46.38608326,341.24],[8.89663364,46.38603393,341.15],[8.89758118,46.38515605,338.89],[8.89758384,46.38515239,338.84],[8.89676928,46.38588662,339.8],[8.89673795,46.38591995,339.72],[8.89652702,46.38631421,341],[8.89652735,46.38631654,341.1],[8.89676064,46.38587959,340.51],[8.89679897,46.38583793,340.39],[8.89793986,46.38489772,339.01],[8.89799485,46.38486273,338.99],[8.900554,46.38388126,336.21],[8.90059999,46.3838466,336.15],[8.90269235,46.3818629,332.85],[8.90271968,46.38183657,332.81],[8.90274369,46.38161493,332.84],[8.90276302,46.38159194,332.7],[8.9043462,46.38123644,333.09],[8.90438919,46.38121711,333.01],[8.90510544,46.38050054,329.82],[8.90515944,46.38045621,329.61],[8.90667561,46.37939538,328],[8.90672594,46.37936439,328],[8.91097893,46.37718745,323.31],[8.91101926,46.37715979,323.09],[8.91159919,46.37668454,322.44],[8.91161519,46.37664021,322.56],[8.91068262,46.375777,322.88],[8.91065863,46.375705,322.61],[8.91070796,46.37537235,321.8],[8.91075862,46.37528569,321.69],[8.91111924,46.37491806,322.23],[8.91116023,46.37488506,322.45],[8.91289868,46.37369023,325.65],[8.91295634,46.37366257,325.65],[8.91652968,46.3725632,329.21],[8.91657934,46.3725442,329.22],[8.91846212,46.37142076,328.32],[8.91851078,46.37138943,328.02],[8.91865977,46.37120579,327.39],[8.91865211,46.3711668,327.44],[8.91831385,46.37077486,328.65],[8.91829852,46.37074087,328.81],[8.91824923,46.37025262,330.8],[8.91825256,46.37021896,331],[8.9187701,46.36934442,331.83],[8.91880543,46.36931343,331.84],[8.92014599,46.36827255,324.91],[8.92023298,46.36823022,324.61],[8.92159656,46.36794764,323.24],[8.92167322,46.36791998,323.18],[8.92311147,46.36707407,317.52],[8.92320046,46.36702574,317.18],[8.92404674,46.36679946,318.1],[8.9240974,46.3667758,318.32],[8.92482398,46.36622157,319.61],[8.92485731,46.36619191,319.66],[8.92520624,46.36574532,320.58],[8.92524057,46.36572932,320.67],[8.92620815,46.36574358,321.38],[8.92626015,46.36573759,321.42],[8.92715605,46.36541233,319.68],[8.92723371,46.365405,319.4],[8.92815165,46.36589794,316.39],[8.92823131,46.36593493,315.86],[8.92860162,46.36599425,314.48],[8.92870362,46.36599458,314.17],[8.92898793,46.36592326,312.36],[8.92905593,46.36587093,311.81],[8.92927691,46.36549829,309.63],[8.9293269,46.36548696,309.68],[8.93140175,46.3654333,308.7],[8.93145941,46.36542464,308.59],[8.93741446,46.36292493,300.85],[8.93747212,46.36291427,300.68],[8.93775742,46.36302825,301.03],[8.93778808,46.36306125,301.18],[8.93856266,46.36420216,299.14],[8.93863299,46.36431582,299.25],[8.93932023,46.36501104,302.15],[8.93935222,46.36500371,302.29],[8.94279995,46.36383943,299.52],[8.94284528,46.36382477,299.49],[8.94329721,46.3639304,299.32],[8.94332854,46.36392674,299.28],[8.94382546,46.36368313,299.2],[8.94386512,46.36366847,299.32],[8.95095836,46.36140325,294.68],[8.95099402,46.36139292,294.71],[8.95103071,46.36126796,295.09],[8.95108804,46.3611963,295.09],[8.95078311,46.36067039,296.04],[8.9507981,46.36063506,296.04],[8.9512684,46.36037712,295.72],[8.95130939,46.36034379,295.71],[8.95166901,46.35991552,295.27],[8.95170367,46.35988686,295.09],[8.95488262,46.35833897,296.02],[8.95493695,46.35832364,296.04],[8.95526625,46.3583753,295.96],[8.95530925,46.35840363,295.93],[8.95619845,46.35915713,297.17],[8.95621444,46.35918479,297.28],[8.95585051,46.35985272,297.25],[8.95584718,46.35989538,297.25],[8.95611945,46.36054793,297.65],[8.95616311,46.36056926,297.55],[8.95892441,46.36044782,301.12],[8.95897107,46.36044516,301.25],[8.96047588,46.36024065,304.89],[8.96052054,46.36023199,304.89],[8.96090816,46.35986472,303.07],[8.96091316,46.35984206,302.79],[8.96071153,46.35927113,301.11],[8.96072486,46.35922314,300.93],[8.96153944,46.3590332,299.18],[8.96157543,46.3590052,299.18],[8.96305879,46.35709717,296.1],[8.96309645,46.35709084,296.16],[8.96369637,46.35735508,296.16],[8.96373936,46.35735442,296.18],[8.96707835,46.3567254,296.27],[8.96710735,46.35673073,296.27],[8.96761619,46.35812591,297.03],[8.96762152,46.35815757,297.3],[8.96745962,46.35893277,300.74],[8.96747995,46.35895943,300.83],[8.96897779,46.35925393,302.16],[8.96900545,46.35926259,302.2],[8.96906776,46.35936823,302.47],[8.96906076,46.35938956,302.55],[8.96889683,46.3595835,303.03],[8.96888684,46.35958449,302.99],[8.96905745,46.35924454,303.99],[8.96906844,46.35922788,303.87],[8.96928572,46.35917391,303.28],[8.96930138,46.35915358,303.22],[8.969377,46.35891464,302.13],[8.969379,46.35890798,302.07],[8.96938468,46.35926259,302.38],[8.96941567,46.35928425,302.51],[8.9710205,46.35970942,302.8],[8.97103083,46.35971475,302.79],[8.97092523,46.36022567,303.08],[8.97092024,46.36023,303.1],[8.97097187,46.3598604,303.4],[8.97099253,46.35982207,303.27],[8.97209936,46.35831689,301.7],[8.97211502,46.35828323,301.58],[8.97175442,46.35805967,299.8],[8.97175376,46.35805501,299.72],[8.97175975,46.35806734,299.53],[8.97185041,46.35824867,299.53],[8.97207271,46.35822203,300.63],[8.97210404,46.35821837,300.64],[8.97227068,46.3580254,301.21],[8.97228434,46.3579934,301.21],[8.9734052,46.35384916,295.45],[8.97341486,46.35380683,295.45],[8.97328322,46.3535342,295.48],[8.97328023,46.35349154,295.57],[8.97363014,46.352538,295.66],[8.97360648,46.352517,295.69],[8.96789228,46.35093212,291.61],[8.96783462,46.35094512,291.63],[8.96488477,46.35482766,293.04],[8.96483544,46.35482467,292.98],[8.96151935,46.35385058,292.23],[8.96142969,46.35381725,292.18],[8.95824723,46.35236746,292.67],[8.95821257,46.3523468,292.83],[8.95823055,46.35155189,293.91],[8.95822589,46.3514969,293.81],[8.95802929,46.35070629,294.06],[8.95802463,46.35064696,293.98],[8.95808827,46.35015768,293.89],[8.95810193,46.35009569,293.82],[8.96135719,46.34527369,287.91],[8.96139185,46.34520803,287.87],[8.96198775,46.34381314,286.99],[8.96200408,46.34374848,286.95],[8.96223056,46.34146638,285.97],[8.96225122,46.34140572,285.94],[8.96478296,46.33789131,282.61],[8.96481562,46.33783098,282.55],[8.96531972,46.33576016,280.37],[8.96533438,46.3357115,280.28],[8.96624818,46.33374005,280.87],[8.96627451,46.33369039,280.76],[8.96649947,46.33352175,280.34],[8.96656747,46.33352341,280.29],[8.96761272,46.33384733,279.7],[8.96769471,46.33386332,279.68],[8.96810935,46.33375367,280.15],[8.96814468,46.33370401,280.17],[8.97232321,46.3252288,274.38],[8.97235187,46.3251728,274.52],[8.97341337,46.32313798,273.47],[8.97344236,46.32308465,273.44],[8.97466514,46.32108014,271.95],[8.9746928,46.32102081,271.9],[8.97493841,46.32040986,271.77],[8.97495274,46.32035453,271.69],[8.97507533,46.31947428,270.86],[8.97507899,46.31941462,270.82],[8.97482854,46.31682888,270.97],[8.97482555,46.31677222,270.91],[8.97489816,46.31593097,270.04],[8.97491149,46.31587497,269.92],[8.97536872,46.31490107,268.99],[8.97539905,46.31485674,268.96],[8.9768215,46.31324221,268.05],[8.97686983,46.31318388,268.07],[8.97725944,46.31253558,268.06],[8.97728277,46.31247692,268.03],[8.97742471,46.31159431,267.21],[8.97742105,46.31153698,267.14],[8.97707416,46.31028474,266.33],[8.9770635,46.31023541,266.31],[8.97705418,46.30942281,266.59],[8.97706417,46.30937015,266.6],[8.97758602,46.30816329,265.93],[8.97761802,46.30811663,265.91],[8.97852857,46.30730672,265.35],[8.9785579,46.30724939,265.42],[8.97860355,46.30701108,265.82],[8.97859655,46.30695175,265.87],[8.9784126,46.30626481,264.9],[8.97841393,46.30620548,265.03],[8.97864188,46.30563852,265.08],[8.97867521,46.30558586,265.05],[8.97906615,46.30516658,265.11],[8.97910781,46.30513325,265.14],[8.98015971,46.30443771,266.53],[8.9802027,46.30440138,266.55],[8.98040765,46.30398246,267.82],[8.98042798,46.30396213,268.03],[8.98276276,46.30241067,267.73],[8.98282042,46.30237068,267.67],[8.98365433,46.3016451,266.1],[8.98368899,46.30162111,266.04],[8.98512821,46.30208168,265.32],[8.98519954,46.30209968,265.26],[8.98591383,46.30216732,264.81],[8.98597616,46.30214933,264.7],[8.98686406,46.30172343,262.12],[8.98689639,46.30169043,262.26],[8.98789488,46.30007596,261.81],[8.98794554,46.30004063,261.84],[8.9884525,46.29988034,261.89],[8.98851683,46.29987401,261.81],[8.98933844,46.29998764,262.69],[8.98939543,46.29997631,262.6],[8.99179823,46.29892753,262.03],[8.99184623,46.2988962,262.35],[8.99321034,46.2971344,261.63],[8.99324433,46.29708507,261.54],[8.99510003,46.29408574,260.34],[8.99512569,46.29403408,260.32],[8.99580416,46.29188827,260.07],[8.99580982,46.29182761,260.06],[8.99572121,46.29101468,259.44],[8.99571955,46.29098702,259.32],[8.99618011,46.28113002,254.18],[8.99618044,46.28108036,254.16],[8.99622742,46.28095438,254.17],[8.99626841,46.28092772,254.23],[8.99660206,46.28090939,253.98],[8.99665439,46.28088206,253.66],[8.99672071,46.28073907,253.01],[8.99672704,46.28068407,252.88],[8.99672437,46.27944284,251.49],[8.99671304,46.27939018,251.47],[8.99630778,46.27874293,253.13],[8.99630978,46.27870227,253.33],[8.99751282,46.27597489,252.71],[8.99753681,46.2759229,252.68],[8.99816137,46.27485267,252.33],[8.99815904,46.27481168,252.41],[8.99606156,46.27371953,252.49],[8.99601223,46.2736912,252.45],[8.99275923,46.27165153,251.11],[8.99277189,46.2716112,251.09],[8.99424888,46.26916121,259.54],[8.99426821,46.26912788,259.54],[8.99462974,46.26812306,263.81],[8.9946474,46.2680904,264.01],[8.99545756,46.26705489,267.26],[8.99549156,46.2670229,267.14],[8.99524125,46.26666595,267.07],[8.99526191,46.26662695,267.01],[8.99572754,46.26634333,265.7],[8.9958062,46.266309,265.35],[8.99665882,46.26603304,263.13],[8.99675415,46.26598771,262.92],[8.9984654,46.26500613,257.5],[8.99854873,46.26494547,257.31],[8.99936102,46.26428651,254.97],[8.99941535,46.26422385,254.81],[9.00024521,46.26297998,250.66],[9.00026254,46.26296732,250.54],[9.00170066,46.26313116,249.14],[9.00172566,46.2631175,249.08],[9.00656334,46.25700656,253.2],[9.006591,46.2569669,253.21],[9.00713023,46.25599635,254.78],[9.00714989,46.25595302,254.75],[9.00758275,46.25462781,253.79],[9.00760274,46.25459748,253.67],[9.0160058,46.2542914,259.6],[9.01607879,46.25429273,259.71],[9.01633276,46.25441971,259.54],[9.01634709,46.2544697,259.45],[9.01626141,46.25512498,256.85],[9.01617942,46.25519698,256.41],[9.01519411,46.25556228,252.42],[9.01507445,46.25559794,252],[9.0142905,46.25572292,249.97],[9.01423784,46.25569693,249.68],[9.01448204,46.25411507,244.23],[9.01449804,46.25406308,244.03],[9.01935612,46.24605233,242.89],[9.01939011,46.24601567,243.01],[9.02536946,46.24241335,242.77],[9.02541379,46.24239502,242.77],[9.0256451,46.24241802,242.5],[9.02568576,46.24243601,242.39],[9.02720358,46.24331084,243.88],[9.02725558,46.24333783,243.89],[9.02750089,46.24336915,243.25],[9.02755655,46.24334382,242.76],[9.02992024,46.24113115,241.41],[9.02996057,46.24110182,241.53],[9.03088612,46.24056461,242.06],[9.03093478,46.24054595,242.02],[9.03109944,46.24053763,241.93],[9.0311501,46.24055462,241.87],[9.0314294,46.24076891,241.57],[9.0314814,46.24078157,241.55],[9.03173038,46.24065826,241.19],[9.03176537,46.2406296,241.26],[9.03364369,46.23809496,240.8],[9.03367035,46.23805963,240.76],[9.03571641,46.23584556,239.38],[9.03574941,46.23580623,238.93],[9.03583073,46.23563492,238.08],[9.03582674,46.23559059,238.21],[9.03560844,46.23530662,238.09],[9.03558478,46.23526429,237.85],[9.03557045,46.23504731,236.76],[9.03558911,46.23500665,236.63],[9.03944794,46.22823151,237.59],[9.03945727,46.22819485,237.44],[9.0394466,46.22787389,236.44],[9.03943327,46.22782089,236.35],[9.03852319,46.22485481,236.42],[9.03851053,46.22480715,236.23],[9.03843993,46.22394557,235.52],[9.03845059,46.22390357,235.52],[9.03866223,46.22377226,235.57],[9.03872156,46.2237696,235.63],[9.0406294,46.2239898,236.09],[9.04066973,46.2239978,236.15],[9.04087031,46.22460269,236.78],[9.04087897,46.22463368,236.83],[9.04100561,46.22469766,236.77],[9.04102794,46.224684,236.79],[9.04108791,46.22438771,235.2],[9.0410979,46.22435872,235],[9.04145422,46.22429474,234.14],[9.04148022,46.22428141,234.21],[9.0416401,46.22385385,236.27],[9.04165543,46.22383286,236.33],[9.04190272,46.22376424,237.18],[9.04191605,46.22373991,237.13],[9.04201355,46.22159281,236.22],[9.04203321,46.22155615,236.22],[9.04274646,46.22119055,237.22],[9.04278646,46.22115856,237.29],[9.0432874,46.22071497,236.75],[9.04332273,46.22067597,236.84],[9.04342236,46.220387,237.72],[9.04342769,46.22035034,237.72],[9.04348559,46.2187416,239.85],[9.0434816,46.21870994,239.88],[9.04313336,46.21808837,241.67],[9.0431077,46.21805737,241.89],[9.04235817,46.21745283,245.24],[9.04232151,46.21743083,245.37],[9.04014107,46.21638172,243.77],[9.04007374,46.21633906,243.63],[9.03912252,46.21539215,239.78],[9.03909153,46.21536116,239.52],[9.03927447,46.21440924,233.9],[9.03927114,46.21434625,233.67],[9.03899729,46.21281343,232.79],[9.03898896,46.2127741,232.8],[9.03878704,46.21241551,231.83]]}}]}