{"type":"FeatureCollection","features":[{"type":"Feature","properties":{"name":"20260512 Cicloturismo","time":"2026-05-12T08:43:01Z"},"geometry":{"type":"LineString","coordinates":[[7.75729766,48.58114333,139.88],[7.75740289,48.58091905,139.59],[7.75741155,48.58088806,139.61],[7.75739289,48.58072476,139.76],[7.75739156,48.58069676,139.8],[7.75748685,48.58035816,139.69],[7.75746419,48.58032883,139.62],[7.75666162,48.58007058,140.14],[7.75662363,48.58004525,140.01],[7.75637035,48.57976097,140.36],[7.75634069,48.57973531,140.51],[7.75471822,48.57840088,140.13],[7.75468556,48.57837422,140.14],[7.75383199,48.57778567,140.9],[7.75379133,48.57775834,140.88],[7.75339305,48.57758106,141.01],[7.75337272,48.5775734,141.1],[7.7529101,48.57751312,141.55],[7.75285744,48.57750079,141.38],[7.7504177,48.57683869,140.72],[7.75037604,48.57681336,140.72],[7.75032073,48.57671005,140.79],[7.75032339,48.57667105,140.87],[7.75049731,48.57611644,141.09],[7.75050864,48.57608011,141.04],[7.75050432,48.57586714,140.47],[7.75049933,48.57583181,140.47],[7.75043102,48.5756665,140.31],[7.75040536,48.57563684,140.31],[7.74991045,48.57518628,140.75],[7.74989446,48.57515828,140.79],[7.7499621,48.57452872,141.64],[7.74995744,48.57452573,141.63],[7.74904155,48.57437884,141.16],[7.74901856,48.57437518,141.12],[7.74874995,48.57427156,140.83],[7.74869629,48.5742609,140.77],[7.74739072,48.57407536,140.79],[7.74733272,48.57406703,140.82],[7.74505489,48.57390588,140.36],[7.7449939,48.57390489,140.36],[7.7432937,48.57393547,140.45],[7.74323604,48.5739378,140.44],[7.74000798,48.57414349,140.99],[7.73994398,48.57414715,141.06],[7.73794751,48.57438027,144.48],[7.73790185,48.57437061,144.59],[7.73784119,48.57432362,144.76],[7.73783086,48.57428862,144.84],[7.73771096,48.57323205,143.53],[7.73770197,48.57316639,143.35],[7.73761133,48.57291308,142.32],[7.737574,48.57285308,142.1],[7.73665506,48.57202585,139.85],[7.73661773,48.57198586,139.86],[7.73599351,48.57114996,140.73],[7.73595751,48.5711093,140.74],[7.73580353,48.57100965,140.6],[7.73574353,48.57098765,140.52],[7.73537622,48.57089834,139.96],[7.73535656,48.57086434,139.97],[7.73535823,48.57042404,139.95],[7.73535423,48.57037571,139.96],[7.73522164,48.56954316,140.08],[7.73521798,48.56949517,140.13],[7.73524431,48.56910855,140.67],[7.73523898,48.56905855,140.68],[7.73497807,48.56801563,142.66],[7.73497174,48.56796797,142.76],[7.73454147,48.56436836,143.33],[7.73453548,48.56432003,143.36],[7.73453915,48.56381309,142.89],[7.73453582,48.56377143,142.76],[7.73436698,48.56248624,143.25],[7.73435932,48.56243825,143.27],[7.73421871,48.56183566,143.42],[7.73421238,48.56179166,143.42],[7.73289706,48.55166307,141.93],[7.73289107,48.55162207,141.96],[7.73233073,48.54682891,141.2],[7.7323264,48.54678958,141.33],[7.73176959,48.54274439,143.15],[7.73176259,48.54269439,143.23],[7.73145484,48.5398183,143.76],[7.73144918,48.53976731,143.77],[7.73127356,48.53933403,144.62],[7.7312629,48.53929837,144.76],[7.73118031,48.53883243,144.77],[7.73117331,48.53879277,144.77],[7.73115732,48.53801322,148.15],[7.73114999,48.53799456,148.33],[7.73055408,48.53797721,149.1],[7.73055075,48.53795721,149.09],[7.73061239,48.53782791,148.9],[7.73061838,48.53779825,148.79],[7.73061505,48.53749329,147.12],[7.73060939,48.53743063,146.78],[7.7295703,48.52949713,144.32],[7.72956497,48.5294548,144.26],[7.72964527,48.52902252,144.17],[7.72964094,48.52897586,144.22],[7.72944233,48.52847791,143.86],[7.72943467,48.52843191,143.77],[7.72846031,48.52123577,144.93],[7.72845465,48.52118911,144.95],[7.72854327,48.52050053,144.72],[7.72853894,48.52045653,144.67],[7.72830735,48.51980158,145.21],[7.72829869,48.51975759,145.31],[7.72728691,48.51190143,145.41],[7.72728025,48.51185477,145.42],[7.727213,48.51122352,145.29],[7.72721333,48.51118053,145.29],[7.72736693,48.51080258,145.34],[7.7273656,48.51076358,145.37],[7.72727797,48.51054327,145.94],[7.72726964,48.51051328,146.04],[7.72728363,48.51037532,146.41],[7.72728763,48.51037299,146.44],[7.72720964,48.51033,146.51],[7.72720331,48.51030934,146.57],[7.72692185,48.50874052,146.74],[7.72691252,48.50869186,146.7],[7.72664406,48.5065947,145.86],[7.72663673,48.50654671,145.87],[7.72632788,48.50489651,145.9],[7.72631922,48.50484318,145.92],[7.72632957,48.50409394,146.63],[7.72632657,48.50404528,146.67],[7.72613872,48.50259011,146.65],[7.72613306,48.50254045,146.61],[7.72611841,48.50187953,146.49],[7.72611275,48.50183053,146.49],[7.72595381,48.50130294,146.28],[7.72594348,48.50124761,146.22],[7.7250299,48.49417468,145.64],[7.72502391,48.49412802,145.65],[7.72472182,48.49224055,145.42],[7.72471016,48.49219889,145.42],[7.72349449,48.48897127,145.85],[7.72347916,48.48892894,145.92],[7.72343084,48.48852097,146.6],[7.72341418,48.48847664,146.69],[7.72282103,48.48701943,146.75],[7.72280304,48.4869801,146.69],[7.72254708,48.48666313,145.47],[7.72252475,48.48661613,145.23],[7.72205092,48.48532461,146.01],[7.72203626,48.48528895,146.1],[7.72188329,48.48522299,145.82],[7.72187529,48.485216,145.78],[7.72182561,48.48506474,146.75],[7.7220026,48.48509907,145.69],[7.72134083,48.48343629,146.68],[7.72132583,48.48339696,146.68],[7.72106731,48.48230209,147.02],[7.72105431,48.48226643,147.15],[7.72044382,48.4809016,146.9],[7.72042849,48.4808636,147.03],[7.71715384,48.47245291,146.8],[7.71713751,48.47241225,146.87],[7.71662436,48.47090314,147.92],[7.71660836,48.47085748,147.89],[7.71611514,48.46973991,148.43],[7.71609648,48.46969425,148.48],[7.71221207,48.45973594,148.42],[7.71219308,48.45968828,148.42],[7.70950325,48.45271937,149.1],[7.70948859,48.45268404,149.02],[7.70936931,48.45215677,147.42],[7.70935531,48.45211711,147.39],[7.70890212,48.45121927,149.67],[7.70888746,48.45118261,149.59],[7.70884282,48.45081131,149.28],[7.70883449,48.45077531,149.28],[7.70863152,48.45055668,149.05],[7.70860586,48.45052269,149.04],[7.70847291,48.45022672,148.62],[7.70845858,48.45019139,148.55],[7.70552745,48.44264441,150.07],[7.70551012,48.44260108,150.09],[7.70524462,48.4416012,150.57],[7.70523096,48.44156187,150.58],[7.70508867,48.44134991,150.81],[7.70507201,48.44131225,150.89],[7.70446089,48.43968811,151.6],[7.70444156,48.43963911,151.61],[7.70416594,48.43909918,150.5],[7.70414428,48.43904685,150.5],[7.70285333,48.43573913,149.66],[7.70283633,48.43569547,149.78],[7.70268107,48.43511354,150.59],[7.70266507,48.43507088,150.59],[7.69899291,48.42568139,151.23],[7.69897758,48.42564206,151.13],[7.69892129,48.42532177,150.66],[7.69891096,48.42528344,150.62],[7.69794594,48.42304873,152.03],[7.69793061,48.4230124,151.93],[7.69768839,48.42227118,151.97],[7.69767273,48.42223518,151.98],[7.69746612,48.42196155,152.19],[7.69743779,48.42193422,152.19],[7.69718185,48.4217676,153.52],[7.69718218,48.42177526,153.65],[7.69723715,48.42181722,154.08],[7.69726048,48.42180823,153.84],[7.69719817,48.42169826,154.18],[7.69719184,48.42166826,154.21],[7.69710097,48.42077572,154.23],[7.69708764,48.42072239,153.87],[7.69598862,48.41792266,152.02],[7.69597329,48.41788166,152.05],[7.69578969,48.41733407,152.39],[7.69577836,48.41729541,152.38],[7.69575172,48.41702944,152.53],[7.69573972,48.41698145,152.53],[7.69500722,48.41553694,154.04],[7.69498756,48.41549361,154.04],[7.69442209,48.41406709,154.31],[7.69440476,48.41402443,154.31],[7.69348505,48.41135635,153.98],[7.69347039,48.41131169,153.98],[7.69315246,48.41080575,153.77],[7.6931348,48.41076709,153.78],[7.69253165,48.4092283,153.38],[7.69251666,48.40919097,153.37],[7.69199021,48.40755648,154.38],[7.69197588,48.40751582,154.33],[7.69091788,48.40472276,154.15],[7.69089789,48.40466843,154.12],[7.68555115,48.39086222,153.76],[7.68553516,48.39082056,153.92],[7.68536889,48.39024561,156.87],[7.6853529,48.39020061,156.87],[7.68471173,48.38870045,155.84],[7.68469507,48.38865779,155.63],[7.68395,48.38657238,155.77],[7.68393534,48.38652238,155.57],[7.68365306,48.38596042,154.51],[7.68363206,48.38590776,154.51],[7.68024151,48.37711863,154.94],[7.68022718,48.37708264,154.92],[7.68005858,48.37651303,154.79],[7.68004759,48.37647937,154.81],[7.67946777,48.37504854,155.46],[7.67945178,48.37501588,155.53],[7.67926949,48.3749279,155.58],[7.67924716,48.3749139,155.42],[7.67941815,48.3748499,155.94],[7.67680243,48.36819132,156.46],[7.6767891,48.36815932,156.49],[7.67601911,48.36597733,157.74],[7.67601078,48.365949,157.59],[7.67542468,48.36455658,157.59],[7.67541135,48.36452492,157.53],[7.66695566,48.34246108,160.64],[7.66693433,48.34240442,160.64],[7.66623949,48.34075689,160.91],[7.66621416,48.34070456,160.89],[7.66596686,48.34025794,160.99],[7.6659352,48.34021195,161.05],[7.66429613,48.33809689,160.57],[7.6642928,48.33809356,160.57],[7.66416318,48.33785094,162.78],[7.66413819,48.33781861,162.77],[7.66367193,48.33751402,164.5],[7.66365793,48.33750503,164.74],[7.66370424,48.33743172,165.51],[7.66372757,48.33741839,165.5],[7.6641275,48.33724512,166.13],[7.66412017,48.33721846,166.19],[7.66378921,48.3369165,165.56],[7.66374855,48.3368675,165.47],[7.66035874,48.33248507,164.14],[7.66033008,48.33245007,164.2],[7.65075704,48.32001717,162.1],[7.65072971,48.31998218,162.08],[7.65033813,48.31937061,163.38],[7.6503278,48.31935095,163.6],[7.65022216,48.31931297,164.7],[7.6501855,48.31931696,164.92],[7.64990888,48.31941658,165.87],[7.64989022,48.31941025,165.91],[7.64975492,48.31916929,165.28],[7.64972593,48.31912796,165.08],[7.64929433,48.31867035,163.68],[7.64926667,48.31863602,163.66],[7.64810693,48.31700264,163.15],[7.6480816,48.31696931,163],[7.6397716,48.30622143,161.63],[7.6397416,48.30618277,161.69],[7.6395183,48.30586514,162.09],[7.63949164,48.30582514,162.17],[7.63939233,48.30556318,162.58],[7.639373,48.30553518,162.7],[7.63880576,48.30492426,164.49],[7.63876376,48.30487693,164.65],[7.63705801,48.30275418,165.05],[7.63702702,48.30271518,165.03],[7.63521129,48.30022948,164.14],[7.63521595,48.30023247,164.14],[7.62058812,48.28124412,164.5],[7.62056613,48.28121712,164.6],[7.62051617,48.28097285,164.98],[7.62049851,48.28094685,165.03],[7.61975868,48.28016599,166.84],[7.61973068,48.28012999,166.85],[7.6107001,48.26838357,167.08],[7.61066944,48.26834424,167.1],[7.60996259,48.26739806,166.15],[7.60993659,48.2673614,166.17],[7.60976395,48.26703777,166.74],[7.60973529,48.26699611,166.91],[7.60879538,48.26590525,167.75],[7.60876239,48.26586492,167.76],[7.59940336,48.25366453,168.05],[7.59937636,48.25362687,168.03],[7.59927437,48.25351988,168.09],[7.59922871,48.25348922,168.16],[7.59862313,48.25321495,168.46],[7.59859947,48.25318762,168.49],[7.59840619,48.25285068,168.44],[7.59839053,48.25281102,168.32],[7.59835591,48.25238173,167.96],[7.59833858,48.25233973,167.96],[7.59789667,48.25157216,168.5],[7.59787101,48.25153616,168.61],[7.5972961,48.25089793,170.29],[7.59726544,48.25086093,170.4],[7.59265485,48.24489564,170.66],[7.59264819,48.24488798,170.71],[7.58139567,48.23023055,171.79],[7.58136367,48.23018955,171.78],[7.58043718,48.22895572,171.43],[7.58041219,48.22892072,171.46],[7.58030723,48.22864909,171.53],[7.58028523,48.22860876,171.53],[7.57953967,48.22780292,172.6],[7.57951101,48.22776659,172.46],[7.56718629,48.21171047,172.62],[7.56716029,48.21168014,172.77],[7.56692201,48.2112752,174.51],[7.56689935,48.21124221,174.61],[7.56647277,48.21079329,174.8],[7.56644378,48.21075796,174.81],[7.56279155,48.20599202,174.02],[7.56276455,48.20595803,174.02],[7.56256026,48.20561009,174.09],[7.5625406,48.20557576,174.1],[7.5623493,48.20540579,174.23],[7.56232397,48.20537446,174.28],[7.55337442,48.19371787,174.85],[7.55334709,48.19368487,174.86],[7.55229631,48.19228512,174.88],[7.55227298,48.19225279,174.98],[7.55206903,48.19188484,175.65],[7.5520407,48.19184518,175.7],[7.55081824,48.19039237,177.29],[7.55078958,48.19035571,177.27],[7.54234864,48.17932352,176.46],[7.54232264,48.17928986,176.46],[7.5419887,48.17871325,177.23],[7.54196337,48.17867992,177.26],[7.54098856,48.17755645,178.44],[7.5409639,48.17752579,178.4],[7.536905,48.17222987,178.19],[7.53687267,48.17218888,178.16],[7.53624279,48.17115899,178.08],[7.53621813,48.17111966,178.02],[7.5358505,48.17090504,177.71],[7.53582884,48.17087271,177.65],[7.53551931,48.17004985,179.83],[7.53551031,48.17002285,179.87],[7.53542807,48.16955692,179.42],[7.53542674,48.16954792,179.35],[7.53547635,48.16988721,178.49],[7.53548901,48.16992587,178.5],[7.53567233,48.17000086,178.98],[7.53573466,48.1699942,179.14],[7.53711025,48.16962329,178.46],[7.53720058,48.16960163,178.11],[7.53809786,48.16944703,176.99],[7.53816452,48.16943537,176.96],[7.53851315,48.16926841,176.04],[7.53856415,48.16925608,175.9],[7.53930673,48.16929905,175.16],[7.53936439,48.16928805,175.15],[7.54144491,48.16885684,174.67],[7.54151057,48.16884051,174.67],[7.54334275,48.16829465,174.45],[7.54340474,48.16828065,174.47],[7.54451199,48.16825332,174.74],[7.54458499,48.16824166,174.83],[7.54576325,48.16797273,174.82],[7.54582158,48.16795707,174.88],[7.54611687,48.16780778,175.34],[7.54611387,48.16778479,175.33],[7.54545902,48.16724192,174.49],[7.54545935,48.16724958,175.02],[7.54458417,48.16631274,175],[7.54455684,48.16628308,175],[7.54417828,48.16559752,175.4],[7.54416195,48.16556453,175.4],[7.54408068,48.16489297,175.32],[7.54407502,48.16485797,175.31],[7.5438941,48.16420476,175.54],[7.54388777,48.1641711,175.54],[7.54378562,48.16266462,175.86],[7.54378329,48.16261296,175.88],[7.54370767,48.16227633,176.3],[7.54370534,48.16224767,176.38],[7.54375333,48.16211472,175.47],[7.54375732,48.16210372,175.47],[7.54356735,48.16224269,176.06],[7.54351836,48.16224203,175.83],[7.54276878,48.16203677,175.33],[7.54271512,48.16202111,175.33],[7.53753866,48.16033068,175.65],[7.537492,48.16031569,175.65],[7.53679875,48.16003943,177],[7.53675542,48.16002777,177],[7.53525627,48.16009729,180.93],[7.53522461,48.16009828,180.99],[7.53468603,48.16004097,181.09],[7.53464003,48.1600433,181.09],[7.53339418,48.16021419,178.69],[7.53339884,48.16023285,178.63],[7.53348916,48.16027517,178.55],[7.53353182,48.16027716,178.5],[7.53430506,48.16023126,178.09],[7.53435239,48.16024526,178.09],[7.53463201,48.16058986,177.64],[7.53466067,48.16061952,177.57],[7.53478565,48.16067151,177.43],[7.53483498,48.16067018,177.41],[7.53496664,48.16062219,177.37],[7.53499497,48.16059186,177.4],[7.53526922,48.16002362,177.74],[7.53527255,48.15998929,177.74],[7.53510935,48.15915009,179.33],[7.53510469,48.15911376,179.34],[7.53503748,48.15809156,179.5],[7.53503482,48.1580529,179.49],[7.53397284,48.13721043,181.22],[7.53397085,48.1371721,181.2],[7.5339506,48.13555965,182.92],[7.53394894,48.13551965,183],[7.53383904,48.13470474,183.25],[7.53383605,48.13466041,183.24],[7.53348374,48.12696458,183.31],[7.53348241,48.12692558,183.34],[7.53336495,48.12522977,183.63],[7.53336129,48.12519011,183.61],[7.53330364,48.12505713,183.41],[7.53329698,48.1250398,183.35],[7.53340627,48.12518877,183.24],[7.5334106,48.12520143,183.31],[7.53329665,48.12489381,183.46],[7.53329099,48.12485515,183.4],[7.53319346,48.12306105,183.62],[7.53319113,48.12301839,183.65],[7.53298224,48.1169542,184.64],[7.53298024,48.11692321,184.64],[7.5329276,48.11677991,184.83],[7.53289794,48.11676525,184.81],[7.53222434,48.11675992,184.2],[7.53216434,48.11676258,184.19],[7.53031052,48.11709008,183.86],[7.53030486,48.11708808,183.91],[7.53031186,48.11702242,184.84],[7.53043983,48.11698345,184.96],[7.53047649,48.11697412,184.82],[7.53235889,48.11657806,188.38],[7.53239255,48.11656806,188.5],[7.53310245,48.11656874,189.11],[7.53311644,48.11658607,189.13],[7.53264017,48.1166337,189.12],[7.53257784,48.11663337,189.06],[7.53225987,48.11655973,188.63],[7.53220121,48.11653207,188.54],[7.5316496,48.11609946,187.09],[7.53161561,48.11606646,186.97],[7.53160195,48.1160248,186.66],[7.53161728,48.11602114,186.66],[7.53172659,48.11605078,186.39],[7.53173592,48.11605377,186.37],[7.53159095,48.11601611,186.22],[7.53154995,48.11599245,186.23],[7.53076071,48.11533921,185.41],[7.53071505,48.11530455,185.41],[7.53041107,48.11513192,185.34],[7.53035708,48.11511059,185.33],[7.52737468,48.11453082,185.83],[7.52730669,48.11451682,185.86],[7.52673906,48.1143052,185.89],[7.5267024,48.11426087,185.86],[7.52665341,48.11411655,185.83],[7.52665008,48.11406889,185.81],[7.52654536,48.11026206,186.66],[7.52654669,48.11022773,186.67],[7.52678356,48.10945317,186.74],[7.52679555,48.10941918,186.77],[7.52727476,48.10825471,189.78],[7.52728542,48.10822605,189.99],[7.52730273,48.10796777,191.49],[7.52728374,48.10793711,191.53],[7.52713975,48.1078798,191.35],[7.52706809,48.10787714,191.35],[7.52547787,48.10789447,188],[7.52540621,48.10789348,187.9],[7.50933502,48.10731474,187.59],[7.50927969,48.10731274,187.61],[7.50877341,48.10729777,187.76],[7.50871408,48.10729644,187.76],[7.50844611,48.10735241,187.69],[7.50839511,48.10735441,187.69],[7.50811015,48.10727777,187.81],[7.50805749,48.10727311,187.84],[7.50155206,48.10704435,188.23],[7.50149673,48.10704269,188.23],[7.50103777,48.10693541,187.55],[7.50096844,48.10693108,187.38],[7.4971691,48.10678638,186.98],[7.49711244,48.10678405,186.98],[7.49525859,48.10672822,186.86],[7.49520193,48.10672622,186.86],[7.49450099,48.1068708,187.77],[7.49445066,48.10687546,187.88],[7.49404469,48.10679216,188.08],[7.49398936,48.10678817,188.08],[7.49182156,48.10668871,188.09],[7.4917669,48.10668605,188.11],[7.48296097,48.10637804,188.37],[7.48289564,48.10637538,188.38],[7.48253301,48.10643037,188.35],[7.48248068,48.1064387,188.28],[7.48191907,48.10635276,188.16],[7.48185708,48.1063481,188.1],[7.48024287,48.10627292,187.99],[7.48018521,48.10626992,187.95],[7.47072907,48.10593068,187.63],[7.47067041,48.10592802,187.64],[7.47038043,48.10600198,187.68],[7.47033577,48.10600597,187.7],[7.47008381,48.10594068,187.9],[7.47003915,48.10593469,187.97],[7.46900127,48.10587779,187.82],[7.46894294,48.10587513,187.84],[7.46076182,48.10557241,190.17],[7.46071249,48.10556875,190.09],[7.46051884,48.10548777,189.78],[7.46049251,48.10545411,189.6],[7.46031122,48.10503449,188.54],[7.46030323,48.10502449,188.32],[7.46009093,48.1049332,188.2],[7.4600426,48.10492921,188.22],[7.45809343,48.10525933,187.94],[7.45803744,48.10526699,187.87],[7.45694455,48.10527967,187.46],[7.45688989,48.105283,187.6],[7.45654827,48.10541762,188.98],[7.45652027,48.10541862,189.16],[7.45427825,48.10537175,190.01],[7.45423592,48.10537441,190],[7.45347666,48.10525048,189.23],[7.453408,48.10524415,188.91],[7.45033427,48.10510113,187.7],[7.45027827,48.1050988,187.85],[7.44986566,48.10518408,189.7],[7.44982233,48.10518841,189.84],[7.44909941,48.10516115,190.37],[7.44904942,48.10516148,190.38],[7.44862913,48.10521311,190.3],[7.44858114,48.10521112,190.26],[7.44759395,48.1051099,190.1],[7.44758329,48.10510824,190.09],[7.44819187,48.10511122,189.4],[7.4482292,48.10511288,189.44],[7.44843249,48.10516617,189.64],[7.44843449,48.10516716,189.68],[7.44480426,48.10500157,189.43],[7.44476027,48.10499991,189.42],[7.44209415,48.10480915,187.81],[7.44203515,48.10480649,187.82],[7.44143987,48.10479716,187.5],[7.44137921,48.10479982,187.37],[7.44095825,48.10487111,188.54],[7.44090226,48.10487244,188.76],[7.43899243,48.10475197,190.85],[7.43895477,48.10475164,190.98],[7.43833918,48.10485091,190.95],[7.43830152,48.10485624,190.95],[7.43800456,48.10477695,190.79],[7.43795423,48.10477262,190.93],[7.43430019,48.10451466,190.06],[7.43425053,48.104508,190.04],[7.42880876,48.10336951,189.62],[7.42876176,48.10335985,189.65],[7.42828947,48.10334152,189.3],[7.42825281,48.10333819,189.28],[7.42753256,48.10309528,189.08],[7.4274859,48.10308462,189.07],[7.41827026,48.10110295,188.44],[7.41822127,48.10109162,188.34],[7.41600714,48.10061747,189.13],[7.41595215,48.10060647,189.1],[7.41558186,48.10062015,189.17],[7.41553653,48.10061016,189.15],[7.41536356,48.10048685,189.04],[7.4153209,48.10046619,189],[7.41484064,48.10030289,188.28],[7.41479231,48.10028889,188.08],[7.41279792,48.09984924,187.52],[7.41275859,48.09983824,187.49],[7.41204133,48.09980963,187.63],[7.412004,48.0998033,187.68],[7.41181669,48.09971099,187.96],[7.4117727,48.09969733,187.89],[7.41004753,48.09928282,187.61],[7.41000654,48.09927316,187.73],[7.40695283,48.09862745,189.01],[7.40693117,48.09862279,189.07],[7.40628792,48.09861546,188.79],[7.40623692,48.09860813,188.54],[7.4060786,48.09851648,188.01],[7.40603327,48.09849815,187.99],[7.40496204,48.09823361,188.42],[7.40492138,48.09822195,188.46],[7.40440411,48.09801835,188.52],[7.40435478,48.09800769,188.36],[7.40141808,48.09739264,187.53],[7.40135842,48.09738131,187.58],[7.39943592,48.09708277,188.37],[7.39938259,48.09707744,188.34],[7.39880299,48.09683782,188.6],[7.39874633,48.09682649,188.61],[7.39831305,48.09689848,188.36],[7.39826805,48.09690048,188.32],[7.39804208,48.09676384,188.45],[7.39799575,48.09674984,188.42],[7.39609326,48.09633002,187.92],[7.39604327,48.09631736,187.89],[7.39567831,48.09616207,186.87],[7.39562432,48.09614941,186.82],[7.38806679,48.09451057,187.85],[7.38802446,48.09450124,187.85],[7.38638068,48.09427614,191.17],[7.38633602,48.09426748,190.96],[7.38476885,48.09380267,190.22],[7.38472952,48.09378101,190.14],[7.38441224,48.09352104,190.29],[7.38438925,48.09349271,190.3],[7.38429863,48.09324409,190.52],[7.38429697,48.0932231,190.54],[7.38433822,48.09222461,190.68],[7.38434088,48.09219128,190.68],[7.38453466,48.09096781,190.61],[7.38453965,48.09093615,190.62],[7.3848925,48.09009398,190.17],[7.38489849,48.09006498,190.16],[7.38560701,48.08535604,191.11],[7.38561467,48.08531338,191.29],[7.38601052,48.08400484,189.84],[7.38602085,48.08396318,189.89],[7.3863376,48.08207543,190.58],[7.38634426,48.08204577,190.5],[7.3865362,48.0816505,190.77],[7.38655753,48.08161951,190.77],[7.38689813,48.08125889,191.33],[7.38690746,48.08123989,191.33],[7.38649489,48.08116362,192.11],[7.38648723,48.08115429,192.08],[7.38655985,48.08103202,191.97],[7.38656118,48.08101936,191.97],[7.38646331,48.08058947,190.75],[7.38646364,48.08055314,190.75],[7.38662149,48.07934305,190.32],[7.3866155,48.07930205,190.34],[7.3867975,48.07881139,191.7],[7.3870523,48.07730859,192.25],[7.38704564,48.07727726,192.24],[7.38690799,48.07709627,191.7],[7.386871,48.07706928,191.47],[7.38670969,48.07712359,190.06],[7.38669403,48.07715825,189.84],[7.38631321,48.0790586,188.25]]}}]}