{"type":"FeatureCollection","features":[{"type":"Feature","properties":{"name":"20260513 Cicloturismo","time":"2026-05-13T08:52:03Z"},"geometry":{"type":"LineString","coordinates":[[7.38686433,48.077899,190.31],[7.38672578,48.07896107,190.35],[7.38672078,48.0789844,190.37],[7.38657684,48.07914632,190.44],[7.38341985,48.08083165,190.6],[7.38058245,48.0801152,189.02],[7.38052845,48.08010821,189.03],[7.37382472,48.07977586,190.8],[7.37377306,48.07977553,190.86],[7.36886955,48.08007537,192.27],[7.36882156,48.0800817,192.34],[7.3686789,48.08010702,192.53],[7.36864057,48.08012002,192.51],[7.36865823,48.08024798,193.08],[7.36864957,48.08026998,193.06],[7.36843827,48.08035662,193.08],[7.36839428,48.08036728,193.11],[7.36432174,48.08115073,196.66],[7.36429241,48.08115939,196.71],[7.36421343,48.08124503,197.27],[7.36422209,48.08126469,197.36],[7.36584205,48.08342196,196.36],[7.36585204,48.08343462,196.19],[7.36613998,48.08343196,196.25],[7.36613865,48.08344596,196.17],[7.36471348,48.08388215,197.28],[7.36467082,48.08390281,197.35],[7.36488343,48.08451007,198.5],[7.3648481,48.0845374,198.46],[7.36397753,48.08467534,199.57],[7.3639392,48.084688,199.64],[7.36380891,48.08486063,199.92],[7.36379458,48.08487163,199.95],[7.36314335,48.08513088,200.77],[7.36310036,48.08515921,200.77],[7.36307703,48.08526851,201.04],[7.3630477,48.08528251,201.09],[7.3623898,48.08542743,201.61],[7.36235114,48.08542776,201.6],[7.36178792,48.08476989,202.24],[7.36176359,48.08473056,202.35],[7.36170263,48.08432627,202.61],[7.36168597,48.08428427,202.56],[7.360533,48.08206497,202.83],[7.36052234,48.08204464,202.82],[7.35987988,48.08047689,203.4],[7.35986755,48.08045123,203.43],[7.3593583,48.079813,204.28],[7.35933664,48.07978234,204.33],[7.3589704,48.07906778,204.82],[7.35895607,48.07904312,204.85],[7.35881211,48.07895015,205.27],[7.35878045,48.07894782,205.33],[7.35770228,48.07911972,206.12],[7.35768262,48.07911172,206.12],[7.35719678,48.07832056,208.42],[7.35719179,48.07830623,208.43],[7.35713421,48.07801267,208.28],[7.35714387,48.07800601,208.28],[7.35764143,48.07803961,208.32],[7.35767609,48.07802728,208.33],[7.3583073,48.07774872,208.78],[7.35831229,48.07775105,208.82],[7.3580273,48.0777254,209.15],[7.35801164,48.07772241,209.19],[7.35831297,48.0777394,210.35],[7.35878587,48.07736017,209.37],[7.3588032,48.07734051,209.34],[7.35884618,48.07707591,209.09],[7.35886018,48.07705358,209.03],[7.3595164,48.07650369,205.61],[7.35952773,48.07648269,205.52],[7.35938316,48.07578122,202.51],[7.35937083,48.07575756,202.42],[7.35883958,48.07597813,202.01],[7.35881358,48.0759648,201.98],[7.35752551,48.07503003,199.68],[7.35750052,48.0750087,199.65],[7.35688999,48.07426751,197.87],[7.35686733,48.07424385,197.82],[7.35648708,48.07405025,197.29],[7.35645809,48.07403959,197.26],[7.35600151,48.07398365,197.58],[7.35597685,48.07397366,197.62],[7.35555231,48.07354142,198.41],[7.35554165,48.07352176,198.43],[7.35575728,48.07347444,198.56],[7.35579394,48.07349244,198.53],[7.35629284,48.07394902,196.23],[7.3563145,48.07396635,196.08],[7.35673043,48.07414731,194.16],[7.35676309,48.07415331,194.08],[7.35757959,48.07384612,192.11],[7.35760825,48.07383646,192.02],[7.3579062,48.07384078,190.91],[7.35964619,48.07434344,190.91],[7.36031935,48.07398229,191.78],[7.36030836,48.07395429,191.84],[7.35958616,48.07324641,192.45],[7.35955983,48.07323041,192.45],[7.35912755,48.07330106,192.44],[7.35912389,48.0732844,192.41],[7.36009405,48.07280755,193.49],[7.36012905,48.07278956,193.48],[7.36043235,48.07249494,193.63],[7.36046001,48.07246661,193.7],[7.36082189,48.07142045,193.36],[7.36084688,48.07139146,193.38],[7.36339395,48.07049371,191.51],[7.36344228,48.07047405,191.48],[7.36484779,48.06973788,191.89],[7.36487045,48.06971055,191.97],[7.36500539,48.06923664,191.9],[7.36499839,48.06920064,191.81],[7.36433606,48.06700027,191.8],[7.36432673,48.06696761,191.78],[7.36256768,48.06230731,193.03],[7.36257134,48.06226665,193.01],[7.36283514,48.06094185,192.74],[7.36284647,48.06091352,192.76],[7.36738864,48.0507251,194.98],[7.36740663,48.05068344,195.15],[7.36785416,48.04959825,194.67],[7.36786716,48.04956559,194.6],[7.36768218,48.04940262,193.84],[7.36765385,48.04936829,193.72],[7.36767018,48.04918498,193.32],[7.36768651,48.04914098,193.3],[7.36887781,48.04677866,193.18],[7.36889181,48.04674866,193.2],[7.36961121,48.04484797,193.47],[7.36962387,48.04481464,193.46],[7.36983673,48.04375916,193.23],[7.36983906,48.04372916,193.3],[7.36963383,48.04330027,193.68],[7.36962983,48.0433116,193.75],[7.36972447,48.04332256,194.32],[7.36973513,48.04332455,194.36],[7.36975346,48.04322489,194.4],[7.3697498,48.04319323,194.57],[7.36952856,48.04261333,193.98],[7.3695259,48.042609,193.97],[7.36984576,48.04362554,194.32],[7.36985376,48.04367154,194.29],[7.36971949,48.04453611,194.17],[7.36970883,48.04457844,194.22],[7.36895941,48.0465725,193.54],[7.36894341,48.04661016,193.51],[7.36764486,48.04931705,192.59],[7.36764952,48.04935704,192.56],[7.36787581,48.04946735,193.58],[7.36790881,48.04945302,193.74],[7.36811275,48.04907307,193.95],[7.36813275,48.04903041,193.78],[7.36913043,48.04671835,194.6],[7.36914742,48.04667769,194.56],[7.36997051,48.04440331,193.5],[7.36998184,48.04436298,193.54],[7.37002448,48.04342208,194.36],[7.37001715,48.04338409,194.27],[7.36888551,48.04036387,194.15],[7.36887318,48.04032421,194.03],[7.36884388,48.03931601,193.23],[7.36885221,48.03928268,193.2],[7.36912211,48.03868578,192.62],[7.36914311,48.03865312,192.56],[7.36961636,48.03811056,191.83],[7.36965102,48.03808123,191.82],[7.37344385,48.0359237,192.68],[7.37347851,48.03589904,192.67],[7.37393511,48.03546678,191.64],[7.37395877,48.03543745,191.61],[7.3744,48.03468159,192.95],[7.37441466,48.03464926,192.93],[7.38186961,48.01750237,197.13],[7.38188494,48.01746737,197.09],[7.3818906,48.01710741,196.57],[7.38189893,48.01707108,196.45],[7.3821149,48.01686312,196.48],[7.3821369,48.01683179,196.5],[7.38438877,48.01156027,195.16],[7.3844311,48.01149461,195.16],[7.38452004,48.01119404,195.7],[7.38452837,48.01118404,195.85],[7.38424741,48.00903342,197.05],[7.38424342,48.00900976,197.06],[7.38438302,48.00895741,197.17],[7.38438568,48.00895874,197.17],[7.38419068,48.00893475,197.17],[7.38416035,48.00891642,199.83],[7.38395774,48.00864684,198.93],[7.38395741,48.00864651,198.82],[7.38461126,48.00832629,198.95],[7.38463292,48.00830163,198.9],[7.38450904,48.0069425,198.16],[7.38450771,48.00691117,198.25],[7.38420476,48.00676087,198.02],[7.38416976,48.00673421,198.05],[7.38400382,48.0064166,198.48],[7.38397649,48.00639727,198.48],[7.38358425,48.00662689,198.88],[7.38357859,48.00659523,198.83],[7.3841525,48.00628365,198.92],[7.3842045,48.00627399,198.91],[7.38730559,48.00596324,199.76],[7.38737059,48.00595524,199.76],[7.39108224,48.00531352,199.19],[7.39113823,48.00530619,199.2],[7.39654444,48.00482131,199.69],[7.39660244,48.00481565,199.71],[7.40339382,48.00386629,203.04],[7.40344048,48.00386096,202.91],[7.40387277,48.00382568,201.85],[7.4039241,48.00382734,201.89],[7.40491332,48.00401092,202.09],[7.40495531,48.00399659,202.07],[7.40575972,48.00255915,200.79],[7.40577138,48.00253349,200.74],[7.40667805,48.00007253,200.55],[7.40669004,48.0000402,200.59],[7.4070607,47.99770489,198.99],[7.40706303,47.99766923,198.99],[7.40705439,47.99668942,201.24],[7.40705373,47.99666142,201.3],[7.40682938,47.99488706,200.96],[7.40682838,47.9948654,201.35],[7.40527782,47.98417708,201.61],[7.40527049,47.98414075,201.58],[7.40513484,47.98404943,201.48],[7.40508551,47.9840441,201.52],[7.40405359,47.98408836,202.48],[7.40399093,47.98408203,202.59],[7.40374028,47.98397538,202.06],[7.40371295,47.98394572,201.92],[7.40323662,47.98129341,201.72],[7.40322962,47.98125441,201.73],[7.40285479,47.98014356,202.81],[7.4028378,47.98011357,202.9],[7.40191435,47.97886945,202.25],[7.40189169,47.97884379,202.21],[7.39840271,47.97544758,202.11],[7.39836938,47.97541359,202.22],[7.39782714,47.97465004,203.08],[7.39780881,47.97461104,203.06],[7.39762556,47.97355685,203.67],[7.39762856,47.97351785,203.68],[7.39843777,47.969943,203.77],[7.39844443,47.96990501,203.82],[7.39843708,47.96885813,204.17],[7.39843008,47.96881447,204.19],[7.39798852,47.96789389,203.84],[7.39796286,47.96785656,203.91],[7.39777988,47.96763292,203.18],[7.39775655,47.96762759,203.16],[7.39770557,47.96781553,203.32],[7.39770458,47.96782086,203.29],[7.3977699,47.96765723,202.91],[7.39775791,47.96762257,202.91],[7.39742999,47.96707099,203.19],[7.39740866,47.96703899,203.19],[7.39524188,47.96417587,204.13],[7.39523455,47.96416721,204.25],[7.39505798,47.96343031,206.06],[7.39505098,47.96339465,206.07],[7.3946305,47.96004048,205.55],[7.3946275,47.96000715,205.55],[7.39438395,47.95926459,205.31],[7.39436562,47.95922993,205.42],[7.3935741,47.95822374,206.11],[7.39354277,47.95819375,206.11],[7.39087615,47.95616383,206.97],[7.39084349,47.9561385,207],[7.38965964,47.95509903,206.27],[7.38963098,47.9550697,206.27],[7.38868984,47.95382124,206.78],[7.38866884,47.95378958,206.79],[7.38711424,47.95119335,206.28],[7.38708358,47.95115735,206.18],[7.38480632,47.94935707,207.2],[7.38478899,47.94934174,207.26],[7.38392322,47.94827929,205.36],[7.38389722,47.9482503,205.26],[7.38258247,47.94697554,207.33],[7.38256014,47.94694754,207.45],[7.38227723,47.94640464,208],[7.38226757,47.94637298,208],[7.38118311,47.94200923,208.76],[7.38116812,47.9419729,208.76],[7.38052663,47.94081103,208.57],[7.38050363,47.94077637,208.57],[7.37919755,47.93917565,208.44],[7.37917155,47.93914166,208.45],[7.378545,47.93817017,208.5],[7.378525,47.93813417,208.56],[7.37731914,47.93465062,208.97],[7.37730681,47.93461529,209.04],[7.37684228,47.93364043,209.19],[7.37682062,47.9336051,209.23],[7.37605576,47.93284423,208.62],[7.37601477,47.93281557,208.56],[7.3735087,47.93155085,208.18],[7.37347471,47.93152986,208.09],[7.37294312,47.93115995,208.73],[7.37290546,47.93112929,208.92],[7.37236656,47.93056107,208.88],[7.3723429,47.93053008,208.92],[7.37189706,47.9296792,210.03],[7.37188673,47.92964354,210.04],[7.37145484,47.92685995,209.5],[7.37144751,47.92682829,209.45],[7.37120365,47.92602113,209.53],[7.37119132,47.92598947,209.46],[7.37082845,47.92528092,209.6],[7.37080979,47.92524893,209.63],[7.36358479,47.91609442,211.63],[7.36354946,47.91605476,211.64],[7.36312057,47.91533885,210.78],[7.36309224,47.91530019,210.49],[7.36206568,47.91465729,209.27],[7.36201402,47.91463196,209.35],[7.35898133,47.91330263,211.03],[7.358955,47.9132913,211.33],[7.3577679,47.91228787,212.5],[7.35773424,47.91226254,212.54],[7.35735496,47.91211594,211.8],[7.35734196,47.91210061,211.86],[7.35825883,47.9115771,215.3],[7.35830216,47.91155044,215.13],[7.35850711,47.9112728,214.23],[7.3585111,47.91122314,214.14],[7.35762962,47.90791292,212.54],[7.35762029,47.90787726,212.54],[7.35748571,47.90701405,212.86],[7.35747971,47.90697872,212.88],[7.35600609,47.90190877,215],[7.35599176,47.90187444,214.91],[7.35539323,47.90086991,215.21],[7.35536324,47.90083391,215.29],[7.35377352,47.89930619,215.67],[7.35375086,47.8992712,215.73],[7.35371788,47.89908421,215.58],[7.35373154,47.89904855,215.56],[7.35399916,47.89884826,215.4],[7.35399817,47.8988116,215.43],[7.35370987,47.8986653,215.42],[7.35367888,47.89863864,215.43],[7.35348826,47.89834868,215.59],[7.35346993,47.89831535,215.64],[7.35329971,47.89743783,216.25],[7.35329405,47.89740017,216.18],[7.35299812,47.89388799,214.94],[7.35299446,47.893854,214.91],[7.35285618,47.89348238,215.49],[7.35285552,47.89344038,215.55],[7.35292305,47.89225422,215.33],[7.35292938,47.89221622,215.32],[7.35344379,47.89039015,215.45],[7.35345179,47.89035582,215.5],[7.35337215,47.89018719,215.75],[7.35337281,47.89017753,215.78],[7.35352178,47.89023018,215.76],[7.35353444,47.89020952,215.77],[7.35356074,47.88984423,216.19],[7.35356207,47.88980424,216.16],[7.35321736,47.8782054,218.13],[7.35321703,47.8781604,218.05],[7.35314551,47.87683319,218.22],[7.35313418,47.87679186,218.21],[7.35273358,47.87652824,217.32],[7.35270359,47.87650358,217.46],[7.35256662,47.87628196,218.07],[7.35256263,47.8762473,218.17],[7.35298521,47.87559606,217.73],[7.35299321,47.8755534,217.63],[7.3529943,47.87328501,218.33],[7.35299596,47.87324768,218.43],[7.35312959,47.87294174,218.29],[7.35313192,47.87290374,218.27],[7.35304164,47.87249814,217.35],[7.35304297,47.87247515,217.5],[7.35318461,47.87237651,218.1],[7.35322461,47.87236951,218.18],[7.35358457,47.8725748,218.13],[7.35364423,47.87258813,218.12],[7.35399819,47.87252015,218.6],[7.35404618,47.87249149,218.68],[7.35527937,47.87145397,217.44],[7.35533137,47.87141597,217.44],[7.36026885,47.86808591,218.41],[7.36029418,47.86804125,218.28],[7.36022653,47.86760931,216.92],[7.36019754,47.86757331,216.9],[7.35884347,47.86611822,218.9],[7.35881414,47.86608922,218.95],[7.35829955,47.86573295,218.92],[7.35829955,47.86570362,219.04],[7.3589677,47.86456812,219.86],[7.35898169,47.86454679,220.03],[7.35911488,47.86361996,218.66],[7.35912854,47.86358663,218.65],[7.35996437,47.86241879,218.55],[7.35998303,47.86237479,218.53],[7.36012994,47.86094466,219.35],[7.3601356,47.86090566,219.28],[7.36029788,47.86045139,219.69],[7.36031354,47.8604144,219.75],[7.36127366,47.85881432,220.63],[7.36129299,47.85877699,220.95],[7.36213,47.85652794,219.42],[7.36214533,47.85649395,219.35],[7.3643969,47.85196973,218.16],[7.36440623,47.85194407,218.18],[7.36433708,47.84993272,217.81],[7.36433275,47.84989672,217.82],[7.3640109,47.84887223,220.07],[7.36402856,47.84884423,220.03],[7.36576025,47.84749312,223.35],[7.36580591,47.84748712,223.45],[7.37182914,47.84804012,223.33],[7.3718578,47.84800813,223.37],[7.37197721,47.84381872,224.56],[7.37198654,47.84378773,224.59],[7.37760259,47.83435163,225.1],[7.37762392,47.83430863,225.11],[7.37783913,47.83334408,225.14],[7.37783547,47.83329809,225.19],[7.37739632,47.83153731,223.63],[7.37740065,47.83150232,223.68],[7.37795954,47.83092505,225.35],[7.37797653,47.83088405,225.38],[7.38038771,47.82381298,224.94],[7.3803997,47.82377332,224.96],[7.38088187,47.82271013,224.83],[7.38088953,47.82268047,224.85],[7.38021562,47.82260215,224.26],[7.38018396,47.82257682,224.19],[7.38000075,47.82176626,225.04],[7.37996242,47.82174393,225.05],[7.37817827,47.82169032,224.4],[7.37814627,47.82166933,224.39],[7.37815857,47.82135438,225.23],[7.37817123,47.82132238,225.26],[7.37849382,47.82089711,225.07],[7.37851815,47.82086612,225.12],[7.37911672,47.82045488,225.3],[7.37911106,47.82042255,225.26],[7.37774485,47.82003402,225.18],[7.37769619,47.82001936,225.16],[7.37739691,47.81969476,225.42],[7.37738958,47.8196581,225.47],[7.37773607,47.81824363,224.18],[7.37775907,47.81821063,224.25],[7.37818335,47.81771507,225.39],[7.37821268,47.81768774,225.41],[7.37941182,47.81674989,225.04],[7.37944548,47.81671656,225.02],[7.37991267,47.81571002,224.57],[7.37993,47.81567869,224.5],[7.38044159,47.81547509,224.68],[7.38048459,47.8154511,224.68],[7.3807002,47.81506784,224.46],[7.38071053,47.81503818,224.25],[7.38055127,47.81434598,222.13],[7.38055526,47.81432365,222.2],[7.38096184,47.81377441,223.55],[7.38095151,47.81373941,223.41],[7.3803823,47.81318586,222.16],[7.3803663,47.81316586,222.2],[7.37981385,47.81228605,223.4],[7.37981086,47.81225872,223.19],[7.37988949,47.81203676,223.08],[7.37990882,47.81200977,223.07],[7.38027609,47.8116685,226.37],[7.38028409,47.81163284,226.5],[7.37988054,47.81096262,225.68],[7.37987554,47.81093129,225.79],[7.37998435,47.80934057,225.44],[7.37999034,47.80930991,225.37],[7.38010597,47.80907197,225.04],[7.3801313,47.80904297,225.03],[7.38051257,47.80872502,224.97],[7.38053457,47.80869836,225.03],[7.38057589,47.80850639,225.69],[7.38056456,47.80847106,225.73],[7.37993565,47.80791647,225.83],[7.37990232,47.80788981,225.82],[7.37946972,47.80767186,225.97],[7.37941706,47.8076572,225.95],[7.37813987,47.80784514,224.9],[7.37810454,47.80782448,224.85],[7.37586134,47.80539827,225.09],[7.37584635,47.80537394,225.16],[7.37583931,47.80447844,226.61],[7.37584097,47.80444678,226.63],[7.37606146,47.80328961,226.22],[7.37606679,47.80325061,226.35],[7.37606547,47.80247804,226.65],[7.37606913,47.80244238,226.93],[7.37633271,47.80192913,226.72],[7.37634537,47.80189847,226.89],[7.37642696,47.80137655,227.71],[7.37643162,47.80135055,227.72],[7.37641334,47.80079228,227.14],[7.37640735,47.80075328,227.14],[7.3762694,47.80032631,227.03],[7.37625274,47.80028732,227],[7.37491465,47.79850829,227.87],[7.37488865,47.79847563,227.92],[7.37388685,47.79743984,227.07],[7.37386286,47.79741651,227.14],[7.37290607,47.79653134,227.85],[7.37287841,47.79651334,227.87],[7.37216649,47.79633177,226.35],[7.3721495,47.79631511,226.52],[7.37204452,47.79610948,229.02],[7.37204252,47.79607849,229.11],[7.37215546,47.79569488,229.79],[7.37213613,47.79565855,229.81],[7.3705375,47.79354758,228.4],[7.37052084,47.79351825,228.42],[7.37041987,47.79282338,229.34],[7.3704272,47.79278705,229.31],[7.37099131,47.79131525,228.95],[7.3709963,47.79127559,228.93],[7.3707934,47.79044671,228.47],[7.37078107,47.79041438,228.43],[7.37000758,47.78914693,228.17],[7.36999025,47.78911727,228.18],[7.36975534,47.78852935,228.13],[7.36973435,47.78850036,228.1],[7.36869352,47.78757256,228.61],[7.36866586,47.7875469,228.72],[7.36832127,47.78706397,229],[7.36830461,47.78703764,228.97],[7.36759555,47.78519128,230.17],[7.36759389,47.78516029,230.22],[7.36742159,47.78501833,230.57],[7.36741626,47.78500367,230.52],[7.36748459,47.78459513,232.77],[7.36748026,47.78457147,232.77],[7.36708179,47.78364001,234.34],[7.3670718,47.78361002,234.37],[7.36605236,47.78205555,234.18],[7.36603437,47.78202122,234.31],[7.3655342,47.78061177,235.16],[7.36551354,47.78057711,235.28],[7.365007,47.77989323,234.2],[7.364987,47.77986657,234.26],[7.36476138,47.77972061,234.73],[7.36473772,47.77969162,234.8],[7.36463808,47.77933701,234.76],[7.36461509,47.77928868,234.7],[7.3640822,47.77839477,235.47],[7.36405321,47.77835611,235.42],[7.36311702,47.77738487,233.27],[7.36308936,47.77735488,233.25],[7.36232485,47.77636138,234],[7.36230819,47.77633105,234.17],[7.36149117,47.77420945,235.32],[7.36147651,47.77417779,235.37],[7.36147021,47.77379886,235.16],[7.36146288,47.77376487,235.18],[7.36097814,47.77228647,236.15],[7.36097548,47.77227814,235.92],[7.3611771,47.7721715,236.73],[7.36117843,47.77217483,236.73],[7.36112877,47.77213985,236.73],[7.36112478,47.77211286,236.73],[7.3612191,47.77203787,236.72],[7.36127343,47.77202187,236.71],[7.36337627,47.77160273,235.38],[7.36338693,47.77157407,235.3],[7.36196475,47.76855958,237.01],[7.36199441,47.76852658,237.01],[7.36973887,47.76402307,239],[7.36978186,47.76399674,238.93],[7.37107367,47.76313127,238.34],[7.371114,47.76310061,238.37],[7.37229746,47.76204813,238.59],[7.37229213,47.7620108,238.67],[7.36984279,47.76046912,239.38],[7.3698008,47.76044546,239.5],[7.36659127,47.75886662,239.31],[7.36657994,47.75885862,239.32],[7.36635836,47.75830906,239.5],[7.36634903,47.75826506,239.53],[7.36634241,47.75762947,239.45],[7.36635474,47.75759314,239.5],[7.3664967,47.75735151,239.7],[7.36652669,47.75732118,239.75],[7.36757218,47.75640968,244.5],[7.36759918,47.75638335,244.55],[7.36768415,47.75610307,243.95],[7.36766582,47.75606308,243.84],[7.36471927,47.75451153,247.12],[7.36469294,47.75449753,247.04],[7.36450201,47.7541796,247.59],[7.36447268,47.75415694,247.56],[7.36346416,47.7535674,245.23],[7.36342883,47.75354574,245.39],[7.36307188,47.75344776,245.91],[7.36304322,47.75344976,245.82],[7.36263597,47.75355669,245.18],[7.36261364,47.75357269,245.04],[7.36311159,47.75352106,243.74],[7.36313325,47.75353805,243.59],[7.36278363,47.75376434,241.75],[7.3627393,47.75378233,241.62],[7.36241066,47.75369836,240.91],[7.36236533,47.75367636,240.82],[7.36173642,47.75331078,241.18],[7.36170409,47.75328645,241.25],[7.36107289,47.75259394,242.68],[7.36104089,47.75256828,242.47],[7.35993274,47.75189411,241.81],[7.35989141,47.75187112,241.68],[7.35731776,47.75086613,241.25],[7.3572901,47.7508518,241.22],[7.34754602,47.74557705,242.68],[7.34751336,47.74555905,242.58],[7.34549869,47.74457237,243.16],[7.34546336,47.74455371,243.17],[7.34208722,47.74264353,243.01],[7.34205522,47.7426232,243.06],[7.33870063,47.74090763,242.8],[7.33865064,47.74088563,242.76],[7.33531569,47.73900666,244.15],[7.33527736,47.738986,244.06],[7.33136248,47.73702312,242.88],[7.33130382,47.73699879,242.76],[7.33032695,47.7362659,243.95],[7.33030162,47.73624591,243.97],[7.33065888,47.73633688,246.11],[7.33070287,47.73635854,246.2],[7.33104116,47.73656217,246.47],[7.33107016,47.73659383,246.49],[7.33095184,47.73683111,247.14],[7.33091984,47.73685344,247.22],[7.33002959,47.73667682,245.45],[7.32996793,47.73665983,245.29],[7.32766282,47.73546404,244.49],[7.32760849,47.73543571,244.49],[7.32712224,47.73502478,244.9],[7.32709691,47.73499612,244.89],[7.32678466,47.73446688,245.56],[7.32676233,47.73445189,245.63],[7.32644503,47.73450753,245.85],[7.32639003,47.73451019,245.87],[7.32592742,47.73441957,245.86],[7.32587542,47.73442157,245.85],[7.32452684,47.73475013,245.31],[7.32446718,47.73475446,244.9],[7.32424089,47.73467483,244.42],[7.32423156,47.73467417,244.5],[7.32425386,47.73474912,244.85],[7.32425485,47.73475245,244.9],[7.32427087,47.73463514,244.94],[7.32426354,47.73462214,244.9],[7.32412391,47.7345622,245.08]]}}]}