{"type":"FeatureCollection","features":[{"type":"Feature","properties":{"name":"20260416 Cicloturismo","time":"2026-04-16T07:56:28Z"},"geometry":{"type":"LineString","coordinates":[[12.18718533,57.190929,1.56],[12.18858219,57.19065115,2.01],[12.18863185,57.19065181,2.03],[12.1924642,57.19101082,3.91],[12.19252153,57.19102515,3.94],[12.19686883,57.19227975,8.42],[12.19693283,57.19230274,8.5],[12.19837764,57.19353789,10.55],[12.1984313,57.19356355,10.64],[12.20275696,57.19504989,14.96],[12.20281529,57.19507989,15.03],[12.20331483,57.19657536,15.83],[12.20331017,57.19662335,15.82],[12.2031796,57.19752227,15.97],[12.2031666,57.19756693,16],[12.20257799,57.19806753,16.55],[12.20254633,57.19811019,16.54],[12.20239039,57.19863581,16.18],[12.20239438,57.19868481,16.18],[12.20367056,57.19988701,13.3],[12.20372289,57.19990067,13.29],[12.21165637,57.19770752,8.1],[12.21173236,57.19768553,8.11],[12.21744729,57.19582759,11.28],[12.21750462,57.19580026,11.28],[12.21676743,57.19498742,13.51],[12.2167581,57.19495476,13.64],[12.21695639,57.19370327,17.99],[12.21696938,57.19367094,18.01],[12.21756929,57.19319434,19.94],[12.21762062,57.19316568,19.98],[12.21976847,57.19225381,18.84],[12.21981846,57.19221082,18.74],[12.22057327,57.19026634,16.63],[12.22057993,57.19021101,16.62],[12.22050596,57.18990537,16.61],[12.2204703,57.18986371,16.66],[12.21952505,57.18909679,16.14],[12.21949905,57.18904079,16.12],[12.21922048,57.18793456,16.06],[12.21921182,57.18787757,15.89],[12.21947878,57.18736728,13.99],[12.21949344,57.18729462,13.73],[12.21939182,57.18651635,11.35],[12.21937116,57.18644802,11.16],[12.21834561,57.18529978,8.12],[12.21832628,57.18521979,7.86],[12.21853521,57.18370924,4.42],[12.21853754,57.18364324,4.29],[12.21836196,57.18244568,3.14],[12.21836562,57.18239169,3.15],[12.21865554,57.18164044,3.49],[12.2186882,57.18159511,3.54],[12.21981073,57.18041458,5.05],[12.21985406,57.18038825,5.1],[12.22240081,57.17947479,9.15],[12.22243447,57.17945013,9.2],[12.22186596,57.17840131,10.04],[12.22185963,57.17836398,10.07],[12.2221552,57.17711544,9.85],[12.22217653,57.17707111,9.85],[12.22255946,57.17659551,9.11],[12.22261379,57.17655451,9.02],[12.22384234,57.17584162,7.68],[12.22388367,57.17580029,7.65],[12.22582565,57.17299923,6.14],[12.22586598,57.17295557,6.16],[12.22789483,57.17188607,6.62],[12.22794216,57.17184707,6.63],[12.22806981,57.17110815,5.85],[12.22809647,57.17106115,5.78],[12.22990065,57.16913467,3],[12.22994964,57.16908901,2.96],[12.23771173,57.16274396,5.32],[12.23775239,57.1627103,5.4],[12.23856621,57.16166482,7.49],[12.23860287,57.16163016,7.48],[12.24027304,57.16057101,8.46],[12.24031837,57.16053735,8.44],[12.24243681,57.15876591,8.25],[12.24247347,57.15872558,8.22],[12.24243982,57.15834028,8.1],[12.24239582,57.15830362,8.09],[12.24102394,57.15757709,7.95],[12.24097695,57.1575371,7.96],[12.24099126,57.1569545,7.74],[12.24096193,57.15691117,7.74],[12.23978537,57.15587332,6.46],[12.23982303,57.15582366,6.41],[12.24667295,57.14945344,5.05],[12.24671528,57.14941345,5],[12.24808511,57.14776201,4.99],[12.24813777,57.14771635,4.88],[12.25175043,57.14566466,2.12],[12.25181242,57.14563367,2.08],[12.25497517,57.14456852,1.3],[12.25502116,57.14453286,1.3],[12.25844864,57.14031401,2.02],[12.25847364,57.14027435,2.04],[12.25925741,57.13823787,1.62],[12.25927007,57.13818854,1.6],[12.25990437,57.13445962,1.59],[12.25991037,57.13441196,1.58],[12.25912857,57.12917388,2.93],[12.25912224,57.12914989,2.97],[12.25818342,57.12859039,4.2],[12.25815809,57.1285694,4.23],[12.25783491,57.12792951,-1.52],[12.25781625,57.12790218,-1.5],[12.257363,57.12755891,-1.32],[12.25731834,57.12754192,-1.3],[12.25454782,57.12761148,-4.04],[12.25445883,57.12760648,-4.11],[12.25340325,57.1272379,-4.71],[12.25335059,57.12720257,-4.77],[12.25300532,57.12664365,-5.14],[12.25302398,57.12661332,-5.17],[12.25429582,57.12589416,-2.93],[12.25431215,57.12585883,-2.86],[12.25402221,57.12508358,-5.15],[12.25401388,57.12502325,-5.34],[12.25420847,57.12411336,-7.14],[12.25419714,57.1240747,-7.25],[12.25205196,57.12393731,-8.47],[12.25207329,57.12390098,-8.51],[12.25906901,57.12344199,-1.02],[12.25917134,57.12343733,-1.24],[12.26067592,57.12361927,-5.9],[12.26074325,57.12361628,-6.15],[12.2609342,57.12337834,-7.32],[12.26092754,57.12334501,-7.34],[12.26035,57.12265812,-7.95],[12.26028767,57.12265878,-7.98],[12.25967774,57.12276701,-7.97],[12.2596784,57.12276834,-7.99],[12.26471563,57.12333856,-7.32],[12.26479396,57.12334255,-7.31],[12.26665148,57.12317355,-5.44],[12.26671048,57.12316855,-5.36],[12.26783871,57.12341709,-4.36],[12.26789437,57.12341543,-4.15],[12.26915126,57.1230865,-1.74],[12.26917259,57.1230845,-1.7],[12.26637226,57.1226515,4.94],[12.26447761,57.12315816,4.72],[12.26419828,57.12320882,4.67],[12.26245501,57.12319419,4.44],[12.26240868,57.12316053,4.41],[12.26121108,57.11695558,10.27],[12.26120308,57.11691092,10.27],[12.26129774,57.11650865,10.64],[12.26130674,57.11647032,10.73],[12.26100147,57.11602204,10.8],[12.26099014,57.11597471,10.8],[12.26045014,57.1128524,12.99],[12.26043281,57.11282074,12.98],[12.25971986,57.11257277,12.76],[12.25967253,57.11253544,12.66],[12.25838805,57.11096364,11.37],[12.25834639,57.11091898,11.33],[12.25744848,57.11018806,9.64],[12.25739015,57.11014407,9.47],[12.25607492,57.10968648,6.67],[12.25602859,57.10967182,6.54],[12.25532565,57.10907424,5.23],[12.25528032,57.10903791,5.15],[12.25501208,57.10818166,4.75],[12.25496642,57.108159,4.77],[12.25071503,57.10837183,2.6],[12.25066037,57.10834783,2.66],[12.25022658,57.10630108,3.59],[12.25019858,57.10626675,3.58],[12.24865337,57.1061521,2.08],[12.24862204,57.1061361,2.01],[12.24830017,57.10507524,1.67],[12.24826284,57.10506124,1.62],[12.24712125,57.10515518,0.53],[12.24710592,57.10514919,0.41],[12.24821013,57.10504396,1.06],[12.24823279,57.10502063,1.18],[12.24778537,57.10315955,7.09],[12.24776304,57.10313322,7.2],[12.2454822,57.10324142,8.28],[12.24543154,57.10325708,8.32],[12.24509329,57.10388833,9.96],[12.24505163,57.10392199,10.04],[12.24298015,57.1051878,7.51],[12.24290315,57.10523613,6.84],[12.24253618,57.10539276,2.76],[12.24245585,57.10539575,2.03],[12.24214421,57.10522445,-0.05],[12.24210688,57.10518612,-0.19],[12.24120177,57.10406565,-2.02],[12.24120144,57.10406565,-2.35],[12.24095324,57.10308377,-2.97],[12.24094725,57.10305577,-3.03],[12.24117648,57.10207866,-2.3],[12.24119181,57.102038,-2.41],[12.24184271,57.1012761,-3.46],[12.24185537,57.10124077,-3.5],[12.24127241,57.10108014,-5.07],[12.24126641,57.1010918,-5.07],[12.24207733,57.10077687,-4.09],[12.24209999,57.10075254,-3.85],[12.24261253,57.09902276,-0.4],[12.24262853,57.0989781,-0.46],[12.24336446,57.09827918,-1.36],[12.24339812,57.09823052,-1.5],[12.24360038,57.09751993,-2.14],[12.24359505,57.09748094,-2.13],[12.24268425,57.09580015,-2.96],[12.24265526,57.09575882,-3],[12.24093348,57.09450935,2.07],[12.24090715,57.09448302,2.31],[12.24014328,57.09315418,2.94],[12.24015028,57.09310185,2.76],[12.24059219,57.09209192,-1.02],[12.24062585,57.09203993,-1.13],[12.2414118,57.09122237,-1.36],[12.2414728,57.09117671,-1.37],[12.24402988,57.08949359,-0.72],[12.24408488,57.08946093,-0.65],[12.24659035,57.08838713,4.04],[12.24661768,57.08835014,4.09],[12.24661035,57.0878472,5.61],[12.24659169,57.08781154,5.79],[12.2456305,57.08672268,7.13],[12.24562051,57.08668068,7.19],[12.24572209,57.0850565,2.03],[12.24573609,57.08499984,1.91],[12.24623437,57.08437522,0.82],[12.24631603,57.08433356,0.64],[12.25023085,57.08436093,-3.52],[12.25032885,57.08436692,-3.55],[12.25140211,57.08508482,-4.45],[12.25147877,57.08511215,-4.43],[12.25288104,57.08525613,-3.92],[12.25297137,57.08524813,-3.9],[12.25497728,57.08496323,-3.8],[12.25506494,57.0849389,-3.78],[12.25757675,57.08374277,-2.1],[12.25764475,57.08371611,-2.01],[12.2602859,57.08298229,-1.72],[12.26036423,57.08295196,-1.75],[12.26153409,57.0817261,-3.31],[12.26161142,57.08170844,-3.34],[12.26681644,57.08230216,-0.9],[12.26690477,57.08230716,-0.83],[12.27005358,57.08209499,0.93],[12.27014124,57.082083,0.96],[12.27214262,57.07951328,1.57],[12.27218561,57.07947029,1.6],[12.27318618,57.07908571,2.36],[12.27326317,57.07907572,2.37],[12.27424144,57.07920003,2.44],[12.2743111,57.07922269,2.5],[12.27769883,57.08056647,6.49],[12.27778249,57.08054814,6.57],[12.27834945,57.08005354,7.23],[12.27839311,57.08001421,7.29],[12.27849975,57.07952359,8.11],[12.27852841,57.07947626,8.23],[12.27952728,57.0782377,9.73],[12.27956794,57.07819404,9.73],[12.28774919,57.07227006,7.33],[12.28779585,57.07222973,7.31],[12.28630612,57.06951102,3.75],[12.28626146,57.06946136,3.68],[12.28283373,57.0675843,-0.09],[12.28278673,57.06754131,-0.19],[12.27984171,57.06437669,-4.32],[12.27980605,57.06433769,-4.3],[12.27830096,57.06222019,-2.03],[12.2782533,57.06217153,-2.14],[12.27655948,57.06083203,-4.66],[12.27650949,57.0607947,-4.59],[12.27536226,57.0601798,-3.55],[12.2753236,57.06013814,-3.5],[12.27513264,57.05977553,-3.23],[12.27512898,57.0597292,-3.25],[12.27527258,57.05913993,-3.66],[12.27527025,57.05908693,-3.77],[12.27504829,57.05873564,-4.33],[12.27499629,57.05868931,-4.48],[12.27336574,57.05809877,-6.53],[12.27328108,57.05808911,-6.55],[12.27160617,57.05842436,-5.8],[12.27153084,57.0584117,-5.79],[12.27107621,57.05813707,-5.81],[12.27104355,57.05809274,-5.85],[12.2709836,57.05742716,-5.81],[12.27101826,57.0573855,-5.83],[12.27241279,57.05676293,-5.2],[12.27246378,57.0567216,-5.17],[12.27246714,57.05620065,-4.7],[12.2724998,57.05617032,-4.71],[12.27361439,57.05599006,-3.74],[12.27367072,57.0559774,-3.58],[12.27492127,57.05542386,-1.53],[12.27497026,57.05539886,-1.56],[12.27490196,57.05502557,-3.05],[12.27487997,57.05499424,-3.31],[12.27445166,57.05475329,-5.61],[12.27444266,57.05471396,-5.82],[12.27530226,57.05457598,-6.25],[12.27534092,57.05455232,-6.15],[12.27524262,57.05394906,-6.04],[12.27523696,57.05390673,-6.04],[12.2753926,57.05372875,-5.87],[12.27544693,57.05370542,-5.82],[12.27685807,57.05440761,1.25],[12.27690506,57.05441127,1.54],[12.27855457,57.05379976,6.54],[12.27860223,57.0537871,6.67],[12.27987546,57.05367387,6.85],[12.27993579,57.05365721,6.87],[12.2869723,57.05122868,3.54],[12.28702729,57.05120035,3.57],[12.28681634,57.05073442,3.95],[12.28681767,57.05069809,3.89],[12.28717657,57.04990521,5.18],[12.28719623,57.04986888,5.23],[12.2884657,57.04857077,5.53],[12.28851836,57.04854611,5.58],[12.29240372,57.04846915,7.87],[12.29245371,57.04846616,7.97],[12.29443256,57.04798366,10.35],[12.29448122,57.04795667,10.4],[12.29390896,57.04699479,11.29],[12.29391895,57.04694746,11.23],[12.29418423,57.04643783,10.61],[12.29423056,57.0463995,10.59],[12.29496516,57.04624089,9.93],[12.29499449,57.04624722,9.87],[12.29265531,57.04626622,9.85],[12.29259932,57.04624523,9.82],[12.29031758,57.0442825,9.67],[12.29029158,57.0442605,9.7],[12.29002297,57.04426387,7.88],[12.29000964,57.04426987,7.39],[12.29049629,57.04421122,8.38],[12.29053029,57.04419756,8.42],[12.29168985,57.04347669,8.62],[12.29173885,57.04346369,8.62],[12.29417933,57.04372617,9.09],[12.29425499,57.04374316,9.14],[12.29695715,57.04449236,8.96],[12.29703581,57.04451802,8.95],[12.29825139,57.04509859,9.62],[12.29831605,57.04511058,9.69],[12.30244984,57.04512529,10.57],[12.3025565,57.04511863,10.5],[12.30458738,57.04457943,10.4],[12.30467038,57.0445751,10.4],[12.30712991,57.0447953,10.59],[12.30720324,57.04481229,10.59],[12.31034845,57.04824782,14.24],[12.31040611,57.04826048,14.31],[12.3154474,57.04582317,12.13],[12.31550939,57.04578584,12.08],[12.3162135,57.04376111,11.45],[12.31623216,57.04371745,11.38],[12.31673873,57.04294454,10.07],[12.31678872,57.04290288,9.96],[12.32040376,57.0406975,6.56],[12.32046875,57.04066217,6.51],[12.32354486,57.03928406,6.12],[12.32359285,57.03924206,6.13],[12.324829,57.03725127,4.4],[12.324873,57.03720094,4.36],[12.33055097,57.03154719,6.05],[12.33058863,57.03150253,6.08],[12.33341154,57.02744766,1.72],[12.33339888,57.02746199,1.7],[12.33334024,57.02760696,1.87],[12.33336423,57.02762496,1.95],[12.33370887,57.0276203,2.45],[12.33374386,57.02759431,2.55],[12.33432008,57.02618612,2.6],[12.33434741,57.02613879,2.56],[12.33500797,57.02541853,2.83],[12.33505597,57.02537787,2.87],[12.34047009,57.02171114,5.93],[12.34052842,57.02166981,5.89],[12.34724543,57.01626925,3.99],[12.34730276,57.01623392,3.91],[12.35705602,57.01182594,3.72],[12.35711735,57.01179661,3.78],[12.3589132,57.01067646,3.88],[12.35895886,57.01063447,3.89],[12.35963104,57.00926199,3.93],[12.3596377,57.00922599,3.94],[12.35986673,57.00479162,4.11],[12.35987406,57.00475596,4.12],[12.36104587,57.00202181,7.93],[12.36106353,57.00199082,7.94],[12.36903468,56.99411809,7.97],[12.36907834,56.99407876,7.88],[12.38466522,56.98347623,11.09],[12.38471655,56.98343857,11.1],[12.38853852,56.98152723,12.46],[12.38856318,56.98149524,12.51],[12.38872214,56.98119227,12.88],[12.38869915,56.98115761,12.85],[12.38802087,56.98095965,11.58],[12.38793854,56.98095099,11.41],[12.38170262,56.98058511,7.62],[12.38163496,56.98058312,7.64],[12.37878853,56.98070431,6.49],[12.37872853,56.98069565,6.52],[12.37313201,56.97894247,5.45],[12.37307768,56.97891814,5.42],[12.3727477,56.9786525,5.12],[12.37272837,56.97861117,5.09],[12.37252651,56.97745965,3.57],[12.37250818,56.97742932,3.56],[12.37108519,56.97526406,1.22],[12.37108819,56.97526273,1.21],[12.37023104,56.97440958,1.59],[12.37022338,56.97431025,1.86],[12.36860759,56.97339312,2.9],[12.3685586,56.97336113,2.99],[12.36768639,56.97259859,3.17],[12.36763673,56.97256893,3.18],[12.36551389,56.97175773,2.19],[12.36546856,56.9717304,2.26],[12.36274887,56.96972204,3.39],[12.36269321,56.96969004,3.3],[12.35704576,56.96694618,4.17],[12.35703276,56.96690319,4.25],[12.35723873,56.9664809,4.5],[12.35727806,56.96644091,4.51],[12.35942111,56.96458553,4.24],[12.35946177,56.96454587,4.22],[12.36022332,56.96351399,3.8],[12.36025165,56.96346899,3.78],[12.3607961,56.96120755,2.39],[12.36081276,56.96116355,2.39],[12.36217311,56.95842353,2.53],[12.36219077,56.9583762,2.57],[12.36247856,56.9567434,4.55],[12.36247123,56.95670607,4.62],[12.36133481,56.95485463,5.22],[12.36133382,56.95480963,5.18],[12.3621615,56.95213095,7.27],[12.36218583,56.95209162,7.3],[12.36347504,56.95120477,7.81],[12.36351503,56.95117011,7.83],[12.36509643,56.94933301,7.49],[12.36513709,56.94929668,7.51],[12.36709055,56.94801653,7.64],[12.36714688,56.9479732,7.5],[12.37259194,56.94352783,8.54],[12.37261694,56.94348484,8.53],[12.37271326,56.94251396,8.02],[12.3727036,56.94246463,8],[12.3712414,56.93810573,2.74],[12.37124939,56.9380584,2.75],[12.37315716,56.93560166,3.4],[12.37317982,56.93556933,3.4],[12.37458864,56.93438153,3.34],[12.37461997,56.9343492,3.45],[12.37461696,56.93410724,3.67],[12.37464262,56.93408024,3.64],[12.38052946,56.93158942,7.83],[12.38059646,56.93156376,7.87],[12.38814593,56.92899862,8.46],[12.38820392,56.92896896,8.46],[12.39352024,56.92552561,7.03],[12.3935659,56.92549628,7.01],[12.39915135,56.92255453,6.58],[12.39919468,56.92252387,6.6],[12.40367498,56.9182973,5.35],[12.40371397,56.91826431,5.38],[12.41073518,56.91295148,5.13],[12.41077917,56.91291915,5.15],[12.41791873,56.90788474,2.17],[12.41796172,56.90785741,2.21],[12.41970553,56.90693755,1.92],[12.41976252,56.90691222,1.92],[12.43024616,56.90251223,3],[12.43029982,56.9024969,3.05],[12.44615892,56.89936638,1.64],[12.44621358,56.89935905,1.65],[12.448722,56.89916935,4],[12.44877466,56.89916836,4.11],[12.45657547,56.89923477,2.07],[12.45664246,56.89923378,2.07],[12.45802707,56.8990332,1.58],[12.45810207,56.89902087,1.57],[12.46382601,56.89779362,0.61],[12.463888,56.89777729,0.61],[12.46954217,56.89585549,0.42],[12.46959417,56.8958385,0.48],[12.47146401,56.895424,1.15],[12.471519,56.89541634,1.17],[12.47380879,56.89537235,0.85],[12.47386279,56.89537568,0.85],[12.47679716,56.89578102,2.2],[12.47684815,56.89578036,2.25],[12.48548738,56.89513037,3.4],[12.48555004,56.89513403,3.42],[12.48749256,56.89535852,3.06],[12.48754089,56.89536985,3.06],[12.49047826,56.89655588,2.45],[12.49051825,56.89657554,2.5],[12.49090184,56.89691046,2.87],[12.49091517,56.89693679,2.89],[12.49101537,56.89830887,5.42],[12.4910297,56.89833387,5.43],[12.4918226,56.89831492,4.44],[12.49538226,56.89924892,-1.3],[12.4961728,56.9001218,-1.52],[12.49617214,56.90016546,-1.58],[12.49505643,56.9021878,-0.48],[12.4950211,56.9022148,-0.39],[12.49353594,56.90281096,3.25],[12.49350295,56.90281862,3.41],[12.49179785,56.90255877,6.94],[12.49175619,56.90256077,7.07],[12.49046705,56.90285159,9.79],[12.49043239,56.90286392,9.77],[12.4903884,56.90305421,9.9],[12.4903974,56.90307987,9.89],[12.49081157,56.9039607,10.47],[12.4908429,56.90398236,10.48],[12.49226611,56.90393112,8.82],[12.49230644,56.90394678,8.72],[12.49413551,56.90508119,8.46],[12.49417117,56.90510485,8.41],[12.49510534,56.905985,9.57],[12.49513867,56.906001,9.62],[12.49806359,56.90646962,7.98],[12.49809992,56.90646696,8.01],[12.49803797,56.9060914,7.59],[12.49798731,56.90607074,7.31],[12.49649075,56.90594415,3.19],[12.49643475,56.90593149,3.16],[12.4953829,56.90545329,3.52],[12.49535891,56.9054353,3.53],[12.4933545,56.9034312,3.7],[12.49334017,56.90341621,3.73],[12.49342008,56.90288574,5.34],[12.49344341,56.90286774,5.4],[12.49508481,56.90307394,6.49],[12.49865314,56.90292628,8.94],[12.51212006,56.90009764,10.31],[12.5120904,56.90011164,10.29],[12.51095051,56.90019493,10.53],[12.51098584,56.9001616,10.53],[12.51426525,56.89825722,10.5],[12.51432724,56.89821956,10.5],[12.51847895,56.89602321,10.68],[12.51854528,56.89598922,10.66],[12.52003953,56.89563329,9.32],[12.52011186,56.89559596,9.31],[12.52262032,56.8938872,9.94],[12.52268331,56.8938482,9.94],[12.52549945,56.89241943,9.98],[12.52556378,56.8923831,9.98],[12.5274103,56.89115456,10.17],[12.52746996,56.89111623,10.19],[12.53347652,56.8880907,11.14],[12.53352318,56.88806604,11.26],[12.53360583,56.88785774,11.81],[12.53358383,56.88782174,11.95],[12.53311757,56.88745645,12.52],[12.53310157,56.88741979,12.51],[12.53363351,56.88713916,12.16],[12.53369917,56.8871145,12.19],[12.53642698,56.88640901,14.45],[12.53651964,56.88639335,14.48],[12.53981912,56.88608753,15.62],[12.53991712,56.88608587,15.63],[12.55175648,56.88700391,23.25],[12.55184648,56.88700957,23.31],[12.55449001,56.88688366,25.02],[12.55457734,56.88687266,25.06],[12.55691487,56.88628347,26.72],[12.55699353,56.88625481,26.78],[12.56539999,56.88270708,25.21],[12.56548765,56.88266375,25.16],[12.5668535,56.88133621,24.26],[12.56691116,56.88129188,24.17],[12.56904538,56.88031566,20.78],[12.56912338,56.88027366,20.65],[12.56945599,56.8798557,19.68],[12.56945366,56.8797997,19.56],[12.56819688,56.87734858,16.13],[12.56818255,56.87729225,16.05],[12.56845307,56.87455813,13.48],[12.56841541,56.8745048,13.47],[12.56594689,56.87364225,14.63],[12.56587056,56.87361059,14.67],[12.56438902,56.87274937,13.98],[12.56438369,56.8727507,13.91],[12.56591826,56.87358663,14.64],[12.56599592,56.87362029,14.65],[12.56827944,56.87434886,13.33],[12.5683891,56.87436386,13.31],[12.57004467,56.87401194,14.53],[12.57013166,56.87399828,14.68],[12.57350718,56.87373376,17.36],[12.57360984,56.8737141,17.31],[12.5755127,56.87291587,17.05],[12.57559436,56.87289121,17.05],[12.57772859,56.87255432,15.51],[12.57783392,56.87254032,15.38],[12.57989016,56.87338521,12.98],[12.57999949,56.87338288,12.93],[12.58267137,56.87260634,11.37],[12.58276737,56.87257368,11.35],[12.58408727,56.87191312,11.84],[12.5841776,56.87188179,11.86],[12.58944599,56.87052342,11.7],[12.58955465,56.87052342,11.66],[12.59273447,56.87129156,11.62],[12.59281646,56.87132889,11.59],[12.59534791,56.87355203,10.1],[12.59542724,56.87355769,10.08],[12.59836202,56.87154757,10.61],[12.59843535,56.87150691,10.62],[12.60250511,56.87010749,11.6],[12.60257244,56.87007749,11.63],[12.60386762,56.86896664,12.1],[12.60395795,56.86893431,12.09],[12.60829497,56.86791021,10.84],[12.60840496,56.86789522,10.69],[12.6094379,56.86788421,8.81],[12.60953723,56.8678962,8.66],[12.61125146,56.8682751,8.86],[12.61133745,56.86827576,8.92],[12.61311229,56.86785491,10.37],[12.61315762,56.86783258,10.39],[12.6160834,56.86546816,26.03],[12.61610173,56.86544883,26.12],[12.61687452,56.8639074,24.43],[12.61697885,56.86384174,23.99],[12.62117169,56.86321027,16.09],[12.62127569,56.86318961,15.97],[12.62358554,56.8625214,14.84],[12.62358687,56.86247774,14.85],[12.62239541,56.86047227,15.27],[12.62237008,56.86042161,15.3],[12.62226214,56.85976468,15.82],[12.62223414,56.85971435,15.86],[12.62160856,56.85912475,16.49],[12.62155123,56.85908175,16.52],[12.62012367,56.85822119,15.67],[12.62002901,56.85818953,15.54],[12.61747047,56.85806652,13.5],[12.61743514,56.85801619,13.46],[12.61789389,56.8539033,17.76],[12.61789156,56.85386264,17.71],[12.61753141,56.8521605,15.21],[12.61751575,56.85210817,15.14],[12.61694293,56.8507763,16.11],[12.61691927,56.85074564,16.17],[12.61371687,56.84949928,18.94],[12.61366254,56.84947362,18.96],[12.61251332,56.84862975,17.82],[12.61245432,56.84858342,17.67],[12.61154545,56.84739056,16.62],[12.61152979,56.84734756,16.65],[12.61150041,56.8458304,16.09],[12.61147608,56.84579241,16.1],[12.60884103,56.84430568,15.72],[12.60880504,56.84426502,15.65],[12.6110282,56.84306787,14.65],[12.61107619,56.84303788,14.79],[12.61178178,56.84238598,15.49],[12.61176812,56.84234599,15.53],[12.61061557,56.84148208,14.76],[12.61053057,56.84143575,14.56],[12.60451426,56.83840576,6.46],[12.60447993,56.8383621,6.39],[12.61042147,56.83493823,5.47],[12.6104408,56.83489957,5.51],[12.60433024,56.83173371,1.92],[12.60426825,56.83169905,1.92],[12.60327935,56.83084647,1],[12.60326369,56.83079814,0.96],[12.6036516,56.83014088,0.89],[12.60369426,56.83010622,0.93],[12.60487881,56.82966601,3.66],[12.60489481,56.82963335,3.86],[12.60486612,56.82851716,7],[12.60487345,56.82848017,7.01],[12.60597917,56.82547708,0.46],[12.6059965,56.82542142,0.4],[12.60593784,56.82483215,-0.27],[12.60597117,56.82478849,-0.29],[12.60633679,56.82452455,1.32],[12.60637945,56.82451322,1.53],[12.60811,56.82437136,0.89],[12.60813766,56.8243537,0.94],[12.60817229,56.82409008,0.92],[12.60817328,56.82408409,0.91],[12.61060988,56.82135216,0.67],[12.61064287,56.8213135,0.71],[12.61278224,56.82012947,7.51],[12.6127849,56.82012481,7.56],[12.61046817,56.81937073,1.75],[12.61040917,56.81934873,1.48],[12.60938308,56.81870327,-2.71],[12.60938308,56.81871293,-2.7],[12.6096853,56.81851734,-2.74],[12.60970363,56.81848934,-2.75],[12.61023609,56.81737287,-2.45],[12.61025442,56.81734887,-2.38],[12.61024871,56.81680074,-1.56]]}}]}