{"type":"FeatureCollection","features":[{"type":"Feature","properties":{"name":"20260515 Cicloturismo","time":"2026-05-15T08:41:44Z"},"geometry":{"type":"LineString","coordinates":[[7.324215,47.734732,242.5],[7.32587103,47.73434752,243.67],[7.32591236,47.73433986,243.72],[7.32667093,47.73438116,243.9],[7.32671492,47.73438715,243.86],[7.32738814,47.7352337,242.34],[7.3274408,47.7352727,242.18],[7.32971126,47.73649316,242.87],[7.32976959,47.73651982,242.89],[7.33077582,47.73681738,243.35],[7.33082048,47.73681372,243.47],[7.33127273,47.73638913,244.24],[7.3312684,47.73638614,244.19],[7.33102615,47.73665073,244.2],[7.33102249,47.73665573,244.2],[7.3313294,47.73696365,241.21],[7.33137106,47.73699165,241.04],[7.33861463,47.74072189,244.95],[7.33862396,47.74072722,245.07],[7.33879924,47.74067225,245.73],[7.3388219,47.74068225,245.94],[7.34078704,47.74174471,245.63],[7.34084403,47.74177304,245.58],[7.34159598,47.74195563,245.63],[7.34165131,47.74198496,245.61],[7.34221355,47.74249255,245.9],[7.34225988,47.74252154,245.93],[7.3455669,47.74431886,245.65],[7.34561623,47.74434586,245.77],[7.34682745,47.74521139,241.9],[7.34690545,47.74525605,241.86],[7.35707584,47.75066552,240.23],[7.35712484,47.75069085,240.28],[7.35994055,47.75182156,240.07],[7.35998955,47.75184822,240.09],[7.36094443,47.75246413,240.62],[7.36098176,47.75249379,240.59],[7.36168863,47.75321736,242.6],[7.36174596,47.75326236,242.5],[7.36243092,47.75363397,240.48],[7.36251158,47.75367163,240.32],[7.3627759,47.75373095,239.93],[7.36281723,47.75371495,239.91],[7.36313485,47.75347601,240.58],[7.36311985,47.75345168,240.74],[7.3625909,47.753516,242.7],[7.36260289,47.75350367,242.84],[7.36318982,47.75339707,244.24],[7.36324348,47.75340606,244.34],[7.36440265,47.75404561,246.15],[7.36444498,47.75407394,246.24],[7.36480092,47.75449254,246.58],[7.36484225,47.7545082,246.56],[7.36612683,47.75432895,246.55],[7.36620949,47.75433995,246.44],[7.369489,47.75518675,242.04],[7.36953799,47.75520108,241.98],[7.36988926,47.75560635,242.3],[7.36993925,47.75564368,242.34],[7.37130045,47.75646791,240.46],[7.37136611,47.75650724,240.36],[7.37464485,47.75823533,238.41],[7.37469451,47.75826333,238.41],[7.37851213,47.76055925,238.03],[7.37857879,47.76058891,238.09],[7.38195888,47.76163335,237.6],[7.38204154,47.76165201,237.57],[7.38415873,47.7618332,237.41],[7.38422273,47.76184986,237.46],[7.3879747,47.76305582,237.37],[7.3880277,47.76307881,237.47],[7.38804204,47.76326779,237.8],[7.38801004,47.76330912,237.9],[7.38688117,47.76452034,237.7],[7.38685684,47.76456734,237.5],[7.38702215,47.76506695,236.57],[7.38706381,47.76510661,236.54],[7.38776408,47.76552755,236.73],[7.38782774,47.76555288,236.68],[7.39119285,47.76668127,238.9],[7.39124051,47.76670327,238.88],[7.39349664,47.76791034,239.92],[7.3935493,47.76794234,239.86],[7.39396825,47.76840894,239.78],[7.39402891,47.76844094,239.75],[7.3946572,47.76850093,239.33],[7.3946902,47.76850793,239.35],[7.39428723,47.76854122,239.55],[7.39423157,47.76853456,239.51],[7.3938246,47.76838659,239.39],[7.39377794,47.76835193,239.34],[7.39366897,47.76803863,239.39],[7.3936973,47.76800597,239.39],[7.39553217,47.76775978,239.53],[7.3955985,47.76774745,239.57],[7.39607479,47.76748984,239.6],[7.39614479,47.76748085,239.66],[7.40151872,47.76688858,241.05],[7.40159471,47.76688625,241.03],[7.40266562,47.76724149,241.35],[7.40272828,47.76725649,241.29],[7.40334491,47.76728515,240.79],[7.4034119,47.76727882,240.78],[7.41577745,47.76588187,243.14],[7.41585978,47.76587454,243.16],[7.4169517,47.76552528,243.14],[7.41702836,47.76551195,243.17],[7.41927057,47.76535304,242.72],[7.4193449,47.76534638,242.74],[7.42038481,47.76500946,243.22],[7.42045481,47.76500113,243.14],[7.42184875,47.76502411,242.55],[7.42192508,47.76501812,242.53],[7.42266869,47.76473884,242.95],[7.42274702,47.76472684,242.93],[7.42367764,47.76464824,243.16],[7.42375163,47.76464791,242.89],[7.4252222,47.7648032,243.1],[7.42529386,47.76479687,242.9],[7.43009716,47.76428659,241.51],[7.43016849,47.7642776,241.59],[7.4314304,47.76398738,243.87],[7.43149573,47.76397938,243.96],[7.43596972,47.76363222,240.81],[7.43604538,47.76362456,240.83],[7.43733828,47.76334664,242.47],[7.43741961,47.76333765,242.51],[7.44379493,47.76280001,241.69],[7.44388226,47.76279002,241.67],[7.44963986,47.76193934,241.56],[7.44971619,47.76193035,241.51],[7.45099578,47.76193931,241.1],[7.45107444,47.76193298,241.14],[7.45179906,47.76170836,241.36],[7.45187706,47.76169503,241.29],[7.45489854,47.76150284,241.78],[7.4549902,47.76149318,241.79],[7.45591648,47.76125058,241.72],[7.45600414,47.76123725,241.77],[7.45978867,47.76081016,241.75],[7.45988066,47.76080117,241.67],[7.46107327,47.76080416,241.94],[7.46116027,47.76079416,241.98],[7.46312415,47.76040194,241.17],[7.46319714,47.76039194,241.13],[7.46502068,47.76035762,241.72],[7.46509901,47.76035229,241.71],[7.47048031,47.759599,241.26],[7.47054997,47.75958334,241.26],[7.47141821,47.75893375,241.19],[7.47147854,47.75890009,241.15],[7.47224515,47.7586398,240.34],[7.47232215,47.75863047,240.35],[7.47343942,47.75867176,240.5],[7.47351742,47.75868509,240.5],[7.47436602,47.7590387,241.17],[7.47443402,47.7590597,241.09],[7.47488132,47.7590747,240.47],[7.47495765,47.75906537,240.43],[7.47761383,47.7585549,241.5],[7.47768049,47.75853424,241.52],[7.4806122,47.75723414,241.32],[7.48067286,47.75719981,241.36],[7.48143214,47.7566672,241.29],[7.48147013,47.75662154,241.23],[7.48142283,47.75595193,240.54],[7.48143382,47.75589927,240.49],[7.48180776,47.75522768,240.6],[7.48184342,47.75518002,240.55],[7.48303632,47.75459179,241.02],[7.48306598,47.75454179,241.03],[7.48372505,47.75181708,240.74],[7.48374038,47.75176309,240.78],[7.48430161,47.75065719,241.11],[7.48432027,47.75060053,241.14],[7.48468135,47.74810446,243.34],[7.48469001,47.74805913,243.46],[7.48543777,47.74587166,239.2],[7.48545176,47.74581767,239.2],[7.48681176,47.73932136,241.02],[7.48682375,47.7392697,241.03],[7.48681717,47.73719893,240.18],[7.48683783,47.7371506,240.2],[7.48770938,47.73584642,239.53],[7.48775038,47.73580409,239.55],[7.48951353,47.73445193,240.06],[7.48954153,47.73440493,240.11],[7.49128282,47.73062767,240.11],[7.49130148,47.73057834,240.07],[7.49126449,47.72980808,240.12],[7.49127349,47.72976009,240.08],[7.49215909,47.72954712,239.53],[7.49219475,47.72949379,239.5],[7.49263596,47.72812127,241.59],[7.49265562,47.72807594,241.7],[7.49470362,47.72457996,240.56],[7.49473728,47.72451863,240.54],[7.49510487,47.72380101,240.09],[7.49513053,47.72373868,240.04],[7.49511855,47.72336504,240.06],[7.49512954,47.72330705,240.06],[7.4955105,47.72288242,240.03],[7.49554516,47.72282276,240.02],[7.49688426,47.72008471,239.61],[7.49690625,47.72004305,239.62],[7.4976888,47.71895615,239.49],[7.4977148,47.71890682,239.52],[7.49832029,47.71725964,240.72],[7.49834562,47.71721065,240.8],[7.49918249,47.71598542,241.63],[7.49920949,47.71593143,241.67],[7.49968604,47.71469017,240.7],[7.49970437,47.71463051,240.66],[7.49981402,47.71366658,239.86],[7.49982702,47.71361225,239.89],[7.50045747,47.7114928,238.76],[7.50046847,47.71144214,238.75],[7.5006367,47.71043191,238.64],[7.50064203,47.71037825,238.61],[7.50059844,47.70942136,241.72],[7.50060644,47.70939136,241.92],[7.50081708,47.7093087,243.12],[7.50086474,47.70931536,243.28],[7.5029272,47.70977049,242.05],[7.50295553,47.70976016,242.11],[7.50196333,47.7093466,241.9],[7.501944,47.70930127,241.86],[7.50252816,47.7075128,239.96],[7.50254749,47.70746947,239.81],[7.5031554,47.70686656,239.61],[7.5031824,47.70682723,239.66],[7.50339063,47.70605431,239.27],[7.50340729,47.70601198,239.21],[7.50383488,47.70546605,239.84],[7.50386387,47.70543172,239.86],[7.50537304,47.70451021,240.57],[7.5054067,47.70446421,240.57],[7.50544506,47.70339733,240.58],[7.50544806,47.70335467,240.6],[7.50567931,47.7025814,240.84],[7.50570064,47.70253307,240.9],[7.50653686,47.70178985,239.94],[7.50657019,47.70175452,239.92],[7.50687346,47.70123958,240.59],[7.50688712,47.70118858,240.57],[7.5067728,47.70051433,240.67],[7.50672147,47.70047367,240.61],[7.50546891,47.70007108,239.9],[7.50542758,47.70002642,240.01],[7.50527497,47.69916185,241.85],[7.50527863,47.69911619,241.97],[7.5056379,47.69742803,241.93],[7.50567489,47.69737203,241.64],[7.5059102,47.69710172,240.07],[7.50598053,47.69706073,239.7],[7.50688148,47.69688909,236.82],[7.50690047,47.69683309,236.72],[7.50691444,47.6962708,235.89],[7.50690811,47.69621247,235.7],[7.50671782,47.69571984,234.68],[7.50671549,47.69566184,234.74],[7.50740468,47.68861135,241.97],[7.50740934,47.68856635,241.97],[7.50751498,47.68826438,242.14],[7.50755031,47.68822605,242.14],[7.5081196,47.68796711,241.13],[7.50813093,47.68792311,240.84],[7.50792305,47.6867322,239.63],[7.50790172,47.6866962,239.63],[7.5075001,47.6863706,241.8],[7.50758243,47.68632494,241.8],[7.50726513,47.68656055,240.05],[7.50721847,47.68656721,240.1],[7.50694784,47.68657818,240],[7.50691651,47.68657385,239.97],[7.5068232,47.68639355,239.73],[7.50681454,47.68635356,239.7],[7.50420173,47.669449,238.53],[7.50419373,47.669404,238.55],[7.50430798,47.66786384,238.41],[7.50432031,47.66781551,238.38],[7.50497383,47.66641797,237.42],[7.50500082,47.66637664,237.4],[7.52814639,47.63848614,238.93],[7.52818672,47.63843948,238.86],[7.52928021,47.6369253,239.59],[7.52930621,47.63689164,239.62],[7.52964417,47.6368783,240.2],[7.5296745,47.6368683,240.34],[7.53002878,47.63654936,240.74],[7.53006311,47.63651903,240.75],[7.54549762,47.62079462,242.82],[7.54553895,47.62075229,242.84],[7.54593224,47.62056566,242.79],[7.54592524,47.62057599,242.8],[7.54613219,47.62027136,242.73],[7.54613252,47.62025103,242.72],[7.54592391,47.6200641,243.01],[7.5459299,47.62004244,243.02],[7.54675006,47.61902828,243.09],[7.54678972,47.61898529,243.14],[7.56074814,47.60480743,245.26],[7.5607938,47.60476843,245.25],[7.56296355,47.60304399,244.91],[7.56301021,47.60301,244.91],[7.57748083,47.59284076,244.08],[7.57753949,47.59279976,244.07],[7.5805645,47.59029476,244.89],[7.5806055,47.59026476,245.03],[7.58515963,47.58783162,248.44],[7.58518462,47.58782062,248.63],[7.58554688,47.58802957,250.38],[7.58559487,47.5880329,250.41],[7.58621382,47.58789128,250.37],[7.58625348,47.58791594,250.37],[7.58717996,47.58923574,249.09],[7.58720529,47.58926773,248.92],[7.58795666,47.59186608,248.73],[7.58798366,47.59188441,248.74],[7.59262181,47.59123789,250.04],[7.59264647,47.5912339,249.85],[7.58998746,47.59155245,255.7],[7.59002046,47.59156411,255.75],[7.59327921,47.59116867,248.96],[7.5933132,47.59116401,248.95],[7.59394477,47.59121767,249.03],[7.59395843,47.59120501,249.05],[7.5924823,47.58762335,258.41],[7.59248031,47.58759469,258.67],[7.59263654,47.58674814,259.89],[7.5926542,47.58670681,259.8],[7.59373902,47.58472602,253.18],[7.59375035,47.58467236,253.09],[7.5936784,47.58327147,252.58],[7.59366674,47.58321614,252.59],[7.59310725,47.58178634,252.39],[7.59310226,47.58178468,252.41],[7.59329684,47.58215493,252.19],[7.59331517,47.58217293,252.19],[7.59362374,47.58216027,252.15],[7.59362041,47.58215028,252.19],[7.59322717,47.58146739,252.28],[7.59322351,47.58146606,252.26],[7.59212935,47.58189128,250.92],[7.59207869,47.58189627,250.79],[7.59167209,47.58150633,250.93],[7.59161309,47.581495,250.89],[7.58983288,47.5817469,250.82],[7.58981089,47.58171224,250.87],[7.58866082,47.57957151,250.85],[7.58864582,47.57953918,250.86],[7.58771442,47.57697221,250.85],[7.58769742,47.57692388,250.83],[7.58691823,47.57185807,250.11],[7.58691257,47.57180608,250.05],[7.58650573,47.57018958,250.02],[7.58650107,47.57014292,250.05],[7.58650276,47.56746787,249.08],[7.58650942,47.56741754,249.02],[7.58718451,47.56530143,248.35],[7.58720751,47.5652551,248.3],[7.58861458,47.562955,247.59],[7.58864024,47.56291667,247.54],[7.58943147,47.56197845,247.32],[7.58946346,47.56194346,247.32],[7.59154813,47.55994817,246.69],[7.59155213,47.55994451,246.68],[7.59122387,47.56032812,246.05],[7.59120788,47.56035245,246.03],[7.5914685,47.56055172,246.54],[7.5914825,47.56056205,246.64],[7.5912472,47.56075034,247.6],[7.5912302,47.56077267,247.67],[7.59130818,47.56090296,248.19],[7.59160984,47.56102729,249.52],[7.58857254,47.55965563,254.83],[7.58852888,47.55963063,254.71],[7.58795396,47.55927504,255.11],[7.58792397,47.55924638,255.19],[7.58767937,47.55873744,255.57],[7.58767004,47.55869978,255.56],[7.58821991,47.55789959,257.29],[7.58822657,47.55787859,257.33],[7.5879623,47.55750834,258.04],[7.58798096,47.55746501,258.11],[7.58838754,47.5567794,259.96],[7.58841653,47.55674574,260.18],[7.58892914,47.5564148,262.08],[7.58895147,47.55638014,262.07],[7.58944463,47.55506596,264.99],[7.58946463,47.55504096,265.12],[7.59054506,47.55535044,270.31],[7.59054639,47.55535177,270.42],[7.58752039,47.55869143,259.91],[7.58678784,47.55865351,258.01],[7.58677084,47.55866684,257.98],[7.58674187,47.55912944,257.76],[7.58675587,47.55914877,257.76],[7.58701081,47.55913177,257.5],[7.58702447,47.55911844,257.53],[7.58724937,47.5586019,258.47],[7.58725637,47.55859591,258.51],[7.58756765,47.55867487,258.88],[7.58759031,47.55866054,258.9],[7.58838476,47.55773174,258.69],[7.58916076,47.55688808,260.21],[7.58857556,47.55670286,259.67],[7.5885739,47.5566912,259.69],[7.58884886,47.55644259,259.88],[7.58886652,47.55640793,259.9],[7.58926326,47.55505055,261.19],[7.58926559,47.55503222,261.24],[7.58885932,47.5548473,262.06],[7.58884866,47.5548223,262.12],[7.58889929,47.55406011,263.74],[7.58890129,47.55405145,263.7],[7.58468196,47.55008046,268.17],[7.58373815,47.5494593,269.94],[7.58372149,47.5494463,270.02],[7.58378147,47.54929903,270.99],[7.58376381,47.54927804,270.88],[7.5789705,47.54627265,272.91],[7.57894651,47.54624966,272.95],[7.5786729,47.5457731,272.84],[7.57865457,47.54571477,272.82],[7.57818584,47.54376535,276.94],[7.57818385,47.54376036,276.95],[7.57937272,47.54389858,279.29],[7.57941905,47.54389957,279.45],[7.58114246,47.54380801,284.7],[7.58116479,47.54381834,284.74],[7.58171803,47.54417724,284.69],[7.58174969,47.54420524,284.66],[7.58426438,47.54661788,283.16],[7.58430237,47.54665554,283.13],[7.58586474,47.54868957,285.05],[7.58590007,47.54872457,284.95],[7.5876026,47.54871226,282.31],[7.58766926,47.54873092,282.28],[7.58808522,47.54894755,282.24],[7.58813622,47.54898521,282.27],[7.58881681,47.54970578,283.89],[7.58887114,47.54974144,283.88],[7.58991803,47.54987346,281.15],[7.58996636,47.54990745,281.05],[7.59085996,47.55061903,278.45],[7.59089762,47.55067136,278.33],[7.59120288,47.55251719,272.55],[7.59120122,47.5525142,272.59],[7.59192868,47.55353372,273.23],[7.59197101,47.55358338,272.43],[7.59255825,47.55397031,271.89],[7.59261524,47.55399197,271.84],[7.59436203,47.55452981,272.62],[7.59438669,47.55454014,272.61],[7.59461096,47.55437117,272.4],[7.59465829,47.55436984,272.47],[7.59485059,47.55471943,272.4],[7.59489792,47.55473009,272.47],[7.59687209,47.55459288,272.79],[7.59693742,47.55459354,272.76],[7.59907194,47.55470146,266.48],[7.5991676,47.55470946,265.98],[7.60040088,47.5549684,259.88],[7.60053654,47.55498173,259.33],[7.60669651,47.55530607,256.11],[7.60676117,47.55531373,256.11],[7.61273771,47.5565606,256.6],[7.61278271,47.55654627,256.68],[7.61420729,47.55401129,257.6],[7.61423162,47.55397229,257.57],[7.61555378,47.55250411,255.61],[7.61559011,47.55246811,255.55],[7.61749732,47.55224588,255.18],[7.61755032,47.55223455,255.18],[7.61943347,47.55160072,255.26],[7.61949046,47.55157406,255.26],[7.62041437,47.55092983,255.29],[7.62045103,47.5508905,255.31],[7.62106956,47.54986996,255.61],[7.62108455,47.5498273,255.63],[7.62117449,47.54925603,256.09],[7.62117383,47.5492127,256.15],[7.62089298,47.54523157,258.64],[7.62089564,47.54519624,258.66],[7.62104762,47.54493295,258.76],[7.62109595,47.54491162,258.77],[7.62203387,47.54477903,259.36],[7.62204887,47.54474303,259.41],[7.62190472,47.54288362,260.07],[7.62190339,47.54284296,260.06],[7.62199834,47.54233601,260.39],[7.62200233,47.54229201,260.35],[7.62171797,47.54026134,262.51],[7.62169864,47.54024435,262.56],[7.62002179,47.54062122,261.93],[7.62001246,47.54062421,261.93],[7.61972952,47.54050592,262.58],[7.61971986,47.54049192,262.63],[7.61979453,47.53199025,265.32],[7.61979552,47.53194892,265.29],[7.62015071,47.53057241,265.29],[7.62017237,47.53053542,265.3],[7.6208963,47.53010882,266.66],[7.62091096,47.53006949,266.75],[7.62115749,47.52825202,267.95],[7.62114683,47.52826268,267.95],[7.62197744,47.52824903,267.81],[7.62202577,47.52822703,267.79],[7.62234406,47.52800543,269.45],[7.62236372,47.52798343,269.66],[7.62265093,47.52739259,275.43],[7.62265793,47.52738526,275.63],[7.62320187,47.52735661,278.32],[7.62323487,47.52737494,278.4],[7.62336215,47.52771088,279.86],[7.62338315,47.52773821,280.05],[7.62447425,47.52892535,283.5],[7.62453291,47.52894735,283.61],[7.62619048,47.52918288,286.74],[7.62625481,47.52918788,286.86],[7.62859401,47.52926275,288.42],[7.62866,47.52925442,288.52],[7.62929627,47.52906683,289.38],[7.6293396,47.52904084,289.45],[7.6293546,47.52869693,293.13],[7.62938693,47.52867694,293.28],[7.63110513,47.52806739,290.75],[7.63117246,47.52803906,290.64],[7.63295101,47.52714622,287.85],[7.63300334,47.52711556,287.86],[7.63531334,47.52502421,288.59],[7.63534667,47.52499555,288.65],[7.63788839,47.52327949,290.69],[7.63792072,47.52326016,290.78],[7.64120932,47.52213886,296.15],[7.64127198,47.5221262,296.02],[7.64371981,47.5220998,295.82],[7.64378414,47.5220978,295.87],[7.64462572,47.52193955,298.17],[7.64467238,47.52193689,298.22],[7.645095,47.52215384,296.97],[7.64516,47.52216484,296.83],[7.6458246,47.52190022,295.57],[7.64588893,47.52188589,295.57],[7.6465972,47.52193086,298.08],[7.6466492,47.52193985,298.21],[7.6499199,47.52388356,292.03],[7.64999123,47.52391122,291.88],[7.65241474,47.52457339,289.91],[7.65248474,47.52458705,289.94],[7.65394298,47.52455779,290.33],[7.65401564,47.52455246,290.38],[7.66014528,47.5236665,290.56],[7.66021694,47.52364984,290.56],[7.66213113,47.52304363,289.77],[7.66218579,47.5230183,289.8],[7.66270905,47.52248738,289.81],[7.66276238,47.52246638,289.81],[7.66349933,47.52253336,289.63],[7.66355932,47.5225207,289.62],[7.66756368,47.52130369,289.42],[7.66762901,47.5212917,289.48],[7.67197135,47.52089471,290.24],[7.67203968,47.52089305,290.24],[7.67570871,47.52113743,290.66],[7.67575971,47.52113043,290.73],[7.6805109,47.51980621,291.56],[7.68052456,47.51980088,291.6],[7.68104077,47.52007048,291.67],[7.68103977,47.52006048,291.67],[7.68066786,47.52016909,291.01],[7.68064987,47.52017775,290.98],[7.68045289,47.51994318,290.9],[7.68047555,47.51993119,290.96],[7.68317224,47.51895179,292.96],[7.68322457,47.51893279,292.99],[7.6853467,47.51858364,294.03],[7.6854007,47.51857965,294.05],[7.69370772,47.51822415,296.39],[7.69376738,47.51822216,296.41],[7.69514361,47.51833502,297.34],[7.69521027,47.51834235,297.36],[7.7013485,47.51931399,296.08],[7.70141583,47.51932765,296.04],[7.70749298,47.52105616,297.9],[7.70754431,47.52106882,297.93],[7.71015378,47.52146429,299.93],[7.71020311,47.52144896,300.01],[7.71162932,47.52067983,301.21],[7.71166565,47.52065384,301.26],[7.71302844,47.51931107,302.56],[7.71305444,47.51927574,302.58],[7.71437478,47.51713502,304.44],[7.71439211,47.51709703,304.35],[7.71443443,47.51637846,304.69],[7.71444176,47.51633913,304.8],[7.71518752,47.51414005,306.11],[7.71520751,47.51409672,306.04],[7.71708554,47.51206538,309.11],[7.71710053,47.51202805,309.04],[7.71724846,47.51144547,309.75],[7.71725012,47.51140414,309.87],[7.71714658,47.50924139,312.67],[7.71715491,47.5092004,312.76],[7.71736384,47.50857877,313.18],[7.71738717,47.50853711,313.17],[7.71801607,47.5077039,313.27],[7.71803807,47.50766557,313.31],[7.71830932,47.50683998,313.66],[7.71831598,47.50679632,313.65],[7.7183699,47.50580582,316.91],[7.71836824,47.50578883,316.92],[7.71798769,47.50497095,317.54],[7.71798436,47.50490596,317.04],[7.71826929,47.50393204,312.18],[7.71829062,47.50388838,312.22],[7.71862424,47.50367176,312.96],[7.71863023,47.50363443,312.99],[7.71873074,47.50262491,313.9],[7.7187314,47.50258691,313.96],[7.71859416,47.502016,314.3],[7.71859416,47.50198034,314.24],[7.71884018,47.49951573,315.62],[7.71884151,47.4994864,315.73],[7.71994632,47.49605568,317.32],[7.71995698,47.49602102,317.33],[7.72052579,47.49474853,318.73],[7.72054279,47.49471287,318.75],[7.72267382,47.49115349,317.9],[7.72270715,47.49114549,317.77],[7.72432127,47.49164967,317.99],[7.72435293,47.49165433,317.94],[7.72482415,47.49134344,318.6],[7.72482315,47.49132611,318.68],[7.72450256,47.49163938,311.19],[7.72449556,47.49166571,310.98],[7.72486716,47.4921283,308.79],[7.72486316,47.49213096,308.78],[7.7249298,47.49197699,308.48],[7.72493646,47.49199765,308.29],[7.72467391,47.4927422,309.15],[7.72465991,47.49277553,309.2],[7.72405447,47.49408498,310.26],[7.72404281,47.49410564,310.29],[7.72367389,47.49402237,310.59]]}}]}