{"type":"FeatureCollection","features":[{"type":"Feature","properties":{"name":"20260418 Cicloturismo","time":"2026-04-18T08:17:27Z"},"geometry":{"type":"LineString","coordinates":[[12.81740333,56.235905,6.81],[12.81793919,56.23519513,7.71],[12.81798152,56.23517714,7.69],[12.82337066,56.23354097,8.92],[12.82343466,56.23352931,8.97],[12.82405595,56.233484,9.2],[12.82412994,56.233489,9.19],[12.8264581,56.23381486,10.55],[12.82653243,56.23382319,10.61],[12.82893128,56.23397471,9.89],[12.82901228,56.23397637,9.9],[12.83004654,56.23385011,10.02],[12.8301242,56.23383012,10.04],[12.83102879,56.23342485,10.62],[12.83107412,56.23339052,10.69],[12.83206163,56.23200236,10.63],[12.83209229,56.23196503,10.62],[12.83289524,56.23154342,9.04],[12.8329619,56.23149576,8.9],[12.83328087,56.23106281,8.02],[12.8332972,56.23100981,7.96],[12.8331609,56.23065686,7.98],[12.83312257,56.23062453,8.04],[12.83228631,56.2301853,9.25],[12.83227565,56.23015797,9.37],[12.83281289,56.22962673,10.87],[12.83279756,56.2296024,10.9],[12.83178331,56.22944983,11.11],[12.83171265,56.2294335,11.12],[12.83144868,56.2291842,11.11],[12.83144668,56.22914354,11.14],[12.83157164,56.2289049,11.31],[12.8315983,56.22887824,11.27],[12.83363769,56.22728947,12.64],[12.83365268,56.22725814,12.64],[12.83253412,56.22681189,11.86],[12.83251112,56.22677356,11.8],[12.83287208,56.22638694,11.71],[12.83289008,56.22634661,11.72],[12.83270812,56.22596833,11.92],[12.83270279,56.22592633,11.97],[12.83295372,56.22547138,12.51],[12.83295772,56.22542738,12.53],[12.83274381,56.22454915,12.69],[12.83274514,56.22450415,12.69],[12.83309139,56.22381791,13.02],[12.83307406,56.22379392,13.07],[12.80779393,56.2162269,10.26],[12.8077106,56.21620524,10.23],[12.80552107,56.21584472,11.49],[12.80546007,56.21584006,11.6],[12.80110143,56.21572125,16.08],[12.80101344,56.21571226,16.02],[12.79840921,56.21523636,11.59],[12.79829255,56.2152047,11.38],[12.79645331,56.21452545,9.16],[12.79636698,56.21448412,9.11],[12.79373517,56.21300166,9.18],[12.79366151,56.21296933,9.18],[12.79222226,56.21256075,9.28],[12.79212827,56.21254542,9.27],[12.79005638,56.21247513,9.51],[12.78996105,56.21248546,9.5],[12.78516896,56.21336387,8.74],[12.7850733,56.2133892,8.72],[12.77855667,56.21617276,9.81],[12.77846401,56.21619176,9.82],[12.77531981,56.2166096,9.14],[12.77523481,56.2166146,9.17],[12.77086309,56.21662137,9.02],[12.77077476,56.21664103,8.97],[12.77022412,56.21689534,8.41],[12.77015746,56.21694667,8.29],[12.76894091,56.21815093,6.34],[12.76887758,56.21819926,6.36],[12.76812095,56.21860187,6.94],[12.76803162,56.21863453,6.97],[12.76640703,56.21891278,6.51],[12.76629304,56.21891711,6.48],[12.76424746,56.21870819,7.16],[12.7641568,56.21871752,7.24],[12.76060902,56.21949462,8.17],[12.76052903,56.21951395,8.17],[12.75964611,56.21985823,8.2],[12.75958678,56.21989422,8.19],[12.75788897,56.22119502,10.37],[12.75782997,56.22123201,10.36],[12.75708303,56.22148929,10.35],[12.75699904,56.22150462,10.39],[12.75460018,56.22179152,10.4],[12.75451319,56.22179618,10.39],[12.7509577,56.22178156,9.6],[12.75087537,56.22179089,9.57],[12.74938515,56.2222108,9.79],[12.74929982,56.22222879,9.83],[12.74579968,56.22283024,9.78],[12.74571535,56.2228379,9.78],[12.74235325,56.22250468,10.21],[12.74227359,56.22250834,10.2],[12.72784939,56.22388991,9.22],[12.72775506,56.22388591,9.23],[12.72699077,56.22372495,9.31],[12.72691578,56.22369629,9.27],[12.7213175,56.22141269,7.55],[12.72124451,56.22138769,7.55],[12.71503692,56.21969112,7.62],[12.71498059,56.21966179,7.66],[12.71453397,56.21935585,7.84],[12.71449397,56.21931385,7.8],[12.71374909,56.21831061,7.47],[12.71372776,56.21826861,7.59],[12.71349122,56.21671243,6.97],[12.71346023,56.2166621,6.94],[12.71222403,56.21557289,6.74],[12.71215303,56.21554289,6.65],[12.70759963,56.21468515,5.29],[12.70752364,56.21466716,5.27],[12.70502848,56.21360171,5.3],[12.70495415,56.21357772,5.31],[12.70287594,56.21322117,5.83],[12.70278561,56.21320151,5.83],[12.69876782,56.21218676,4.91],[12.69868282,56.21217143,4.91],[12.69841283,56.21217043,4.83],[12.69832617,56.21219042,4.77],[12.69604263,56.21301097,3.06],[12.69595364,56.21304563,3.02],[12.69422879,56.21402318,2.6],[12.69414546,56.21405417,2.58],[12.67972735,56.21882036,0.79],[12.67965035,56.21884869,0.83],[12.67863409,56.21929827,1.69],[12.67856576,56.2193366,1.7],[12.6777515,56.21998485,2.49],[12.67771884,56.22000918,2.57],[12.67719323,56.22024778,3.11],[12.67715857,56.22025044,3.12],[12.67734789,56.22008682,3.22],[12.67736755,56.22004916,3.22],[12.67723089,56.21990785,3.3],[12.67717256,56.21989652,3.38],[12.67007804,56.21928727,4.7],[12.67003705,56.21927627,4.72],[12.66904019,56.21814575,1.88],[12.66898619,56.21810476,1.8],[12.66688006,56.21688294,1.39],[12.66682106,56.21685161,1.39],[12.66587045,56.21661034,1.5],[12.66579879,56.21660601,1.52],[12.6653055,56.21676929,1.85],[12.66526951,56.21675896,1.84],[12.6653734,56.21569175,1.85],[12.66537773,56.21564775,1.81],[12.66527142,56.21549944,1.64],[12.66520709,56.21547844,1.58],[12.65814551,56.2146442,1.38],[12.65806452,56.21463287,1.45],[12.65360481,56.21373551,2.34],[12.65352748,56.21371785,2.34],[12.6443936,56.21086138,4.57],[12.64433594,56.21084339,4.63],[12.63976735,56.20954339,6.1],[12.63968836,56.20952173,6.01],[12.63674688,56.20883521,3.55],[12.63666055,56.20881888,3.53],[12.63311079,56.20816707,2.65],[12.63302779,56.20815374,2.67],[12.62138722,56.20653576,3.44],[12.62131389,56.20652443,3.45],[12.61145459,56.20455012,3.16],[12.61139593,56.20453879,3.15],[12.60638671,56.20375992,3.63],[12.60632405,56.20375292,3.64],[12.59678352,56.20309838,4.67],[12.59672252,56.20309572,4.7],[12.59388076,56.20309508,4.25],[12.5938201,56.20309708,4.25],[12.59319282,56.20324202,4.57],[12.59313283,56.20324602,4.59],[12.59171793,56.20303314,5.2],[12.5916446,56.20302915,5.25],[12.57620498,56.20322762,2.3],[12.57615932,56.20322129,2.32],[12.57602834,56.20316565,2.28],[12.57602134,56.20314266,2.28],[12.57614195,56.20262575,2.08],[12.57614294,56.20258542,2],[12.57591365,56.1996812,2.98],[12.57588065,56.19966754,2.99],[12.57293629,56.1997803,2.77],[12.57287963,56.1997893,2.77],[12.56942867,56.20052798,1.78],[12.56942401,56.20052864,1.75],[12.56950493,56.20069796,2.3],[12.56953826,56.20071929,2.33],[12.56983549,56.20075728,1.72],[12.56983915,56.20075827,1.7],[12.56949116,56.20050194,3.41],[12.56600874,56.2003819,3.68],[12.56594008,56.20037657,3.69],[12.56486416,56.20013766,3.3],[12.56479717,56.20013067,3.33],[12.56357595,56.20039489,3.25],[12.56350895,56.20039089,3.24],[12.56301438,56.19994095,3.57],[12.56295072,56.19992729,3.63],[12.55831408,56.19956934,4.53],[12.55826875,56.19956001,4.47],[12.55786386,56.19888381,5.02],[12.55783653,56.19885915,5.07],[12.55599043,56.19804037,6.87],[12.5559521,56.19801004,6.89],[12.55605303,56.19710186,7.47],[12.5560237,56.1970762,7.37],[12.5553491,56.19722915,5.75],[12.55528544,56.19723581,5.75],[12.5550178,56.19714717,5.25],[12.55498647,56.19711217,5.16],[12.55494252,56.19506951,4.37],[12.55493552,56.19503351,4.39],[12.55438809,56.19314372,4.41],[12.5543781,56.19311072,4.38],[12.55398764,56.19230992,4.26],[12.55398731,56.19228459,4.28],[12.55472144,56.19089681,4.9],[12.5547401,56.19086881,4.87],[12.55563091,56.18984032,4.62],[12.55564691,56.18980366,4.63],[12.5556952,56.18921407,4.25],[12.55570786,56.18917741,4.3],[12.55622338,56.18814254,4.41],[12.55623071,56.18810188,4.44],[12.55610843,56.18766826,4.23],[12.5561061,56.18762926,4.21],[12.55626136,56.18708333,5.03],[12.55626736,56.18704834,5.04],[12.55626098,56.18615213,4.42],[12.55626697,56.1861138,4.4],[12.55663686,56.1855069,4.55],[12.55665319,56.1854739,4.52],[12.55684004,56.18461803,4.39],[12.55684704,56.1845827,4.38],[12.55658086,56.1833192,3.76],[12.55656686,56.18328054,3.71],[12.555963,56.18215734,3.71],[12.55594567,56.18211501,3.71],[12.55583845,56.18110646,3.65],[12.55583679,56.1810698,3.65],[12.55608387,56.17881411,4.36],[12.55609053,56.17877345,4.33],[12.55665131,56.17689434,4.22],[12.55666231,56.17685501,4.22],[12.55675321,56.17611977,4.08],[12.55676421,56.17608011,4.06],[12.55769494,56.17406303,4.07],[12.55771993,56.17403003,4.11],[12.55971477,56.17320021,4.1],[12.55975143,56.17316522,4.12],[12.56041601,56.17236167,3.72],[12.56045234,56.17232401,3.71],[12.56096527,56.17192641,3.87],[12.56097326,56.17193307,3.85],[12.56084295,56.17194007,3.73],[12.56083129,56.17191774,3.7],[12.56092961,56.17165478,3.73],[12.56094494,56.17161779,3.71],[12.56197966,56.16986771,3.94],[12.56201099,56.16983905,3.93],[12.56237361,56.16969908,3.75],[12.56242994,56.16969809,3.72],[12.56400975,56.16999391,7.13],[12.56403008,56.16997358,7.31],[12.56672791,56.16447007,7.08],[12.5667449,56.16443441,7.07],[12.56735138,56.16293693,6.76],[12.56736404,56.1629006,6.75],[12.56767884,56.16148111,6.87],[12.56768417,56.16144178,6.85],[12.56769638,56.15938338,6.66],[12.56769771,56.15934505,6.66],[12.56787022,56.15774326,6.98],[12.56787588,56.1577046,6.95],[12.56904879,56.15429141,8.02],[12.56906112,56.15425508,8.07],[12.56931986,56.15260534,8.71],[12.56932586,56.15258001,8.71],[12.56972703,56.15145818,8.85],[12.56975102,56.15142985,8.84],[12.56994865,56.15123589,8.77],[12.56998598,56.15121523,8.76],[12.57044794,56.15117825,8.51],[12.57050627,56.15117392,8.46],[12.57133519,56.15140688,7.9],[12.57139585,56.15139222,7.88],[12.57321397,56.15041938,7.61],[12.57325663,56.15039805,7.59],[12.5746005,56.15014452,7.28],[12.57463483,56.15011652,7.28],[12.5744622,56.14940129,7.2],[12.57449119,56.14936663,7.21],[12.57632701,56.14844646,6.93],[12.576344,56.14841247,6.92],[12.57595704,56.14802953,6.96],[12.57592704,56.1480102,7.01],[12.57563779,56.14717602,7.47],[12.57562513,56.14714836,7.47],[12.57522121,56.14659811,7.46],[12.57519988,56.14656345,7.44],[12.5752692,56.14641248,7.47],[12.5753022,56.14639049,7.48],[12.57910206,56.14521126,7.32],[12.57915106,56.1451896,7.33],[12.5803679,56.14406779,7.8],[12.58039389,56.14403846,7.88],[12.5802426,56.14368552,7.8],[12.58025393,56.14367286,7.7],[12.58419122,56.14271524,7.85],[12.58423688,56.14268158,7.82],[12.58431056,56.14205766,7.89],[12.58431655,56.14203366,7.93],[12.58456849,56.14163707,8.54],[12.58459215,56.14160674,8.54],[12.58659718,56.13969468,8.22],[12.58662584,56.13966335,8.22],[12.58823787,56.13753371,8.49],[12.58826786,56.13750172,8.47],[12.59022623,56.1354857,7.99],[12.59025756,56.13545604,7.98],[12.59123673,56.13474384,8.4],[12.59127372,56.13471118,8.37],[12.59206158,56.13362636,8.5],[12.59208591,56.13359737,8.49],[12.59383289,56.13166871,8.51],[12.59385589,56.13164271,8.51],[12.59620521,56.12941312,8.32],[12.5962472,56.12937646,8.34],[12.5991492,56.12718913,8.47],[12.5991922,56.1271508,8.44],[12.59988007,56.12605462,8.21],[12.59991607,56.12601629,8.21],[12.6008913,56.12535375,8.29],[12.60092196,56.12532176,8.27],[12.60081465,56.12460954,8.2],[12.60083198,56.12457188,8.18],[12.60194774,56.12289814,8.04],[12.60197507,56.12286048,8.01],[12.60296293,56.12175967,7.71],[12.60299426,56.12172568,7.71],[12.60496198,56.11999401,7.17],[12.60500131,56.11996101,7.17],[12.60699176,56.11857191,7.12],[12.60703676,56.11853758,7.1],[12.60868054,56.11713181,7.22],[12.6087262,56.11710182,7.22],[12.61118798,56.11596804,7.3],[12.61124364,56.11594571,7.3],[12.61461965,56.11474806,8.22],[12.61465231,56.11473307,8.23],[12.61778693,56.1126168,7.61],[12.61782726,56.11259814,7.62],[12.61897618,56.11242382,9.26],[12.61901717,56.11241149,9.3],[12.62178649,56.11123046,12.2],[12.62182149,56.11121746,12.26],[12.62495364,56.11049987,22.05],[12.62498897,56.11049221,22.09],[12.62601948,56.11041862,25.06],[12.62605114,56.11042128,25.25],[12.62911359,56.11084951,33.07],[12.62909859,56.1108545,33.06],[12.62877132,56.1105449,32.52],[12.62876466,56.11051357,32.44],[12.62913723,56.11016101,31.81],[12.62914623,56.11015802,31.78],[12.62876029,56.11048031,34.09],[12.62876062,56.11051097,34.12],[12.6291575,56.11089053,34.95],[12.6291935,56.11090486,35.07],[12.6330531,56.11156021,38.75],[12.63311509,56.11156421,38.79],[12.63451398,56.11161276,39.21],[12.63457464,56.11160743,39.21],[12.63496961,56.11142047,38.82],[12.63503127,56.11140214,38.78],[12.63642485,56.11117222,37.13],[12.63648885,56.11114656,37.01],[12.63672514,56.11092927,36.66],[12.63673514,56.11088494,36.63],[12.6366595,56.110228,36.36],[12.63667849,56.11019134,36.35],[12.63743308,56.10976011,36.65],[12.63745674,56.10972545,36.63],[12.6389434,56.10705117,37.43],[12.63896206,56.10701817,37.46],[12.63875778,56.10682321,37.47],[12.63874178,56.10681122,37.43],[12.63878407,56.10664393,37.98],[12.63879507,56.10662193,38.02],[12.63950424,56.10576207,38.86],[12.6395169,56.10575141,38.92],[12.64002515,56.10553748,39.44],[12.64006348,56.10551348,39.4],[12.65076734,56.09866855,32.66],[12.65081567,56.09863922,32.73],[12.65111029,56.09832027,33.78],[12.65114962,56.09829327,33.91],[12.653548,56.09687721,34.15],[12.65359399,56.09683755,34.06],[12.6542289,56.09608464,33.12],[12.65422057,56.09605498,33.04],[12.65301898,56.09606796,32.46],[12.65293765,56.0960623,32.54],[12.65259168,56.09592133,31.62],[12.65260034,56.095883,31.52],[12.655803,56.09169072,33.81],[12.65582133,56.09166806,33.91],[12.65978467,56.08729574,34.14],[12.65981366,56.08726874,34.1],[12.6600863,56.0871691,33.97],[12.66008896,56.08718076,33.99],[12.65984332,56.08725341,34.04],[12.65980266,56.08728074,34.05],[12.65966802,56.08755568,34.22],[12.65968501,56.08759001,34.25],[12.66022096,56.08769833,34.31],[12.66026395,56.08767367,34.33],[12.66198908,56.08602254,30.46],[12.66203474,56.08598188,30.44],[12.66376421,56.08456477,29.52],[12.66378787,56.08453111,29.61],[12.66383851,56.08419516,29.83],[12.66382818,56.0841665,29.8],[12.66297882,56.08242582,32.29],[12.66296716,56.08238249,32.35],[12.66293517,56.08107363,29.77],[12.6629445,56.08103463,29.76],[12.66627174,56.07572585,15.39],[12.66631973,56.07564686,15.08],[12.66703597,56.07410963,7.76],[12.66708663,56.07403997,7.47],[12.66864512,56.0725468,3.22],[12.66867478,56.07252147,3.25],[12.67340179,56.06901611,1.86],[12.67343445,56.06899078,1.89],[12.67664029,56.06630163,2.7],[12.67667828,56.0662703,2.7],[12.67847133,56.06436627,3.04],[12.67849532,56.06433494,3.07],[12.67860894,56.0636467,2.26],[12.67863227,56.0636047,2.23],[12.68041022,56.06097515,1.22],[12.68042955,56.06094549,1.23],[12.68181486,56.05855791,2.3],[12.68183086,56.05852191,2.38],[12.68208343,56.05766902,2.35],[12.68209142,56.05763203,2.36],[12.68218603,56.05588561,2.01],[12.68219836,56.05584428,1.98],[12.68302773,56.05371654,1.19],[12.68304906,56.05366654,1.19],[12.68363293,56.05256096,2.05],[12.68366493,56.05251863,2.06],[12.6848661,56.05159945,2.13],[12.68490943,56.05157946,2.13],[12.6855907,56.0517694,1.92],[12.68563536,56.05176807,1.95],[12.68689258,56.05112085,1.72],[12.68693191,56.05109186,1.73],[12.68744348,56.05034728,1.62],[12.68747347,56.05030862,1.59],[12.68812307,56.04970803,2.31],[12.68815006,56.04967503,2.32],[12.68876322,56.0485902,2.01],[12.68878955,56.04855587,2.01],[12.68943442,56.04795398,1.8],[12.68946975,56.04792799,1.82],[12.69104258,56.04785036,1.88],[12.69107824,56.04782236,1.89],[12.69239463,56.04612394,1.95],[12.69241563,56.04609961,1.96],[12.6936038,56.04531843,2.08],[12.6936408,56.04528644,2.06],[12.69647207,56.04259082,2.15],[12.69649707,56.04256183,2.14],[12.69644408,56.04245452,2.1],[12.69639209,56.04243519,2.06],[12.69529017,56.04215959,1.7],[12.69523918,56.04217325,1.68],[12.69386878,56.043397,5.12],[12.69388144,56.04336401,5.12],[12.69778495,56.03996345,2.27],[12.69777696,56.03992612,2.22],[12.697591,56.03967883,2.08],[12.69755834,56.03965884,2.08],[12.69550919,56.03919896,1.43],[12.6954722,56.03921429,1.47],[12.69538655,56.03945458,1.7],[12.69539854,56.03949624,1.74],[12.6960101,56.04053116,1.71],[12.69601843,56.04057682,1.72],[12.69572487,56.04098508,1.84],[12.69572021,56.04098708,1.83],[12.69590718,56.04085246,1.65],[12.69594018,56.04085712,1.71],[12.69587388,56.04097139,1.99],[12.69587288,56.04097405,1.99],[12.6961205,56.04104434,2.01],[12.69612083,56.04104733,2.01],[12.6955159,56.04125758,1.74],[12.6954639,56.04129191,1.71],[12.69351648,56.04297832,1.57],[12.69350782,56.04298165,1.56],[12.69349014,56.04291299,1.61],[12.61580815,56.038493,4.41],[12.61596109,56.03863428,4.61],[12.61598142,56.03865661,4.62],[12.61593143,56.03877625,4.68],[12.61589877,56.03879958,4.68],[12.61392034,56.03979567,4.67],[12.61388968,56.03978801,4.67],[12.61393532,56.03950641,4.98],[12.61393932,56.03949041,5.03],[12.61411486,56.03939218,4.92],[12.61603752,56.03556485,4.87],[12.61576994,56.03486096,4.73],[12.61574661,56.03482463,4.73],[12.61457743,56.03412578,4.75],[12.61456977,56.03412345,4.76],[12.61365261,56.03338692,4.94],[12.61361495,56.03336693,4.95],[12.61263372,56.03287608,5.2],[12.61260839,56.03286709,5.22],[12.61229145,56.03294073,5.1],[12.61224712,56.03292673,5.07],[12.61006201,56.03189087,5.04],[12.60999901,56.03186854,5.04],[12.6077815,56.03172099,6.42],[12.6077415,56.03171566,6.51],[12.60562906,56.03129553,9.35],[12.60557573,56.03128487,9.38],[12.60429687,56.03087336,10.52],[12.60428621,56.03087037,10.53],[12.60452149,56.03065711,10.55],[12.60453215,56.03062045,10.5],[12.60437452,56.03003817,10.14],[12.60435919,56.02999651,10.12],[12.60140918,56.02306253,16.64],[12.60139119,56.02301954,16.61],[12.60065271,56.02160573,18.06],[12.60063271,56.0215684,18.13],[12.59808219,56.01769351,12.8],[12.59805453,56.01762918,12.53],[12.59801221,56.01700456,9.69],[12.59803521,56.01693257,9.32],[12.59874013,56.01583131,3.94],[12.59877779,56.01576765,3.67],[12.59883044,56.015455,2.59],[12.59880878,56.01539534,2.43],[12.59645143,56.01287968,0.77],[12.5964181,56.01284502,0.71],[12.59515195,56.01173887,0.65],[12.59511062,56.01171054,0.64],[12.59174027,56.01009684,0.64],[12.59167828,56.01007151,0.57],[12.57731078,56.00486439,1.37],[12.57725579,56.00483573,1.29],[12.57570399,56.00358463,0.87],[12.57565699,56.00355297,0.87],[12.57545169,56.00342834,0.66],[12.57544369,56.00342568,0.63],[12.57537072,56.00356297,0.8],[12.57536639,56.00357196,0.79],[12.57545338,56.00344168,1.42],[12.57537105,56.00337135,0.78],[12.56875768,55.99913331,0.19],[12.56870102,55.99909832,0.17],[12.56676321,55.99795918,-0.04],[12.56670421,55.99792718,-0.07],[12.5641031,55.99674101,1.25],[12.56404111,55.99671035,1.27],[12.56303353,55.9960998,1.39],[12.56298387,55.99606447,1.39],[12.5616457,55.9947423,0.89],[12.56161937,55.9947073,0.89],[12.56070823,55.99298452,1.43],[12.56066157,55.99296286,1.43],[12.55607223,55.99382314,6.6],[12.55600823,55.9938418,6.62],[12.55291985,55.99520914,11.08],[12.55287419,55.99523047,11.15],[12.55199096,55.99577272,11.22],[12.55192496,55.99579938,11.05],[12.55137567,55.99574175,11.15],[12.55132167,55.99574341,11.25],[12.55048678,55.99609964,14.12],[12.55045645,55.99610797,14.22],[12.55000689,55.99607634,15.95],[12.5500019,55.99607134,13.06],[12.55627389,55.88992401,13.73],[12.56626219,55.73128174,13.62],[12.56627018,55.73120775,13.61],[12.56591294,55.73119007,13.36],[12.56587761,55.73117708,13.35],[12.56499504,55.73063853,12.82],[12.56493638,55.7306312,12.81],[12.56238728,55.73077212,12.3],[12.56237562,55.73077278,12.31],[12.56298035,55.73336611,11.97],[12.56299335,55.73338377,11.97],[12.5637392,55.73340179,11.51],[12.56377253,55.73339446,11.45],[12.56409479,55.73328484,10.83],[12.56408813,55.73327184,10.83],[12.56349523,55.73331012,10.89],[12.56351289,55.73329746,10.92],[12.56442575,55.7330466,10.58],[12.56442708,55.73304627,10.57],[12.56298824,55.7334088,12.33],[12.56295858,55.73340014,12.31],[12.56279761,55.73318919,12.21],[12.56278628,55.73315586,12.19],[12.56222059,55.7308032,11.05],[12.56221093,55.73077754,11.04],[12.56089539,55.73074685,10.84],[12.56086373,55.73072319,10.79],[12.56041898,55.7286821,9.59],[12.56038765,55.72866044,9.57],[12.55696428,55.72944615,11.74],[12.55692662,55.72943949,11.8],[12.55656978,55.72799969,12.68],[12.55654545,55.72798969,12.67],[12.55240583,55.72773605,14.54],[12.55232584,55.72772772,14.52],[12.55001064,55.72720787,15.96],[12.54996098,55.72718688,16.09],[12.54897476,55.72656565,17.97],[12.5489381,55.72652866,18.15],[12.54663413,55.7237213,17.16],[12.54659514,55.72369831,17.07],[12.5451556,55.72390422,18.01],[12.54507394,55.72390323,17.97],[12.54372171,55.7236053,15.94],[12.54365571,55.7235973,15.87],[12.54258711,55.7236093,15.85],[12.54251445,55.72359931,15.92],[12.5410356,55.72316009,20.09],[12.54098561,55.72314176,20.27],[12.54088962,55.72280248,22.28],[12.54084862,55.72279149,22.43],[12.53685791,55.72283465,22.73],[12.53676891,55.72283764,22.69],[12.52947797,55.72320892,21.92],[12.52940398,55.72321025,21.95],[12.52209204,55.72265561,19.1],[12.52199304,55.72265362,19.08],[12.51260124,55.72287759,21.45],[12.51253891,55.72287925,21.52],[12.51134867,55.72300048,23.54],[12.51129334,55.72300947,23.65],[12.50543223,55.72412499,32.85],[12.50536957,55.72412965,32.91],[12.50231012,55.7237155,34.75],[12.50224813,55.72371184,34.79],[12.4989704,55.72389321,34.46],[12.49891374,55.72389022,34.45],[12.49787721,55.72358905,32.45],[12.49782288,55.72359405,32.36],[12.49581065,55.7242693,23.99],[12.49566299,55.72430863,23.44],[12.49105254,55.72520608,19.82],[12.49098088,55.72521941,19.89],[12.48824109,55.72507491,22.23],[12.48818909,55.72507325,22.36],[12.48674116,55.72525382,20.98],[12.48664183,55.72527582,20.82],[12.48374771,55.72681794,18.11],[12.48367938,55.72685027,18.1],[12.48068695,55.72801905,18.71],[12.48062996,55.72804571,18.71],[12.47684331,55.73008108,21.04],[12.47676265,55.73011941,21.04],[12.4689214,55.73360563,31.43],[12.46887041,55.73363029,31.48],[12.4639083,55.73668779,32.47],[12.46386231,55.73670812,32.61],[12.463701,55.73670347,33.45],[12.463707,55.73669381,33.56],[12.46417694,55.73631391,34.79],[12.46414994,55.73629991,34.82],[12.45936164,55.73495123,30.8],[12.45931698,55.73493824,30.68],[12.45898638,55.73507485,30.03],[12.45892439,55.73507152,30],[12.45680986,55.73477028,28.18],[12.45673453,55.73476595,28.1],[12.45642489,55.73488226,28.03],[12.45640156,55.73491525,28.06],[12.45558778,55.73670006,31.73],[12.45553279,55.73673439,31.67],[12.45450781,55.73682869,30.11],[12.45430948,55.73682636,29.81],[12.4529912,55.73669276,28.16],[12.45296187,55.73668743,27.98],[12.45287455,55.73656712,27.49],[12.45288221,55.73653579,27.47],[12.45316741,55.73605528,27.48],[12.45315575,55.73606427,27.47],[12.45317608,55.73624121,27.49],[12.45317175,55.73624787,27.48],[12.4533104,55.73630218,27.38]]}}]}