{"type":"FeatureCollection","features":[{"type":"Feature","properties":{"name":"20260418 Cicloturismo","time":"2026-04-18T08:17:27Z"},"geometry":{"type":"LineString","coordinates":[[12.81740333,56.235905,6.81],[12.81757131,56.23577104,7.01],[12.81759064,56.23574404,7.03],[12.81773822,56.23534644,7.6],[12.81775355,56.23532511,7.65],[12.81793919,56.23519513,7.71],[12.81798152,56.23517714,7.69],[12.81945399,56.23468531,9.12],[12.81949465,56.23467198,9.11],[12.82036457,56.23447305,8.56],[12.82043523,56.23445339,8.5],[12.82200444,56.23391653,8.16],[12.8220651,56.23389753,8.17],[12.82276003,56.23368326,8.45],[12.82281436,56.2336666,8.47],[12.82337066,56.23354097,8.92],[12.82343466,56.23352931,8.97],[12.82405595,56.233484,9.2],[12.82412994,56.233489,9.19],[12.82559251,56.23365258,9.63],[12.82566717,56.23366224,9.68],[12.8264581,56.23381486,10.55],[12.82653243,56.23382319,10.61],[12.82893128,56.23397471,9.89],[12.82901228,56.23397637,9.9],[12.82949591,56.23394374,9.97],[12.82957557,56.23393441,10.01],[12.83004654,56.23385011,10.02],[12.8301242,56.23383012,10.04],[12.83054617,56.2336888,10.1],[12.83060717,56.23366247,10.13],[12.83102879,56.23342485,10.62],[12.83107412,56.23339052,10.69],[12.83123543,56.23324754,10.92],[12.83127009,56.23320955,10.96],[12.83145973,56.2329659,11.09],[12.83149006,56.23292357,11.07],[12.83206163,56.23200236,10.63],[12.83209229,56.23196503,10.62],[12.83222761,56.2318577,10.42],[12.83228661,56.23182337,10.34],[12.83289524,56.23154342,9.04],[12.8329619,56.23149576,8.9],[12.83307256,56.23139011,8.63],[12.83311689,56.23133512,8.5],[12.83328087,56.23106281,8.02],[12.8332972,56.23100981,7.96],[12.83329287,56.23086083,7.86],[12.83327721,56.23081484,7.85],[12.8331609,56.23065686,7.98],[12.83312257,56.23062453,8.04],[12.83246495,56.2303196,8.64],[12.83242696,56.23029994,8.72],[12.83228631,56.2301853,9.25],[12.83227565,56.23015797,9.37],[12.83231864,56.23002565,9.86],[12.83234197,56.23000232,9.93],[12.83275023,56.22970738,10.76],[12.83278356,56.22968139,10.8],[12.83281289,56.22962673,10.87],[12.83279756,56.2296024,10.9],[12.83261492,56.22953209,10.91],[12.83255226,56.22952076,10.87],[12.83178331,56.22944983,11.11],[12.83171265,56.2294335,11.12],[12.83158966,56.22938085,11.1],[12.83154266,56.22934552,11.09],[12.83144868,56.2291842,11.11],[12.83144668,56.22914354,11.14],[12.83146434,56.22906588,11.2],[12.83148,56.22903055,11.25],[12.83157164,56.2289049,11.31],[12.8315983,56.22887824,11.27],[12.8323352,56.22837698,11.65],[12.83238186,56.22834199,11.65],[12.83283413,56.2279857,11.79],[12.83287846,56.22794871,11.8],[12.83320841,56.22761042,12.13],[12.83324841,56.22757542,12.14],[12.83363769,56.22728947,12.64],[12.83365268,56.22725814,12.64],[12.83362369,56.22720015,12.58],[12.83358536,56.22717716,12.5],[12.83296208,56.22699419,12.07],[12.83289509,56.22697186,12.07],[12.83253412,56.22681189,11.86],[12.83251112,56.22677356,11.8],[12.83254978,56.22664591,11.7],[12.83258244,56.22660358,11.68],[12.83287208,56.22638694,11.71],[12.83289008,56.22634661,11.72],[12.83270812,56.22596833,11.92],[12.83270279,56.22592633,11.97],[12.83295372,56.22547138,12.51],[12.83295772,56.22542738,12.53],[12.83274381,56.22454915,12.69],[12.83274514,56.22450415,12.69],[12.8327818,56.22436916,12.73],[12.83280513,56.22432617,12.75],[12.83305074,56.22397222,12.93],[12.83306907,56.22393656,12.93],[12.83309139,56.22381791,13.02],[12.83307406,56.22379392,13.07],[12.83275577,56.22366363,13.25],[12.83270078,56.2236463,13.27],[12.83123824,56.22322135,14.19],[12.83119225,56.22320735,14.15],[12.83078899,56.22316807,13.27],[12.830788,56.22316807,13.21],[12.83024443,56.22292915,13.57],[12.83017343,56.22290715,13.59],[12.82177538,56.22042402,11.66],[12.82169972,56.22040202,11.65],[12.80779393,56.2162269,10.26],[12.8077106,56.21620524,10.23],[12.80658532,56.21597265,10.22],[12.80651232,56.21596032,10.24],[12.80552107,56.21584472,11.49],[12.80546007,56.21584006,11.6],[12.80458248,56.21580081,13.53],[12.80452348,56.21579981,13.67],[12.802386,56.21579749,16.45],[12.80231934,56.21579616,16.42],[12.80110143,56.21572125,16.08],[12.80101344,56.21571226,16.02],[12.80003548,56.21558263,14.57],[12.79992948,56.2155643,14.39],[12.79840921,56.21523636,11.59],[12.79829255,56.2152047,11.38],[12.79751991,56.21496173,10.28],[12.79741692,56.21492474,10.09],[12.79645331,56.21452545,9.16],[12.79636698,56.21448412,9.11],[12.79373517,56.21300166,9.18],[12.79366151,56.21296933,9.18],[12.79310787,56.21276837,9.28],[12.79302388,56.21274404,9.3],[12.79222226,56.21256075,9.28],[12.79212827,56.21254542,9.27],[12.79108234,56.21244981,9.23],[12.79098968,56.21244548,9.21],[12.79005638,56.21247513,9.51],[12.78996105,56.21248546,9.5],[12.78891811,56.21265173,9.35],[12.78882145,56.21266939,9.34],[12.78516896,56.21336387,8.74],[12.7850733,56.2133892,8.72],[12.78338937,56.21403044,8.33],[12.78330771,56.2140631,8.33],[12.77903031,56.21601312,9.74],[12.77895965,56.21604612,9.73],[12.77855667,56.21617276,9.81],[12.77846401,56.21619176,9.82],[12.7777337,56.21631104,9.84],[12.77762371,56.21632603,9.86],[12.77531981,56.2166096,9.14],[12.77523481,56.2166146,9.17],[12.77160872,56.21658341,9.29],[12.77151273,56.21658275,9.26],[12.77086309,56.21662137,9.02],[12.77077476,56.21664103,8.97],[12.77052111,56.21672702,8.76],[12.77044178,56.21676302,8.67],[12.77022412,56.21689534,8.41],[12.77015746,56.21694667,8.29],[12.76963618,56.21740131,7.19],[12.76957618,56.21745997,7.1],[12.76922755,56.21788061,6.45],[12.76917555,56.21793827,6.42],[12.76894091,56.21815093,6.34],[12.76887758,56.21819926,6.36],[12.76860526,56.21837824,6.6],[12.76853093,56.21841957,6.66],[12.76812095,56.21860187,6.94],[12.76803162,56.21863453,6.97],[12.76753298,56.2187675,6.85],[12.76742332,56.21878716,6.82],[12.76640703,56.21891278,6.51],[12.76629304,56.21891711,6.48],[12.76584806,56.2188978,6.42],[12.76574273,56.21888514,6.4],[12.7647951,56.21872818,6.58],[12.7647061,56.21871752,6.66],[12.76424746,56.21870819,7.16],[12.7641568,56.21871752,7.24],[12.76328185,56.21888048,7.5],[12.76319419,56.21889948,7.53],[12.76060902,56.21949462,8.17],[12.76052903,56.21951395,8.17],[12.76005606,56.21965926,8.15],[12.75998007,56.21968859,8.17],[12.75964611,56.21985823,8.2],[12.75958678,56.21989422,8.19],[12.75891886,56.22037615,9.11],[12.75887486,56.22040948,9.18],[12.75788897,56.22119502,10.37],[12.75782997,56.22123201,10.36],[12.75756099,56.22135732,10.23],[12.75748533,56.22138432,10.21],[12.75708303,56.22148929,10.35],[12.75699904,56.22150462,10.39],[12.75460018,56.22179152,10.4],[12.75451319,56.22179618,10.39],[12.75361623,56.22180616,10.6],[12.7535209,56.22180483,10.59],[12.75168032,56.22175492,9.68],[12.75158566,56.22175426,9.69],[12.7509577,56.22178156,9.6],[12.75087537,56.22179089,9.57],[12.75039941,56.22187319,9.38],[12.75031975,56.22189385,9.41],[12.74938515,56.2222108,9.79],[12.74929982,56.22222879,9.83],[12.74579968,56.22283024,9.78],[12.74571535,56.2228379,9.78],[12.74521938,56.22284389,9.82],[12.74514172,56.22283856,9.83],[12.74387948,56.22263294,10.15],[12.74380182,56.22262061,10.14],[12.74235325,56.22250468,10.21],[12.74227359,56.22250834,10.2],[12.74110599,56.22260527,10.2],[12.74102199,56.2226126,10.2],[12.73741921,56.22300777,10.44],[12.73733188,56.2230171,10.39],[12.73344811,56.22337252,10.23],[12.73335545,56.22338151,10.26],[12.72922098,56.22381597,9.76],[12.72912199,56.22382563,9.73],[12.72784939,56.22388991,9.22],[12.72775506,56.22388591,9.23],[12.72748108,56.22385459,9.3],[12.72739409,56.22383926,9.34],[12.72699077,56.22372495,9.31],[12.72691578,56.22369629,9.27],[12.72449731,56.22265214,8.5],[12.72442098,56.22262081,8.4],[12.72262675,56.22188995,7.78],[12.72255476,56.22186162,7.78],[12.7213175,56.22141269,7.55],[12.72124451,56.22138769,7.55],[12.72009226,56.22107311,7.75],[12.72001627,56.22105211,7.75],[12.71817839,56.22049587,8.2],[12.7181014,56.22047521,8.18],[12.71585254,56.21995802,7.37],[12.71578655,56.21994136,7.37],[12.71569589,56.2199047,7.38],[12.71568723,56.21988437,7.38],[12.71575751,56.21980476,6.98],[12.71580151,56.21981075,7.01],[12.71578217,56.21984874,6.99],[12.71575351,56.2198614,6.98],[12.71557786,56.21988172,7.08],[12.71553053,56.21987573,7.12],[12.71539221,56.21984441,7.27],[12.71534755,56.21982942,7.31],[12.71503692,56.21969112,7.62],[12.71498059,56.21966179,7.66],[12.71453397,56.21935585,7.84],[12.71449397,56.21931385,7.8],[12.71399705,56.21874257,7.2],[12.71396439,56.21870057,7.21],[12.71374909,56.21831061,7.47],[12.71372776,56.21826861,7.59],[12.71363848,56.21785699,7.85],[12.71363282,56.21780533,7.86],[12.71361251,56.21708172,7.33],[12.71360452,56.21702739,7.26],[12.71349122,56.21671243,6.97],[12.71346023,56.2166621,6.94],[12.71330724,56.21647145,6.77],[12.71326425,56.21642679,6.75],[12.71271464,56.21590985,6.7],[12.71266865,56.21586785,6.81],[12.71222403,56.21557289,6.74],[12.71215303,56.21554289,6.65],[12.71150839,56.21536659,6.41],[12.71142173,56.2153496,6.4],[12.70871189,56.21492642,5.54],[12.70862756,56.21491242,5.53],[12.70759963,56.21468515,5.29],[12.70752364,56.21466716,5.27],[12.70716934,56.21455486,5.42],[12.70710268,56.21452753,5.45],[12.70641439,56.21416694,5.8],[12.70635006,56.21413595,5.79],[12.70502848,56.21360171,5.3],[12.70495415,56.21357772,5.31],[12.70287594,56.21322117,5.83],[12.70278561,56.21320151,5.83],[12.70085271,56.2126443,5.98],[12.70076971,56.21262197,5.94],[12.69876782,56.21218676,4.91],[12.69868282,56.21217143,4.91],[12.69841283,56.21217043,4.83],[12.69832617,56.21219042,4.77],[12.69733288,56.21261369,3.57],[12.69724422,56.21264569,3.48],[12.69604263,56.21301097,3.06],[12.69595364,56.21304563,3.02],[12.69570865,56.21316261,2.97],[12.69563532,56.21320427,2.96],[12.69460209,56.21384287,2.61],[12.69453276,56.21388253,2.61],[12.69422879,56.21402318,2.6],[12.69414546,56.21405417,2.58],[12.69268621,56.21444775,1.7],[12.69259355,56.21447808,1.64],[12.69058067,56.21521962,1.67],[12.69050001,56.21524728,1.7],[12.68859047,56.21586983,1.78],[12.68850781,56.21589649,1.75],[12.68722389,56.2162781,1.44],[12.6871399,56.21630543,1.43],[12.68145391,56.21829377,0.91],[12.68136958,56.21832276,0.88],[12.67972735,56.21882036,0.79],[12.67965035,56.21884869,0.83],[12.67863409,56.21929827,1.69],[12.67856576,56.2193366,1.7],[12.6777515,56.21998485,2.49],[12.67771884,56.22000918,2.57],[12.67719323,56.22024778,3.11],[12.67715857,56.22025044,3.12],[12.67713558,56.22023012,3.12],[12.67715191,56.22021246,3.15],[12.67734789,56.22008682,3.22],[12.67736755,56.22004916,3.22],[12.67736988,56.22001183,3.22],[12.67735522,56.2199775,3.22],[12.67723089,56.21990785,3.3],[12.67717256,56.21989652,3.38],[12.67087263,56.21929227,4.77],[12.67078697,56.21928394,4.76],[12.67045065,56.21926029,4.68],[12.67037832,56.21925796,4.64],[12.67007804,56.21928727,4.7],[12.67003705,56.21927627,4.72],[12.66982408,56.21911163,4.73],[12.66979009,56.21907564,4.7],[12.66948715,56.21860104,3.47],[12.66945182,56.21855238,3.3],[12.66904019,56.21814575,1.88],[12.66898619,56.21810476,1.8],[12.66688006,56.21688294,1.39],[12.66682106,56.21685161,1.39],[12.66648741,56.21671198,1.41],[12.66641075,56.21669065,1.42],[12.66587045,56.21661034,1.5],[12.66579879,56.21660601,1.52],[12.66560347,56.216617,1.59],[12.66555247,56.21662966,1.64],[12.66543515,56.21673463,1.82],[12.66541349,56.21675329,1.83],[12.6653055,56.21676929,1.85],[12.66526951,56.21675896,1.84],[12.66523785,56.21671463,1.84],[12.66523719,56.21668497,1.83],[12.66531614,56.2162917,2.21],[12.6653228,56.21625037,2.23],[12.6653734,56.21569175,1.85],[12.66537773,56.21564775,1.81],[12.6653764,56.21560476,1.76],[12.66536074,56.21556377,1.73],[12.66527142,56.21549944,1.64],[12.66520709,56.21547844,1.58],[12.66036771,56.21494075,1.56],[12.66028438,56.21493209,1.59],[12.65814551,56.2146442,1.38],[12.65806452,56.21463287,1.45],[12.65647428,56.21436395,1.54],[12.65639928,56.21434929,1.55],[12.65360481,56.21373551,2.34],[12.65352748,56.21371785,2.34],[12.65212091,56.21335063,3.09],[12.65206125,56.21333463,3.13],[12.65094401,56.21299275,2.96],[12.65089135,56.21297675,2.96],[12.6443936,56.21086138,4.57],[12.64433594,56.21084339,4.63],[12.63976735,56.20954339,6.1],[12.63968836,56.20952173,6.01],[12.63831944,56.20918113,4.66],[12.63823145,56.20916013,4.56],[12.63674688,56.20883521,3.55],[12.63666055,56.20881888,3.53],[12.63473302,56.20849664,2.93],[12.63464769,56.20848164,2.88],[12.63311079,56.20816707,2.65],[12.63302779,56.20815374,2.67],[12.62470364,56.20706187,2.57],[12.62462765,56.20705154,2.57],[12.62138722,56.20653576,3.44],[12.62131389,56.20652443,3.45],[12.61915005,56.20613226,3.38],[12.61908972,56.20612093,3.36],[12.61664724,56.20561946,3.66],[12.61658458,56.20560713,3.71],[12.61626694,56.20557216,3.89],[12.61620861,56.20556483,3.87],[12.61573064,56.20542987,3.63],[12.61566398,56.20541554,3.58],[12.61145459,56.20455012,3.16],[12.61139593,56.20453879,3.15],[12.60823288,56.20400208,3.4],[12.60817489,56.20399208,3.4],[12.60734429,56.20390615,3.51],[12.60729463,56.20390016,3.53],[12.60638671,56.20375992,3.63],[12.60632405,56.20375292,3.64],[12.60070818,56.20329338,3.51],[12.60063985,56.20328739,3.53],[12.59738048,56.20314832,4.39],[12.59732015,56.20314633,4.4],[12.59678352,56.20309838,4.67],[12.59672252,56.20309572,4.7],[12.59388076,56.20309508,4.25],[12.5938201,56.20309708,4.25],[12.59364044,56.20311639,4.36],[12.59358278,56.20312838,4.41],[12.59319282,56.20324202,4.57],[12.59313283,56.20324602,4.59],[12.59272053,56.20320406,4.86],[12.5926582,56.2031964,4.89],[12.59171793,56.20303314,5.2],[12.5916446,56.20302915,5.25],[12.59113363,56.20306645,5.17],[12.59105964,56.20306811,5.19],[12.58996973,56.20303085,4.84],[12.58989573,56.20303052,4.82],[12.586183,56.20306204,4.13],[12.58610367,56.20306204,4.12],[12.58514073,56.20308498,3.8],[12.58506207,56.20308831,3.78],[12.58441677,56.20313927,3.73],[12.58433477,56.20314093,3.75],[12.58368082,56.20311198,3.57],[12.58359782,56.20311264,3.55],[12.57886979,56.20320837,2.62],[12.5787948,56.20321103,2.63],[12.57620498,56.20322762,2.3],[12.57615932,56.20322129,2.32],[12.57602834,56.20316565,2.28],[12.57602134,56.20314266,2.28],[12.57602268,56.20304868,2.3],[12.57603101,56.20301169,2.29],[12.57609666,56.20290138,2.27],[12.57611432,56.20286338,2.26],[12.57614195,56.20262575,2.08],[12.57614294,56.20258542,2],[12.57604574,56.20171385,2.32],[12.57604308,56.20167752,2.3],[12.57603344,56.20109196,3.05],[12.57603245,56.2010613,3.1],[12.57595693,56.2002081,3.01],[12.57595527,56.20017777,3.03],[12.57596827,56.19989549,2.9],[12.57596728,56.1998645,2.88],[12.57595163,56.19974952,2.93],[12.57594797,56.19972386,2.94],[12.57591365,56.1996812,2.98],[12.57588065,56.19966754,2.99],[12.57293629,56.1997803,2.77],[12.57287963,56.1997893,2.77],[12.56942867,56.20052798,1.78],[12.56942401,56.20052864,1.75],[12.56942267,56.20057063,1.76],[12.56942566,56.20057229,1.78],[12.56944697,56.200529,1.8],[12.56944897,56.200528,1.8],[12.56950493,56.20069796,2.3],[12.56953826,56.20071929,2.33],[12.56961158,56.20074595,2.43],[12.56964024,56.20074728,2.46],[12.56972921,56.20072364,2.21],[12.5697462,56.20072231,2.16],[12.56983549,56.20075728,1.72],[12.56983915,56.20075827,1.7],[12.56949116,56.20050194,3.41],[12.56600874,56.2003819,3.68],[12.56594008,56.20037657,3.69],[12.56486416,56.20013766,3.3],[12.56479717,56.20013067,3.33],[12.56435054,56.20017764,3.3],[12.56429654,56.20018697,3.27],[12.5641229,56.20022661,3.19],[12.56407857,56.20024127,3.2],[12.5639006,56.20033758,3.22],[12.56383994,56.20035724,3.23],[12.56357595,56.20039489,3.25],[12.56350895,56.20039089,3.24],[12.5634003,56.20036323,3.2],[12.56336297,56.20033723,3.2],[12.56329698,56.20027391,3.2],[12.56326898,56.20023891,3.22],[12.56318768,56.20005126,3.34],[12.56316002,56.20001727,3.38],[12.56301438,56.19994095,3.57],[12.56295072,56.19992729,3.63],[12.56126016,56.19982474,4.1],[12.5611815,56.19981941,4.12],[12.55938561,56.19967856,4.77],[12.55932895,56.19967323,4.72],[12.55908598,56.1996116,4.41],[12.55906398,56.19960761,4.34],[12.55831408,56.19956934,4.53],[12.55826875,56.19956001,4.47],[12.55817643,56.19949602,4.28],[12.55815744,56.19946836,4.25],[12.55813378,56.1992874,4.52],[12.55812212,56.19925874,4.52],[12.5579215,56.19906377,4.73],[12.55790117,56.19903511,4.76],[12.55786386,56.19888381,5.02],[12.55783653,56.19885915,5.07],[12.55716995,56.19861623,5.89],[12.55713862,56.19860323,5.83],[12.55702465,56.19850092,5.77],[12.55698866,56.19848026,5.78],[12.55650471,56.19829432,6.58],[12.55645538,56.19827299,6.57],[12.55599043,56.19804037,6.87],[12.5559521,56.19801004,6.89],[12.55591012,56.19790406,6.98],[12.55591378,56.19786673,7.06],[12.55604938,56.19741113,7.48],[12.55605937,56.19737347,7.5],[12.55608535,56.1972295,7.54],[12.55608801,56.19719551,7.54],[12.55605303,56.19710186,7.47],[12.5560237,56.1970762,7.37],[12.55590004,56.19703255,6.87],[12.55585438,56.19704055,6.72],[12.55563873,56.19714952,6.11],[12.5555884,56.19717018,6.01],[12.5553491,56.19722915,5.75],[12.55528544,56.19723581,5.75],[12.55522211,56.19723448,5.57],[12.55516111,56.19722382,5.48],[12.5550178,56.19714717,5.25],[12.55498647,56.19711217,5.16],[12.55493549,56.19695453,4.95],[12.55493316,56.19691454,4.93],[12.55500207,56.19626798,4.35],[12.5550024,56.19623665,4.35],[12.55494252,56.19506951,4.37],[12.55493552,56.19503351,4.39],[12.55477225,56.19455491,4.39],[12.55476059,56.19451692,4.38],[12.55458769,56.19375366,4.54],[12.55457736,56.193712,4.57],[12.55438809,56.19314372,4.41],[12.5543781,56.19311072,4.38],[12.55419018,56.19264813,4.15],[12.55418019,56.19262747,4.13],[12.55409991,56.19253685,4.11],[12.55409858,56.19253586,4.12],[12.55398764,56.19230992,4.26],[12.55398731,56.19228459,4.28],[12.55440284,56.19141907,5.04],[12.5544205,56.19138474,4.98],[12.55472144,56.19089681,4.9],[12.5547401,56.19086881,4.87],[12.55488773,56.19066218,4.79],[12.55491039,56.19063418,4.78],[12.55530797,56.19025191,4.75],[12.55533863,56.19021858,4.74],[12.55563091,56.18984032,4.62],[12.55564691,56.18980366,4.63],[12.5556952,56.18921407,4.25],[12.55570786,56.18917741,4.3],[12.55591045,56.18869447,4.4],[12.55592745,56.18865281,4.4],[12.55614275,56.18834518,4.39],[12.55616674,56.18830619,4.4],[12.55622338,56.18814254,4.41],[12.55623071,56.18810188,4.44],[12.55623305,56.18802022,4.47],[12.55622506,56.18798023,4.46],[12.55610843,56.18766826,4.23],[12.5561061,56.18762926,4.21],[12.55626136,56.18708333,5.03],[12.55626736,56.18704834,5.04],[12.55628532,56.18676405,4.78],[12.55628632,56.18672739,4.75],[12.55624734,56.18650409,4.5],[12.55624401,56.18646543,4.5],[12.55626098,56.18615213,4.42],[12.55626697,56.1861138,4.4],[12.55637092,56.18581818,4.41],[12.55639025,56.18578319,4.42],[12.55663686,56.1855069,4.55],[12.55665319,56.1854739,4.52],[12.55672279,56.18505897,4.19],[12.55672945,56.18502464,4.15],[12.55684004,56.18461803,4.39],[12.55684704,56.1845827,4.38],[12.55670213,56.18377081,4.08],[12.55669414,56.18372715,4.04],[12.55658086,56.1833192,3.76],[12.55656686,56.18328054,3.71],[12.5561943,56.1824643,3.65],[12.5561783,56.18242564,3.64],[12.555963,56.18215734,3.71],[12.55594567,56.18211501,3.71],[12.55583845,56.18110646,3.65],[12.55583679,56.1810698,3.65],[12.55591975,56.18072919,3.88],[12.55592774,56.18069553,3.92],[12.55594237,56.18035824,3.8],[12.55594703,56.18031891,3.81],[12.55601099,56.17999662,4.12],[12.55601698,56.17996596,4.12],[12.55597767,56.179747,4.2],[12.55597833,56.17970967,4.21],[12.55608387,56.17881411,4.36],[12.55609053,56.17877345,4.33],[12.55620515,56.1784295,4.31],[12.55621614,56.17839184,4.37],[12.55628344,56.17801555,4.49],[12.55629577,56.17797422,4.45],[12.55665131,56.17689434,4.22],[12.55666231,56.17685501,4.22],[12.55675321,56.17611977,4.08],[12.55676421,56.17608011,4.06],[12.55715975,56.1751319,4.03],[12.55717641,56.1750929,3.99],[12.55769494,56.17406303,4.07],[12.55771993,56.17403003,4.11],[12.55811454,56.17379573,4.12],[12.5581662,56.17377373,4.13],[12.55876749,56.17353612,4.04],[12.55882882,56.17351546,4],[12.55940579,56.17335985,3.97],[12.55946612,56.17334052,3.99],[12.55971477,56.17320021,4.1],[12.55975143,56.17316522,4.12],[12.56041601,56.17236167,3.72],[12.56045234,56.17232401,3.71],[12.5607293,56.17205937,3.76],[12.56075963,56.17203271,3.76],[12.56096527,56.17192641,3.87],[12.56097326,56.17193307,3.85],[12.56092394,56.17196139,3.81],[12.56089594,56.17196339,3.78],[12.56084295,56.17194007,3.73],[12.56083129,56.17191774,3.7],[12.56092961,56.17165478,3.73],[12.56094494,56.17161779,3.71],[12.56124255,56.17122584,3.61],[12.56126454,56.17119218,3.58],[12.56150546,56.17066625,3.72],[12.56152312,56.17062959,3.77],[12.56197966,56.16986771,3.94],[12.56201099,56.16983905,3.93],[12.56214163,56.16975906,3.89],[12.56219696,56.1697374,3.86],[12.56237361,56.16969908,3.75],[12.56242994,56.16969809,3.72],[12.56359047,56.16997827,5.79],[12.56363347,56.16998693,5.89],[12.56381479,56.17001424,6.39],[12.56386012,56.1700179,6.53],[12.56400975,56.16999391,7.13],[12.56403008,56.16997358,7.31],[12.56432528,56.16924369,7.94],[12.56434227,56.16920769,7.92],[12.56672791,56.16447007,7.08],[12.5667449,56.16443441,7.07],[12.56701282,56.16383449,6.59],[12.56702915,56.16379549,6.59],[12.56735138,56.16293693,6.76],[12.56736404,56.1629006,6.75],[12.56755061,56.16220701,6.85],[12.56755894,56.16217135,6.85],[12.56767884,56.16148111,6.87],[12.56768417,56.16144178,6.85],[12.56776866,56.15992631,6.58],[12.56776899,56.15988698,6.58],[12.56769638,56.15938338,6.66],[12.56769771,56.15934505,6.66],[12.56778401,56.1590481,6.64],[12.56779034,56.1590121,6.63],[12.56780331,56.15839784,6.92],[12.56780464,56.15835718,6.94],[12.56787022,56.15774326,6.98],[12.56787588,56.1577046,6.95],[12.5681021,56.15688803,7],[12.56811443,56.15685137,7],[12.56904879,56.15429141,8.02],[12.56906112,56.15425508,8.07],[12.56931986,56.15260534,8.71],[12.56932586,56.15258001,8.71],[12.56943182,56.15225707,8.75],[12.56944381,56.15222574,8.75],[12.56952712,56.15210742,8.81],[12.56954845,56.15207676,8.85],[12.5696254,56.15168547,8.9],[12.56963273,56.15165148,8.9],[12.56972703,56.15145818,8.85],[12.56975102,56.15142985,8.84],[12.56994865,56.15123589,8.77],[12.56998598,56.15121523,8.76],[12.57044794,56.15117825,8.51],[12.57050627,56.15117392,8.46],[12.57063026,56.15118591,8.36],[12.57069025,56.15120191,8.31],[12.57108287,56.15137688,8.01],[12.57114187,56.15139921,7.97],[12.57133519,56.15140688,7.9],[12.57139585,56.15139222,7.88],[12.57321397,56.15041938,7.61],[12.57325663,56.15039805,7.59],[12.57389957,56.15031546,7.36],[12.57395557,56.15030613,7.33],[12.5746005,56.15014452,7.28],[12.57463483,56.15011652,7.28],[12.57467315,56.15001454,7.25],[12.57466782,56.14997854,7.22],[12.57445887,56.14958859,7.18],[12.57444554,56.14955126,7.17],[12.5744622,56.14940129,7.2],[12.57449119,56.14936663,7.21],[12.57614636,56.14856311,7.05],[12.57620102,56.14853778,7.02],[12.57632701,56.14844646,6.93],[12.576344,56.14841247,6.92],[12.57634566,56.14837948,6.93],[12.57633533,56.14834682,6.93],[12.57621802,56.14818117,6.93],[12.57619069,56.14814984,6.93],[12.57595704,56.14802953,6.96],[12.57592704,56.1480102,7.01],[12.57592503,56.14787389,7.17],[12.5759137,56.14784356,7.19],[12.57563946,56.14736332,7.37],[12.57561913,56.14732633,7.41],[12.57563779,56.14717602,7.47],[12.57562513,56.14714836,7.47],[12.57522121,56.14659811,7.46],[12.57519988,56.14656345,7.44],[12.57518789,56.14652812,7.43],[12.57519088,56.14649346,7.43],[12.5752692,56.14641248,7.47],[12.5753022,56.14639049,7.48],[12.57551184,56.1462942,7.58],[12.57556183,56.14627854,7.58],[12.57710234,56.14586803,7.56],[12.57715467,56.14585337,7.57],[12.57767391,56.14566643,7.56],[12.57772291,56.14565577,7.55],[12.57821784,56.14543584,7.42],[12.57826317,56.14542018,7.4],[12.57910206,56.14521126,7.32],[12.57915106,56.1451896,7.33],[12.57923039,56.14513694,7.32],[12.57926072,56.14510694,7.3],[12.57964331,56.14463802,7.26],[12.57967297,56.14460969,7.26],[12.5803679,56.14406779,7.8],[12.58039389,56.14403846,7.88],[12.58041022,56.14394347,8.08],[12.58039856,56.14391248,8.12],[12.5802426,56.14368552,7.8],[12.58025393,56.14367286,7.7],[12.58069655,56.14362658,7.47],[12.58075354,56.14361359,7.5],[12.58217806,56.14315907,7.83],[12.58222605,56.14314507,7.91],[12.58318362,56.14292149,8.27],[12.58323995,56.14290983,8.25],[12.58393925,56.14279721,7.98],[12.58400791,56.14278422,7.95],[12.58419122,56.14271524,7.85],[12.58423688,56.14268158,7.82],[12.58430653,56.1425556,7.65],[12.58431286,56.14251127,7.59],[12.58429156,56.14216898,7.62],[12.5842899,56.14214632,7.66],[12.58431056,56.14205766,7.89],[12.58431655,56.14203366,7.93],[12.58456849,56.14163707,8.54],[12.58459215,56.14160674,8.54],[12.58616191,56.14007996,8.28],[12.58619324,56.14004963,8.27],[12.58659718,56.13969468,8.22],[12.58662584,56.13966335,8.22],[12.58737769,56.13862219,8.29],[12.58740069,56.13858986,8.26],[12.58823787,56.13753371,8.49],[12.58826786,56.13750172,8.47],[12.59022623,56.1354857,7.99],[12.59025756,56.13545604,7.98],[12.59065282,56.13509577,8.32],[12.59068281,56.13507211,8.33],[12.59123673,56.13474384,8.4],[12.59127372,56.13471118,8.37],[12.59206158,56.13362636,8.5],[12.59208591,56.13359737,8.49],[12.59322738,56.13229958,8.65],[12.59325071,56.13227359,8.65],[12.59383289,56.13166871,8.51],[12.59385589,56.13164271,8.51],[12.59532497,56.13020632,8.57],[12.59535797,56.13017499,8.54],[12.59620521,56.12941312,8.32],[12.5962472,56.12937646,8.34],[12.59816329,56.12787167,8.43],[12.59820595,56.12783901,8.43],[12.5991492,56.12718913,8.47],[12.5991922,56.1271508,8.44],[12.59932785,56.12698616,8.34],[12.59935451,56.1269445,8.32],[12.59964112,56.12641324,8.25],[12.59966511,56.12637258,8.23],[12.59988007,56.12605462,8.21],[12.59991607,56.12601629,8.21],[12.60024736,56.12572934,8.27],[12.60029569,56.12569634,8.28],[12.6008913,56.12535375,8.29],[12.60092196,56.12532176,8.27],[12.60096362,56.12525577,8.25],[12.60096595,56.12522177,8.24],[12.60079133,56.12494282,8.28],[12.600784,56.12490549,8.28],[12.60077568,56.12479351,8.28],[12.60077734,56.12475685,8.26],[12.60081465,56.12460954,8.2],[12.60083198,56.12457188,8.18],[12.60194774,56.12289814,8.04],[12.60197507,56.12286048,8.01],[12.60296293,56.12175967,7.71],[12.60299426,56.12172568,7.71],[12.60496198,56.11999401,7.17],[12.60500131,56.11996101,7.17],[12.60699176,56.11857191,7.12],[12.60703676,56.11853758,7.1],[12.60728471,56.11829262,7.17],[12.60732104,56.11826029,7.17],[12.60868054,56.11713181,7.22],[12.6087262,56.11710182,7.22],[12.60927349,56.11680518,7.29],[12.60932415,56.11678052,7.32],[12.61118798,56.11596804,7.3],[12.61124364,56.11594571,7.3],[12.61461965,56.11474806,8.22],[12.61465231,56.11473307,8.23],[12.61590418,56.11385487,7.49],[12.61594518,56.11382721,7.47],[12.61620881,56.11371091,7.43],[12.61624381,56.11369425,7.46],[12.61651476,56.11352396,7.6],[12.61655209,56.11349963,7.6],[12.61778693,56.1126168,7.61],[12.61782726,56.11259814,7.62],[12.61796925,56.11256415,7.64],[12.61802125,56.11256082,7.69],[12.61845356,56.11258644,8.45],[12.61850189,56.11257911,8.56],[12.61897618,56.11242382,9.26],[12.61901717,56.11241149,9.3],[12.61994306,56.1120096,9.92],[12.61998639,56.11198961,9.91],[12.62026069,56.11182264,9.87],[12.62030535,56.11180331,9.87],[12.62134555,56.11145373,11.12],[12.62138555,56.1114394,11.22],[12.62178649,56.11123046,12.2],[12.62182149,56.11121746,12.26],[12.62495364,56.11049987,22.05],[12.62498897,56.11049221,22.09],[12.62548658,56.11041329,23.04],[12.62551324,56.1104113,23.16],[12.62601948,56.11041862,25.06],[12.62605114,56.11042128,25.25],[12.62669103,56.11048849,29.1],[12.62672103,56.11049249,29.22],[12.62880866,56.11084884,32.96],[12.62883965,56.11085417,32.99],[12.62894396,56.11086382,33.07],[12.62896462,56.11086316,33.11],[12.62905361,56.11081487,33.14],[12.62907194,56.11081154,33.15],[12.62910726,56.11081686,33.15],[12.62912025,56.11082385,33.12],[12.62911359,56.11084951,33.07],[12.62909859,56.1108545,33.06],[12.62902594,56.11083717,33.09],[12.62900128,56.11081884,33.09],[12.62884064,56.11066487,32.91],[12.62881431,56.11063621,32.79],[12.62877132,56.1105449,32.52],[12.62876466,56.11051357,32.44],[12.62880298,56.11043359,32.24],[12.62882564,56.11041093,32.19],[12.62913723,56.11016101,31.81],[12.62914623,56.11015802,31.78],[12.62882794,56.11039699,34.09],[12.62879528,56.11042199,34.08],[12.62876029,56.11048031,34.09],[12.62876062,56.11051097,34.12],[12.6288046,56.11059129,34.24],[12.62882859,56.11061428,34.28],[12.6291575,56.11089053,34.95],[12.6291935,56.11090486,35.07],[12.63203553,56.11143063,38.17],[12.63208886,56.11144029,38.22],[12.6330531,56.11156021,38.75],[12.63311509,56.11156421,38.79],[12.63451398,56.11161276,39.21],[12.63457464,56.11160743,39.21],[12.63496961,56.11142047,38.82],[12.63503127,56.11140214,38.78],[12.63598856,56.11127353,38.11],[12.63606255,56.11126187,37.95],[12.63642485,56.11117222,37.13],[12.63648885,56.11114656,37.01],[12.63660084,56.11108591,36.84],[12.63664683,56.11105091,36.78],[12.63672514,56.11092927,36.66],[12.63673514,56.11088494,36.63],[12.63665783,56.11042531,36.4],[12.63665083,56.11038565,36.4],[12.6366595,56.110228,36.36],[12.63667849,56.11019134,36.35],[12.63679215,56.11009902,36.48],[12.63683948,56.11007336,36.53],[12.63725044,56.10989808,36.65],[12.63729843,56.10987475,36.65],[12.63743308,56.10976011,36.65],[12.63745674,56.10972545,36.63],[12.6389434,56.10705117,37.43],[12.63896206,56.10701817,37.46],[12.63896706,56.10695718,37.58],[12.6389514,56.10693252,37.62],[12.63875778,56.10682321,37.47],[12.63874178,56.10681122,37.43],[12.63878407,56.10664393,37.98],[12.63879507,56.10662193,38.02],[12.63883972,56.10655527,38.01],[12.63886038,56.10653394,38],[12.63912269,56.10633165,38.46],[12.63915102,56.10630266,38.39],[12.63938294,56.10591103,38.53],[12.63940027,56.1058827,38.53],[12.63950424,56.10576207,38.86],[12.6395169,56.10575141,38.92],[12.63982584,56.10564312,39.51],[12.63987184,56.10562613,39.53],[12.64002515,56.10553748,39.44],[12.64006348,56.10551348,39.4],[12.65076734,56.09866855,32.66],[12.65081567,56.09863922,32.73],[12.65111029,56.09832027,33.78],[12.65114962,56.09829327,33.91],[12.65258978,56.09750078,35.49],[12.65263577,56.09747378,35.4],[12.653548,56.09687721,34.15],[12.65359399,56.09683755,34.06],[12.65414291,56.09621995,33.19],[12.65417424,56.09618562,33.21],[12.6542289,56.09608464,33.12],[12.65422057,56.09605498,33.04],[12.65403126,56.096016,32.6],[12.65396193,56.09601501,32.5],[12.65301898,56.09606796,32.46],[12.65293765,56.0960623,32.54],[12.65277966,56.09604165,32.44],[12.65270833,56.09602332,32.2],[12.65259168,56.09592133,31.62],[12.65260034,56.095883,31.52],[12.65336154,56.09501115,30.8],[12.65339354,56.09497549,30.85],[12.65431572,56.09376801,31.04],[12.65434272,56.09373102,31.03],[12.65464528,56.09324276,30.93],[12.65467094,56.0932091,30.93],[12.65485225,56.0930198,30.95],[12.65487825,56.09298981,30.94],[12.65511019,56.09267454,31.37],[12.65513119,56.09264721,31.5],[12.6552705,56.09252357,32.28],[12.65529316,56.09249857,32.41],[12.65547875,56.09211664,33.18],[12.65549475,56.09208698,33.18],[12.655803,56.09169072,33.81],[12.65582133,56.09166806,33.91],[12.65675084,56.09063122,35.06],[12.6567815,56.09059789,35.13],[12.65749004,56.08972037,35.24],[12.65751804,56.08968671,35.29],[12.65857954,56.0885822,35.49],[12.65861387,56.08854654,35.47],[12.65959839,56.08758403,34.38],[12.65962038,56.08756304,34.37],[12.65978467,56.08729574,34.14],[12.65981366,56.08726874,34.1],[12.65993764,56.08719676,34.03],[12.65998264,56.08717743,34.01],[12.6600863,56.0871691,33.97],[12.66008896,56.08718076,33.99],[12.65984332,56.08725341,34.04],[12.65980266,56.08728074,34.05],[12.65972367,56.08738038,34.14],[12.65970434,56.08741638,34.16],[12.65966802,56.08755568,34.22],[12.65968501,56.08759001,34.25],[12.65986766,56.08768433,34.31],[12.65992666,56.08769733,34.32],[12.66004731,56.08771865,34.31],[12.6601093,56.08772198,34.3],[12.66022096,56.08769833,34.31],[12.66026395,56.08767367,34.33],[12.66198908,56.08602254,30.46],[12.66203474,56.08598188,30.44],[12.66376421,56.08456477,29.52],[12.66378787,56.08453111,29.61],[12.66383985,56.08439046,29.88],[12.66384651,56.0843558,29.91],[12.66383851,56.08419516,29.83],[12.66382818,56.0841665,29.8],[12.66330037,56.0831847,31.7],[12.66328471,56.0831547,31.74],[12.66297882,56.08242582,32.29],[12.66296716,56.08238249,32.35],[12.66289022,56.08177423,31.34],[12.66288789,56.0817269,31.02],[12.66293517,56.08107363,29.77],[12.6629445,56.08103463,29.76],[12.6631028,56.08075067,29.44],[12.6631288,56.08071568,29.49],[12.66351674,56.08027409,29.35],[12.6635394,56.08024109,29.35],[12.66416627,56.07911992,28.17],[12.66419693,56.07906859,28.06],[12.66550248,56.07701743,20.99],[12.66555281,56.07693777,20.66],[12.66627174,56.07572585,15.39],[12.66631973,56.07564686,15.08],[12.66648904,56.07533222,13.72],[12.66652404,56.07525322,13.37],[12.66678634,56.0745536,9.85],[12.66682033,56.07447761,9.43],[12.66703597,56.07410963,7.76],[12.66708663,56.07403997,7.47],[12.66737694,56.07371333,6.13],[12.6674386,56.07365334,5.92],[12.66864512,56.0725468,3.22],[12.66867478,56.07252147,3.25],[12.67023887,56.07137369,2.95],[12.6702762,56.07134636,2.89],[12.6710331,56.07074179,2.72],[12.67106943,56.07071379,2.75],[12.67179599,56.07022988,2.83],[12.67183132,56.07020488,2.83],[12.67340179,56.06901611,1.86],[12.67343445,56.06899078,1.89],[12.67372306,56.06870815,2.22],[12.67374939,56.06868316,2.23],[12.67489884,56.06769038,2.8],[12.67492717,56.06766472,2.78],[12.67664029,56.06630163,2.7],[12.67667828,56.0662703,2.7],[12.67772981,56.06523714,2.64],[12.67776247,56.06520414,2.66],[12.67847133,56.06436627,3.04],[12.67849532,56.06433494,3.07],[12.67855897,56.06419996,3.16],[12.67856596,56.06416597,3.13],[12.67859126,56.06400599,3.06],[12.67859259,56.06397366,3.03],[12.67856462,56.06380502,2.56],[12.67856728,56.06376769,2.45],[12.67860894,56.0636467,2.26],[12.67863227,56.0636047,2.23],[12.67980833,56.06186333,0.94],[12.67982866,56.061835,0.92],[12.67991097,56.06163636,1.11],[12.67992763,56.0616087,1.11],[12.68012627,56.06139674,1.19],[12.68014926,56.06136775,1.2],[12.68041022,56.06097515,1.22],[12.68042955,56.06094549,1.23],[12.68068648,56.06050923,1.56],[12.68070414,56.06047857,1.59],[12.68077411,56.0602846,1.61],[12.68079144,56.06025094,1.58],[12.68094008,56.06005797,1.39],[12.68096441,56.06002598,1.35],[12.68136165,56.0593781,1.45],[12.68138265,56.05934411,1.51],[12.68158792,56.05892852,1.77],[12.68160225,56.05889986,1.77],[12.68181486,56.05855791,2.3],[12.68183086,56.05852191,2.38],[12.68198714,56.05810896,2.56],[12.68199847,56.05807163,2.55],[12.68208343,56.05766902,2.35],[12.68209142,56.05763203,2.36],[12.68210142,56.05633321,2.2],[12.68210275,56.05629288,2.18],[12.68218603,56.05588561,2.01],[12.68219836,56.05584428,1.98],[12.68266621,56.05475142,1.85],[12.68267854,56.05472276,1.75],[12.68272217,56.05448513,1.58],[12.6827345,56.0544478,1.73],[12.68302773,56.05371654,1.19],[12.68304906,56.05366654,1.19],[12.68321368,56.05329923,1.37],[12.68323334,56.0532569,1.43],[12.68363293,56.05256096,2.05],[12.68366493,56.05251863,2.06],[12.6839672,56.052209,1.9],[12.6840122,56.05217401,1.94],[12.6848661,56.05159945,2.13],[12.68490943,56.05157946,2.13],[12.68505241,56.0515598,2.11],[12.68510407,56.05156946,2.11],[12.6855907,56.0517694,1.92],[12.68563536,56.05176807,1.95],[12.68600032,56.05159377,1.96],[12.68604632,56.05156644,1.94],[12.68642995,56.0512928,2],[12.68647828,56.05126047,1.98],[12.68689258,56.05112085,1.72],[12.68693191,56.05109186,1.73],[12.6872002,56.05080224,1.91],[12.68722919,56.05076358,1.95],[12.68744348,56.05034728,1.62],[12.68747347,56.05030862,1.59],[12.68773378,56.05011298,1.67],[12.68777611,56.05007998,1.67],[12.68812307,56.04970803,2.31],[12.68815006,56.04967503,2.32],[12.68828036,56.04943108,2.16],[12.68829669,56.04939475,2.14],[12.68835233,56.04921443,2.07],[12.68836966,56.04918077,2.06],[12.68855029,56.04895581,2.04],[12.68857329,56.04892315,2.04],[12.68876322,56.0485902,2.01],[12.68878955,56.04855587,2.01],[12.68913082,56.04831058,1.91],[12.68916348,56.04828525,1.89],[12.68943442,56.04795398,1.8],[12.68946975,56.04792799,1.82],[12.6895564,56.04789167,1.91],[12.68960606,56.04788301,1.95],[12.69014801,56.04786571,1.98],[12.69021034,56.04786438,1.96],[12.69079761,56.04792134,1.89],[12.69085594,56.04792101,1.88],[12.69104258,56.04785036,1.88],[12.69107824,56.04782236,1.89],[12.69131921,56.04759173,1.94],[12.69134387,56.04756007,1.94],[12.69239463,56.04612394,1.95],[12.69241563,56.04609961,1.96],[12.69269825,56.04585167,1.96],[12.69273558,56.04582467,1.95],[12.6931452,56.04567371,1.95],[12.69318886,56.04564938,1.98],[12.6936038,56.04531843,2.08],[12.6936408,56.04528644,2.06],[12.69474899,56.04418423,1.84],[12.69478665,56.04414823,1.89],[12.69527361,56.0437413,1.92],[12.6953106,56.04370864,1.93],[12.69647207,56.04259082,2.15],[12.69649707,56.04256183,2.14],[12.6965114,56.0425325,2.14],[12.69650707,56.04250351,2.13],[12.69644408,56.04245452,2.1],[12.69639209,56.04243519,2.06],[12.69562014,56.04219024,1.88],[12.69555448,56.04217258,1.84],[12.69529017,56.04215959,1.7],[12.69523918,56.04217325,1.68],[12.69420801,56.04306647,2.28],[12.69417601,56.0430938,2.46],[12.69386878,56.043397,5.12],[12.69388144,56.04336401,5.12],[12.69514434,56.04225045,2.51],[12.695194,56.04221012,2.45],[12.69548264,56.04207847,2.31],[12.6955193,56.04204714,2.3],[12.69729904,56.04042272,2.02],[12.69733503,56.04039039,1.99],[12.69770264,56.04009943,2.3],[12.6977373,56.04006977,2.33],[12.69778495,56.03996345,2.27],[12.69777696,56.03992612,2.22],[12.697591,56.03967883,2.08],[12.69755834,56.03965884,2.08],[12.69722537,56.03967117,1.57],[12.69717238,56.03965984,1.46],[12.69680074,56.03948787,1.19],[12.69673641,56.03946887,1.21],[12.69576583,56.03922494,1.26],[12.69571184,56.03921194,1.26],[12.69550919,56.03919896,1.43],[12.6954722,56.03921429,1.47],[12.69541754,56.03930094,1.57],[12.69540021,56.03933727,1.61],[12.69538655,56.03945458,1.7],[12.69539854,56.03949624,1.74],[12.69578014,56.04002619,1.81],[12.69580747,56.04007119,1.81],[12.6960101,56.04053116,1.71],[12.69601843,56.04057682,1.72],[12.69599178,56.04074547,1.68],[12.69596712,56.04078213,1.68],[12.69572487,56.04098508,1.84],[12.69572021,56.04098708,1.83],[12.69575854,56.0409221,1.72],[12.6957782,56.04090744,1.71],[12.69590718,56.04085246,1.65],[12.69594018,56.04085712,1.71],[12.69596751,56.04088144,1.79],[12.69596452,56.04089744,1.82],[12.69587388,56.04097139,1.99],[12.69587288,56.04097405,1.99],[12.6961205,56.04104434,2.01],[12.69612083,56.04104733,2.01],[12.6955159,56.04125758,1.74],[12.6954639,56.04129191,1.71],[12.69391841,56.04268174,1.49],[12.69388775,56.0427084,1.5],[12.69351648,56.04297832,1.57],[12.69350782,56.04298165,1.56],[12.69347882,56.04295965,1.49],[12.69349014,56.04291299,1.61],[12.61580815,56.038493,4.41],[12.61596109,56.03863428,4.61],[12.61598142,56.03865661,4.62],[12.61599075,56.03867861,4.63],[12.61599241,56.03870027,4.64],[12.61593143,56.03877625,4.68],[12.61589877,56.03879958,4.68],[12.61566413,56.03894655,4.76],[12.6156238,56.03897021,4.78],[12.61495487,56.0392858,4.8],[12.61491554,56.03930546,4.78],[12.61464323,56.03948975,4.72],[12.6145999,56.03951175,4.72],[12.61406264,56.03975968,4.7],[12.61403565,56.03977101,4.7],[12.61392034,56.03979567,4.67],[12.61388968,56.03978801,4.67],[12.61385102,56.03974968,4.68],[12.61384936,56.03972269,4.69],[12.61393532,56.03950641,4.98],[12.61393932,56.03949041,5.03],[12.6139913,56.03943478,5.1],[12.61400229,56.03942745,5.1],[12.61411486,56.03939218,4.92],[12.61603752,56.03556485,4.87],[12.61576994,56.03486096,4.73],[12.61574661,56.03482463,4.73],[12.61559464,56.03464733,4.64],[12.61555165,56.034617,4.6],[12.6149557,56.03435239,4.65],[12.61490471,56.03432739,4.66],[12.61457743,56.03412578,4.75],[12.61456977,56.03412345,4.76],[12.6143095,56.03387817,4.76],[12.61427051,56.03384884,4.76],[12.61377223,56.03354255,5.01],[12.6137429,56.03351956,4.97],[12.61365261,56.03338692,4.94],[12.61361495,56.03336693,4.95],[12.61263372,56.03287608,5.2],[12.61260839,56.03286709,5.22],[12.61241877,56.0329304,5.2],[12.61238011,56.03294239,5.19],[12.61229145,56.03294073,5.1],[12.61224712,56.03292673,5.07],[12.61006201,56.03189087,5.04],[12.60999901,56.03186854,5.04],[12.60975303,56.03180689,5.07],[12.6096927,56.03179823,5.07],[12.60872609,56.03171898,5.31],[12.60865609,56.03171432,5.3],[12.6077815,56.03172099,6.42],[12.6077415,56.03171566,6.51],[12.60736388,56.0316167,7.12],[12.60731188,56.03160504,7.18],[12.60690425,56.03154675,7.85],[12.60685492,56.03153509,7.92],[12.6062693,56.03135782,8.5],[12.60621864,56.03134616,8.54],[12.60562906,56.03129553,9.35],[12.60557573,56.03128487,9.38],[12.60517377,56.0310956,9.61],[12.60512544,56.03107827,9.68],[12.60429687,56.03087336,10.52],[12.60428621,56.03087037,10.53],[12.60452149,56.03065711,10.55],[12.60453215,56.03062045,10.5],[12.60453248,56.03054313,10.42],[12.60452348,56.03050247,10.37],[12.60437452,56.03003817,10.14],[12.60435919,56.02999651,10.12],[12.60409828,56.02950262,10.12],[12.60409228,56.02949129,10.11],[12.6041146,56.02945199,10.04],[12.60412126,56.02945565,10.04],[12.60411593,56.02950029,10.05],[12.60411992,56.02951329,10.05],[12.6041749,56.02958492,10.09],[12.60418289,56.02959458,10.09],[12.60414825,56.02959124,10.09],[12.60413825,56.02957491,10.08],[12.60399301,56.02913432,10],[12.60397968,56.02910099,9.98],[12.60369247,56.02851477,10.37],[12.60367947,56.02848878,10.42],[12.60273843,56.02609141,13.04],[12.60272243,56.02605208,13.12],[12.60251717,56.02558549,13.82],[12.60250217,56.02555383,13.86],[12.60204331,56.02466496,15.26],[12.60202698,56.02462963,15.32],[12.60140918,56.02306253,16.64],[12.60139119,56.02301954,16.61],[12.60105627,56.02237427,16.4],[12.60103594,56.02233727,16.5],[12.60098963,56.0221943,16.83],[12.60097863,56.02215797,16.93],[12.60078034,56.02186835,17.65],[12.60075801,56.02183136,17.74],[12.60065271,56.02160573,18.06],[12.60063271,56.0215684,18.13],[12.59808219,56.01769351,12.8],[12.59805453,56.01762918,12.53],[12.59798323,56.0173602,11.36],[12.59797657,56.01729054,11.06],[12.59801221,56.01700456,9.69],[12.59803521,56.01693257,9.32],[12.59824384,56.0165046,7.44],[12.59828617,56.01643527,7.07],[12.59874013,56.01583131,3.94],[12.59877779,56.01576765,3.67],[12.59882812,56.01564099,3.2],[12.59884011,56.01557833,2.97],[12.59883044,56.015455,2.59],[12.59880878,56.01539534,2.43],[12.59841517,56.01489639,1.4],[12.59837484,56.01485306,1.34],[12.5969667,56.01344892,1.03],[12.59693237,56.01341459,1.02],[12.59645143,56.01287968,0.77],[12.5964181,56.01284502,0.71],[12.59570688,56.01216912,0.43],[12.59566955,56.01213612,0.43],[12.59515195,56.01173887,0.65],[12.59511062,56.01171054,0.64],[12.59454769,56.0114016,0.87],[12.59449736,56.01137694,0.91],[12.59245989,56.01040578,1.04],[12.59240256,56.01037879,1.03],[12.59174027,56.01009684,0.64],[12.59167828,56.01007151,0.57],[12.58761527,56.00866147,-0.36],[12.58754794,56.00863681,-0.37],[12.58584608,56.00793027,-0.64],[12.58578142,56.00790528,-0.68],[12.58238298,56.00671024,0.45],[12.58232165,56.00668791,0.46],[12.58057614,56.00602675,0.78],[12.58051881,56.00600475,0.79],[12.5793166,56.00550918,1.03],[12.57925927,56.00548819,1.04],[12.57896463,56.00539889,1.13],[12.5789053,56.00538489,1.15],[12.5782247,56.00526097,1.69],[12.57817204,56.00524664,1.72],[12.57731078,56.00486439,1.37],[12.57725579,56.00483573,1.29],[12.57701282,56.00467544,1.01],[12.57697049,56.00464145,0.97],[12.57620562,56.00395023,0.86],[12.57616263,56.00391557,0.86],[12.57570399,56.00358463,0.87],[12.57565699,56.00355297,0.87],[12.57545169,56.00342834,0.66],[12.57544369,56.00342568,0.63],[12.57537072,56.00356297,0.8],[12.57536639,56.00357196,0.79],[12.57545338,56.00344168,1.42],[12.57537105,56.00337135,0.78],[12.57436515,56.00276646,0.26],[12.57431115,56.00273247,0.22],[12.56875768,55.99913331,0.19],[12.56870102,55.99909832,0.17],[12.56676321,55.99795918,-0.04],[12.56670421,55.99792718,-0.07],[12.5641031,55.99674101,1.25],[12.56404111,55.99671035,1.27],[12.56362215,55.9964854,1.37],[12.56356449,55.99645107,1.4],[12.56303353,55.9960998,1.39],[12.56298387,55.99606447,1.39],[12.56236293,55.99553387,1.28],[12.5623256,55.99549821,1.24],[12.56190367,55.9950596,0.98],[12.56187201,55.99502494,0.97],[12.5616457,55.9947423,0.89],[12.56161937,55.9947073,0.89],[12.56113246,55.99394438,1.04],[12.5611108,55.99390639,1.04],[12.56094717,55.99356009,1.17],[12.56093151,55.99352276,1.18],[12.56077356,55.9930795,1.41],[12.56076123,55.99304584,1.43],[12.56070823,55.99298452,1.43],[12.56066157,55.99296286,1.43],[12.56048491,55.9929452,1.43],[12.56042358,55.99294919,1.43],[12.55988895,55.9930318,2.15],[12.55983662,55.99304113,2.32],[12.55607223,55.99382314,6.6],[12.55600823,55.9938418,6.62],[12.5552763,55.99411805,6.89],[12.55522531,55.99414204,6.94],[12.55417107,55.99472825,8.47],[12.55412541,55.99474891,8.58],[12.55291985,55.99520914,11.08],[12.55287419,55.99523047,11.15],[12.55260389,55.99537244,11.43],[12.55256056,55.99539843,11.46],[12.55199096,55.99577272,11.22],[12.55192496,55.99579938,11.05],[12.55178297,55.99582104,10.78],[12.55171497,55.99581638,10.74],[12.55137567,55.99574175,11.15],[12.55132167,55.99574341,11.25],[12.55048678,55.99609964,14.12],[12.55045645,55.99610797,14.22],[12.55028648,55.99612861,14.76],[12.55026115,55.99612927,14.86],[12.55007785,55.9961163,15.53],[12.55006052,55.99611331,15.61],[12.55000689,55.99607634,15.95],[12.5500019,55.99607134,13.06],[12.55627389,55.88992401,13.73],[12.56025489,55.82645002,13.78],[12.56264722,55.78836103,13.82],[12.56626219,55.73128174,13.62],[12.56627018,55.73120775,13.61],[12.56614656,55.73125938,13.49],[12.56612857,55.73126337,13.5],[12.56591294,55.73119007,13.36],[12.56587761,55.73117708,13.35],[12.56561799,55.73102278,13.23],[12.56558299,55.73099645,13.21],[12.56534735,55.7307645,12.96],[12.56530802,55.73073851,12.93],[12.56499504,55.73063853,12.82],[12.56493638,55.7306312,12.81],[12.56420677,55.73060093,12.79],[12.56414911,55.73060359,12.8],[12.56238728,55.73077212,12.3],[12.56237562,55.73077278,12.31],[12.56237163,55.73087509,12.09],[12.56237429,55.73090742,12.09],[12.56248155,55.73148501,12.03],[12.56249288,55.73153401,12.03],[12.56278246,55.73251157,12.03],[12.56279379,55.73255323,12.04],[12.56291705,55.73319548,12.07],[12.56292371,55.73322881,12.05],[12.56298035,55.73336611,11.97],[12.56299335,55.73338377,11.97],[12.563072,55.73341608,11.92],[12.56309566,55.73341442,11.92],[12.56341925,55.7333455,11.86],[12.56343991,55.73334417,11.84],[12.5637392,55.73340179,11.51],[12.56377253,55.73339446,11.45],[12.56409479,55.73328484,10.83],[12.56408813,55.73327184,10.83],[12.56360555,55.73333677,10.68],[12.56356489,55.73334177,10.74],[12.56349523,55.73331012,10.89],[12.56351289,55.73329746,10.92],[12.56442575,55.7330466,10.58],[12.56442708,55.73304627,10.57],[12.56429375,55.73311327,12.62],[12.56387448,55.73322322,12.62],[12.56382849,55.73323555,12.62],[12.56298824,55.7334088,12.33],[12.56295858,55.73340014,12.31],[12.56287326,55.73334282,12.27],[12.56285226,55.73331583,12.27],[12.56279761,55.73318919,12.21],[12.56278628,55.73315586,12.19],[12.56222059,55.7308032,11.05],[12.56221093,55.73077754,11.04],[12.56212062,55.73072624,11.01],[12.56208496,55.73072425,11.01],[12.56116103,55.73077751,10.94],[12.56109703,55.7307795,10.92],[12.56089539,55.73074685,10.84],[12.56086373,55.73072319,10.79],[12.56080375,55.73057721,10.72],[12.56079475,55.73053555,10.71],[12.56055091,55.72912804,9.87],[12.56054125,55.72908271,9.83],[12.56041898,55.7286821,9.59],[12.56038765,55.72866044,9.57],[12.56025266,55.72865144,9.55],[12.56020033,55.7286641,9.54],[12.55743722,55.72940785,10.71],[12.55738656,55.72942051,10.76],[12.55696428,55.72944615,11.74],[12.55692662,55.72943949,11.8],[12.5568713,55.7294135,11.94],[12.55685297,55.7293945,12.03],[12.55677968,55.72919286,12.61],[12.55677068,55.72915786,12.67],[12.55669506,55.72862457,12.62],[12.55669107,55.72858724,12.59],[12.55669938,55.72838295,12.66],[12.55669505,55.72835562,12.67],[12.55664273,55.72829297,12.7],[12.55663007,55.72827164,12.72],[12.5566131,55.72807334,12.75],[12.55660877,55.72805001,12.72],[12.55656978,55.72799969,12.68],[12.55654545,55.72798969,12.67],[12.55402271,55.72785793,14.56],[12.55394505,55.72785327,14.58],[12.55240583,55.72773605,14.54],[12.55232584,55.72772772,14.52],[12.55140255,55.72758844,14.68],[12.55132056,55.72757045,14.71],[12.55043661,55.72729418,15.34],[12.55036162,55.72727052,15.4],[12.55001064,55.72720787,15.96],[12.54996098,55.72718688,16.09],[12.54934772,55.72683528,17.37],[12.54929706,55.72680395,17.37],[12.54897476,55.72656565,17.97],[12.5489381,55.72652866,18.15],[12.54741969,55.72457221,19.48],[12.5473817,55.72452488,19.39],[12.54663413,55.7237213,17.16],[12.54659514,55.72369831,17.07],[12.54650582,55.72368332,16.93],[12.54645616,55.72368798,16.86],[12.54567124,55.72386858,17.63],[12.54560258,55.72387924,17.72],[12.5451556,55.72390422,18.01],[12.54507394,55.72390323,17.97],[12.54473795,55.72387291,17.75],[12.54465395,55.72385525,17.55],[12.54428199,55.72371027,16.95],[12.54424599,55.72369494,16.71],[12.54399736,55.72369227,16.27],[12.54395303,55.72368827,16.2],[12.54372171,55.7236053,15.94],[12.54365571,55.7235973,15.87],[12.54258711,55.7236093,15.85],[12.54251445,55.72359931,15.92],[12.54208215,55.72344769,16.63],[12.54202882,55.72343003,16.8],[12.5410356,55.72316009,20.09],[12.54098561,55.72314176,20.27],[12.54088897,55.7230661,20.86],[12.54087931,55.72303644,20.86],[12.54092396,55.72289347,21.7],[12.54093429,55.72286614,22.01],[12.54088962,55.72280248,22.28],[12.54084862,55.72279149,22.43],[12.53685791,55.72283465,22.73],[12.53676891,55.72283764,22.69],[12.53439737,55.72301353,22.46],[12.53431404,55.72301819,22.48],[12.52947797,55.72320892,21.92],[12.52940398,55.72321025,21.95],[12.5284877,55.72315832,21.82],[12.52838837,55.72315099,21.79],[12.52312898,55.72269954,19.39],[12.52303598,55.72269188,19.35],[12.52209204,55.72265561,19.1],[12.52199304,55.72265362,19.08],[12.51459876,55.72290051,18.58],[12.5145261,55.72290284,18.63],[12.51260124,55.72287759,21.45],[12.51253891,55.72287925,21.52],[12.51134867,55.72300048,23.54],[12.51129334,55.72300947,23.65],[12.51068808,55.72314873,25.15],[12.51063109,55.72316206,25.28],[12.50702974,55.72384248,31.16],[12.50696941,55.72385414,31.23],[12.5061755,55.72403473,32.21],[12.50612484,55.72404739,32.25],[12.50543223,55.72412499,32.85],[12.50536957,55.72412965,32.91],[12.50465894,55.72410232,33.59],[12.50459595,55.72409399,33.66],[12.50342136,55.72384342,34.38],[12.5033617,55.72383309,34.38],[12.50231012,55.7237155,34.75],[12.50224813,55.72371184,34.79],[12.49963068,55.72382927,34.81],[12.49957635,55.72383193,34.8],[12.4989704,55.72389321,34.46],[12.49891374,55.72389022,34.45],[12.49850313,55.72374295,34.29],[12.4984658,55.72373096,34.28],[12.49787721,55.72358905,32.45],[12.49782288,55.72359405,32.36],[12.49581065,55.7242693,23.99],[12.49566299,55.72430863,23.44],[12.49105254,55.72520608,19.82],[12.49098088,55.72521941,19.89],[12.49001427,55.72523975,20.32],[12.48994528,55.72523809,20.37],[12.48824109,55.72507491,22.23],[12.48818909,55.72507325,22.36],[12.48674116,55.72525382,20.98],[12.48664183,55.72527582,20.82],[12.4856659,55.72570909,20.13],[12.48560057,55.72574108,20.12],[12.48450032,55.72642933,18.87],[12.48442499,55.72647399,18.74],[12.48374771,55.72681794,18.11],[12.48367938,55.72685027,18.1],[12.48068695,55.72801905,18.71],[12.48062996,55.72804571,18.71],[12.47684331,55.73008108,21.04],[12.47676265,55.73011941,21.04],[12.47561476,55.730577,21.41],[12.47555943,55.73060033,21.46],[12.4713905,55.73242018,27.52],[12.47133817,55.73244251,27.63],[12.47000231,55.73311173,30.06],[12.46994698,55.73313839,30.2],[12.4689214,55.73360563,31.43],[12.46887041,55.73363029,31.48],[12.46792618,55.73415053,32.29],[12.46787919,55.73417919,32.34],[12.46478656,55.73614952,31.86],[12.4646389,55.73617852,31.87],[12.4639083,55.73668779,32.47],[12.46386231,55.73670812,32.61],[12.463701,55.73670347,33.45],[12.463707,55.73669381,33.56],[12.4641636,55.73637455,34.66],[12.46418526,55.73635956,34.68],[12.46417694,55.73631391,34.79],[12.46414994,55.73629991,34.82],[12.46147385,55.73558579,33.7],[12.46138819,55.73556246,33.63],[12.45936164,55.73495123,30.8],[12.45931698,55.73493824,30.68],[12.45925366,55.73493524,30.55],[12.45924133,55.73494357,30.33],[12.45916369,55.73504621,30.05],[12.4591347,55.73505887,30.03],[12.45898638,55.73507485,30.03],[12.45892439,55.73507152,30],[12.45680986,55.73477028,28.18],[12.45673453,55.73476595,28.1],[12.45658887,55.73477694,28.04],[12.45652954,55.73479494,28.02],[12.45642489,55.73488226,28.03],[12.45640156,55.73491525,28.06],[12.45592636,55.73607712,31.2],[12.4559087,55.73611712,31.32],[12.45573342,55.73649142,31.84],[12.45571076,55.73653441,31.84],[12.45558778,55.73670006,31.73],[12.45553279,55.73673439,31.67],[12.4552208,55.73681503,31.32],[12.45513114,55.73682536,31.17],[12.45450781,55.73682869,30.11],[12.45430948,55.73682636,29.81],[12.4529912,55.73669276,28.16],[12.45296187,55.73668743,27.98],[12.45291321,55.73666477,27.71],[12.45289388,55.73664544,27.61],[12.45287455,55.73656712,27.49],[12.45288221,55.73653579,27.47],[12.45296615,55.73632017,27.53],[12.45296681,55.73631617,27.45],[12.45304213,55.73627119,27.33],[12.45305679,55.73625586,27.36],[12.45318107,55.73609092,27.47],[12.45319273,55.73607759,27.48],[12.45316741,55.73605528,27.48],[12.45315575,55.73606427,27.47],[12.45319606,55.73613225,27.45],[12.45319872,55.73615224,27.46],[12.45317608,55.73624121,27.49],[12.45317175,55.73624787,27.48],[12.4533104,55.73630218,27.38]]}}]}