{"type":"FeatureCollection","features":[{"type":"Feature","properties":{"name":"20260420 Cicloturismo","time":"2026-04-20T09:42:55Z"},"geometry":{"type":"LineString","coordinates":[[12.45310366,55.736343],[12.45305233,55.73622804],[12.45305899,55.73620471],[12.45371979,55.73457624],[12.45373245,55.73453358],[12.45368846,55.73436793],[12.4536528,55.73433127],[12.45235986,55.73402501],[12.45223853,55.73398501],[12.4503126,55.7331321],[12.45022494,55.73310144],[12.44933933,55.73302813],[12.44929,55.7330168],[12.44858442,55.73231723],[12.44851643,55.73228457],[12.44630827,55.73162841],[12.44625494,55.73160542],[12.44611465,55.73131014],[12.44611265,55.73126581],[12.4462756,55.73099552],[12.4463376,55.73097419],[12.44599768,55.73076891],[12.44600234,55.73074792],[12.44686926,55.73034933],[12.44690959,55.73031333],[12.4468516,55.72980438],[12.44689959,55.72977572],[12.45103132,55.72812897],[12.45106931,55.72808331],[12.44992907,55.72706476],[12.44987508,55.72701077],[12.44956311,55.72651017],[12.44954845,55.72645751],[12.44949551,55.72323885],[12.44949185,55.72317919],[12.44921037,55.72096607],[12.4492237,55.72092707],[12.45312675,55.72111686],[12.45320008,55.72110187],[12.4533274,55.72099688],[12.45334239,55.72095088],[12.45367059,55.71942338],[12.45371425,55.71938205],[12.45705802,55.71801823],[12.45710868,55.71798657],[12.45751793,55.71723398],[12.45752793,55.71719532],[12.457171,55.71689007],[12.45715901,55.71686074],[12.45748297,55.71657446],[12.45750363,55.71653347],[12.45758523,55.71579688],[12.45758224,55.71574988],[12.45731035,55.71477365],[12.45729669,55.71474699],[12.45667909,55.71407874],[12.45669208,55.71403208],[12.45758268,55.71343417],[12.45764734,55.71340151],[12.4599035,55.71244235],[12.45995983,55.71240836],[12.4601818,55.71220738],[12.46020879,55.71216205],[12.46032474,55.71169477],[12.46031508,55.71164944],[12.45582622,55.70831858],[12.45578423,55.70827792],[12.45583923,55.70807028],[12.45588889,55.70803629],[12.4568198,55.70763269],[12.45682046,55.7076077],[12.45529193,55.7068295],[12.45522027,55.7067905],[12.45380406,55.70571962],[12.45379573,55.70570996],[12.45363746,55.70527036],[12.4536318,55.7052177],[12.45356361,55.70352485],[12.45355028,55.70346652],[12.45306703,55.70263292],[12.4530117,55.70257959],[12.45159422,55.70137549],[12.45155823,55.70134816],[12.45098027,55.70122521],[12.45090894,55.70120422],[12.45051465,55.70094759],[12.45046565,55.70090826],[12.44963707,55.70018166],[12.44959441,55.70013333],[12.44870755,55.6988998],[12.44866222,55.69885647],[12.44684472,55.6975603],[12.44679106,55.69751397],[12.44474195,55.69571886],[12.44469896,55.6956782],[12.44379843,55.694639],[12.44375277,55.69459934],[12.44198658,55.69348547],[12.44192858,55.69344147],[12.43889159,55.6909825],[12.43882426,55.69092317],[12.43790738,55.6898513],[12.43786439,55.68981497],[12.43634086,55.68882143],[12.43630153,55.68878144],[12.4344602,55.68616406],[12.43443121,55.68611873],[12.4338567,55.68494584],[12.43382904,55.68490585],[12.43231822,55.68351868],[12.43228989,55.68347835],[12.43102255,55.68139067],[12.43100189,55.68135234],[12.43036546,55.67976655],[12.43033746,55.67972589],[12.42881729,55.67826139],[12.42879196,55.67821906],[12.42831507,55.67720283],[12.42829707,55.67715517],[12.42796055,55.67583066],[12.42794255,55.67579],[12.42682643,55.67389622],[12.42681477,55.67384756],[12.42685138,55.67205371],[12.42684639,55.67200938],[12.4264292,55.67098051],[12.42641854,55.67094485],[12.42629267,55.67011095],[12.42629201,55.67007195],[12.42666388,55.66928776],[12.42667321,55.6692591],[12.42675013,55.66834823],[12.4267468,55.66830423],[12.42606225,55.66702036],[12.42605026,55.66697303],[12.42609587,55.6656775],[12.4261012,55.66562584],[12.42634283,55.66532222],[12.42640816,55.66531323],[12.4304032,55.66516318],[12.43040353,55.66512152],[12.4301039,55.66492622],[12.43004524,55.66492256],[12.4262505,55.66501069],[12.42622117,55.66498203],[12.42578678,55.66225101],[12.42578345,55.66220435],[12.42622992,55.66068824],[12.42623425,55.66069657],[12.42591787,55.65905712],[12.42591521,55.65901479],[12.42604344,55.65756498],[12.42604011,55.65752732],[12.42569058,55.6565901],[12.42567859,55.6565481],[12.42555938,55.65552055],[12.42555472,55.65547589],[12.42547619,55.65453766],[12.42547685,55.654492],[12.42560445,55.65403608],[12.42560045,55.65401642],[12.42060127,55.6531272],[12.42057994,55.65312454],[12.42081053,55.65207],[12.4207662,55.65203934],[12.41734737,55.65125591],[12.41732204,55.65122592],[12.4177203,55.65061966],[12.41772163,55.65057433],[12.4171422,55.64834259],[12.41713954,55.6483016],[12.4174628,55.64785066],[12.41746779,55.64780767],[12.41736025,55.64575123],[12.41735892,55.64571157],[12.41744223,55.64534929],[12.41743957,55.64530563],[12.41734802,55.64430472],[12.41733936,55.64427439],[12.41687311,55.64407315],[12.41687211,55.64404615],[12.4171666,55.64273264],[12.41717193,55.64269564],[12.41715929,55.64169574],[12.41716562,55.64164441],[12.41767111,55.64013925],[12.41765812,55.64012259],[12.41726182,55.64014291],[12.41720849,55.64013325],[12.41718083,55.63996662],[12.4171595,55.63993962],[12.41679186,55.63991163],[12.41671587,55.63991329],[12.40503982,55.64054935],[12.40494383,55.64055034],[12.40168302,55.64012959],[12.40165636,55.64012126],[12.40143051,55.63794815],[12.40142351,55.63789449],[12.40110696,55.63669661],[12.40108763,55.63664628],[12.40030446,55.63523079],[12.40027547,55.63518813],[12.39934393,55.6341106],[12.39930227,55.63406894],[12.39800871,55.63298871],[12.39795671,55.63295005],[12.39213722,55.62882384],[12.39208789,55.62878884],[12.39165863,55.62811124],[12.39159364,55.62806325],[12.39053203,55.62763968],[12.3904777,55.62760802],[12.38830093,55.62603792],[12.38829227,55.62603159],[12.387742,55.62622252],[12.38770634,55.62621253],[12.3856852,55.62457671],[12.38562787,55.62453205],[12.38266744,55.62244493],[12.38260444,55.6223966],[12.38151753,55.62148202],[12.38146187,55.62142902],[12.38064663,55.62052978],[12.38060597,55.62048079],[12.3795008,55.61877961],[12.3794778,55.61873928],[12.37958745,55.61854965],[12.37957312,55.61851965],[12.37914651,55.6180607],[12.37909785,55.61802071],[12.37817559,55.61745777],[12.37810493,55.61742911],[12.37660136,55.61698087],[12.3765157,55.61694821],[12.37445984,55.61600168],[12.37437751,55.61596902],[12.36574431,55.61271113],[12.36574298,55.6127108],[12.3614207,55.61050949],[12.36135604,55.61047416],[12.3588419,55.60882772],[12.3587999,55.60880372],[12.3584243,55.608876],[12.35840197,55.608863],[12.35838398,55.60884834],[12.35890197,55.60900534],[12.35864404,55.60871175],[12.35860838,55.60867809],[12.3567939,55.60722526],[12.35673891,55.60717693],[12.35118448,55.60211358],[12.35113649,55.60206559],[12.34723891,55.59759839],[12.34718258,55.59754473],[12.3441912,55.59503196],[12.34413421,55.5949873],[12.34228137,55.59378213],[12.34221537,55.59374447],[12.3351642,55.59041031],[12.33507554,55.59037665],[12.3192584,55.58521554],[12.31917374,55.58518888],[12.31282816,55.58298923],[12.3127335,55.58295724],[12.3089334,55.58181479],[12.30884041,55.58178346],[12.30261181,55.57938154],[12.30253682,55.57935088],[12.29795309,55.57713792],[12.29789176,55.57710626],[12.29434177,55.57503027],[12.29429044,55.57500428],[12.28369257,55.56989135],[12.28366591,55.56987535],[12.28437516,55.56991802],[12.28441982,55.56990269],[12.28564265,55.56894487],[12.28564431,55.56894088],[12.28452612,55.56982007],[12.28448313,55.56984873],[12.28415284,55.56989138],[12.28409718,55.56987005],[12.28128474,55.568484],[12.28122775,55.56845767],[12.28071681,55.56842967],[12.28067015,55.56841334],[12.27363274,55.56510929],[12.27358108,55.5650863],[12.27293946,55.56495701],[12.27288647,55.56493135],[12.27266916,55.56474205],[12.2726615,55.56470705],[12.2728788,55.56445741],[12.27287913,55.56442475],[12.27240252,55.56417547],[12.27239552,55.56415047],[12.27294108,55.56377322],[12.27295307,55.56376423],[12.27238316,55.56413812],[12.2723345,55.56414878],[12.27165657,55.56402848],[12.27159857,55.56400682],[12.26802617,55.5624831],[12.26795784,55.56245277],[12.26464903,55.56086265],[12.26455703,55.56082532],[12.25698817,55.5582632],[12.25691517,55.55823421],[12.25209381,55.55578528],[12.25202582,55.55574595],[12.24118708,55.54899593],[12.24113508,55.54896093],[12.23767377,55.5462043],[12.23768977,55.54620929],[12.23776941,55.54630394],[12.23776341,55.54632594],[12.23749378,55.54637958],[12.23746245,55.54635725],[12.23384954,55.54325132],[12.23380688,55.54321599],[12.2334229,55.54308235],[12.23336957,55.54305102],[12.23325493,55.54280538],[12.23321894,55.54276672],[12.23267768,55.54235877],[12.23263568,55.54231878],[12.22969378,55.53922145],[12.22965512,55.53918046],[12.22690944,55.53669012],[12.22685978,55.53665479],[12.22542728,55.53515163],[12.22538195,55.5351083],[12.22194402,55.53232534],[12.22190203,55.53229068],[12.21967305,55.52951207],[12.21963906,55.52947641],[12.21713116,55.52579776],[12.2170935,55.52574843],[12.21492309,55.52316535],[12.21488609,55.52312236],[12.21338428,55.52155621],[12.21333762,55.52151355],[12.21086386,55.51930179],[12.2108302,55.51927113],[12.21039059,55.51902319],[12.21038726,55.51902053],[12.21135584,55.51892191],[12.21140517,55.51889792],[12.21149082,55.51880093],[12.21148949,55.51876394],[12.21132686,55.51847964],[12.21131153,55.51844198],[12.21138119,55.51835533],[12.21143485,55.51833867],[12.2156262,55.51727433],[12.21570053,55.51725633],[12.21959149,55.51646403],[12.21984148,55.51641604],[12.21485827,55.51747663],[12.21481661,55.51746963],[12.21251609,55.51524667],[12.21249743,55.51522701],[12.21069308,55.51369368],[12.21068575,55.51368868],[12.20918527,55.51425215],[12.20914527,55.51424182],[12.20617268,55.51161121],[12.20611802,55.51158155],[12.20585604,55.51157456],[12.20579438,55.51159489],[12.20460416,55.51209678],[12.2045655,55.51207645],[12.20359738,55.51069494],[12.20357472,55.51065495],[12.20315089,55.50943746],[12.20313489,55.5093988],[12.2023331,55.50782169],[12.2023071,55.5077837],[12.19947725,55.50419314],[12.19944492,55.50415148],[12.19632709,55.4999003],[12.1962931,55.49985897],[12.1958672,55.49935641],[12.19586786,55.49935575],[12.19534127,55.49938239],[12.19530694,55.49936606],[12.19477405,55.49863381],[12.19473872,55.49858615],[12.19343459,55.49671471],[12.19339993,55.49666971],[12.19251876,55.49498355],[12.19249443,55.49493955],[12.18690551,55.48343694],[12.18688652,55.48340028],[12.18152089,55.47189779],[12.18149289,55.47184446],[12.18125229,55.47149951],[12.18126595,55.47148985],[12.1812816,55.47164115],[12.18124994,55.47164948],[12.18053203,55.4715812],[12.18051103,55.47159253],[12.18077558,55.47224507],[12.18077891,55.4722664],[12.18064695,55.47247001],[12.18063595,55.47247134],[12.18074256,55.4722827],[12.18074789,55.4722507],[12.18063764,55.47168145],[12.18062831,55.47164879],[12.17999554,55.47023433],[12.17999055,55.47020467],[12.18039583,55.46992973],[12.18043016,55.4699034],[12.18046282,55.46974909],[12.18044882,55.46971476],[12.17294768,55.45625077],[12.17293068,55.45620978],[12.17269377,55.45535285],[12.17268677,55.45530719],[12.17270812,55.45424929],[12.17271745,55.4542083],[12.174183,55.45119242],[12.17420299,55.45115843],[12.17442222,55.45042354],[12.17442855,55.45038588],[12.17441794,55.44937067],[12.17441128,55.44933068],[12.17406106,55.44836947],[12.17404307,55.44833414],[12.17302227,55.44707969],[12.17293428,55.44699403],[12.16182041,55.43653701],[12.16178341,55.43650268],[12.16114481,55.43594309],[12.16108682,55.43590509],[12.16062784,55.4357468],[12.16057051,55.43570681],[12.16042653,55.43528486],[12.1603892,55.43524153],[12.15877977,55.43367173],[12.15875411,55.43364707],[12.14502904,55.42085024],[12.14502138,55.42084124],[12.14676502,55.41942489],[12.14678535,55.41940289],[12.14761306,55.41761647],[12.14763672,55.41757381],[12.14844261,55.41653493],[12.14845427,55.41649893],[12.1483143,55.41638063],[12.1482673,55.41636997],[12.14647745,55.41605343],[12.14645546,55.4160241],[12.14704875,55.41433419],[12.14705408,55.41430586],[12.14684128,55.41309137],[12.14682328,55.41306171],[12.14166737,55.41248713],[12.14162071,55.41250079],[12.14112837,55.41454384],[12.14111404,55.41457617],[12.14079776,55.41486348],[12.1407511,55.41488714],[12.13967387,55.41525869],[12.13964087,55.41528235],[12.1399671,55.41566717],[12.13992811,55.41565618],[12.14017073,55.41553226],[12.14017472,55.4155276],[12.14014673,55.41555625],[12.13979607,55.41552759],[12.13893119,55.41468573],[12.13890053,55.4146524],[12.13860793,55.41425147],[12.13859193,55.41422114],[12.138496,55.41393885],[12.13849101,55.41391219],[12.13856997,55.4137659],[12.13858663,55.4137639],[12.13803935,55.41382387],[12.13801102,55.41380854],[12.13538443,55.41128894],[12.13537543,55.41127494],[12.13494149,55.41123862],[12.13487783,55.41121829],[12.13449854,55.41091833],[12.13445254,55.410877],[12.11579674,55.39326509],[12.11574808,55.39321876],[12.10234839,55.38076795],[12.1023124,55.38073296],[12.10214043,55.38053166],[12.1021221,55.380504],[12.10220109,55.38045601],[12.10224209,55.38047467],[12.10298563,55.3810949],[12.10303729,55.38109457],[12.10493278,55.38055776],[12.10493611,55.3805561],[12.10295161,55.38109127],[12.10291962,55.38107894],[12.10140214,55.3798598],[12.10134781,55.37981547],[12.09844613,55.37710246],[12.0984138,55.37707446],[12.09809386,55.37694717],[12.09808653,55.37694018],[12.09844749,55.37696119],[12.09849148,55.37699585],[12.10290105,55.38106971],[12.10295305,55.38108871],[12.10403296,55.38072811],[12.10411829,55.38070878],[12.10787107,55.38005431],[12.10795373,55.38003032],[12.11122582,55.37864922],[12.11126048,55.37861723],[12.11171464,55.37727612],[12.1117303,55.37724046],[12.11247243,55.37586367],[12.11250043,55.37581701],[12.1128157,55.37531142],[12.11284836,55.37527376],[12.11353563,55.37485948],[12.11356363,55.37481315],[12.11365627,55.37385992],[12.11367526,55.37380959],[12.11421883,55.3729407],[12.11423849,55.37290337],[12.1149043,55.37139322],[12.11492796,55.37135156],[12.11668734,55.36934452],[12.116695,55.36930453],[12.11402441,55.36354229],[12.11400508,55.36350029],[12.11324161,55.36216613],[12.11322728,55.36213447],[12.11266792,55.35990049],[12.11267925,55.35986516],[12.11986993,55.35716586],[12.11995092,55.35713953],[12.12149116,55.35716451],[12.12154482,55.35714651],[12.12227366,55.35628365],[12.12230432,55.35626199],[12.12418244,55.35539351],[12.1242201,55.35536885],[12.12444807,55.35512223],[12.12446673,55.3550899],[12.12540631,55.35282698],[12.12541231,55.35279032],[12.12481547,55.35136385],[12.12479514,55.35131986],[12.12403955,55.35075026],[12.12400556,55.3507116],[12.12226664,55.34824099],[12.12221464,55.34821966],[12.1208814,55.34826861],[12.1207834,55.34828494],[12.11848853,55.34887849],[12.1184012,55.34889149],[12.11649331,55.34895643],[12.11642898,55.3489241],[12.11560778,55.34814154],[12.11556345,55.34810854],[12.11331867,55.34667311],[12.11327601,55.34664112],[12.1120972,55.34549828],[12.11207954,55.34548162],[12.11113802,55.34479543],[12.11110903,55.3447651],[12.1109684,55.34453548],[12.11096873,55.34450715],[12.11125264,55.34404223],[12.1112613,55.34402057],[12.11133253,55.34357533],[12.11134653,55.34357367],[12.11115931,55.34426518],[12.11113198,55.34430484],[12.1106507,55.34456946],[12.1105867,55.34457612],[12.09342981,55.34485304],[12.09336615,55.34484804],[12.09320952,55.34467673],[12.09320985,55.34463773],[12.09344056,55.34245344],[12.09341456,55.34241845],[12.09304693,55.34225548],[12.0929816,55.34224148],[12.0900565,55.34172864],[12.09003584,55.34170231],[12.08945397,55.3379388],[12.0894563,55.3379038],[12.08954159,55.33773817],[12.08957492,55.33770884],[12.09075809,55.33694867],[12.09076742,55.33691468],[12.09005894,55.33266961],[12.09005927,55.33263462],[12.09123892,55.33044364],[12.09125258,55.33040864],[12.09105238,55.32939782],[12.09105338,55.32936783],[12.09131961,55.3288696],[12.09133561,55.32884761],[12.09153457,55.32873564],[12.09158523,55.32872798],[12.09427933,55.32851254],[12.09434666,55.32850488],[12.10023919,55.32769735],[12.10025585,55.32766135],[12.09975435,55.32605454],[12.09974569,55.32600488],[12.09969743,55.3239711],[12.09968877,55.32392511],[12.0995318,55.32371913],[12.09947681,55.32368647],[12.09854988,55.32327188],[12.09852489,55.32322755],[12.09858852,55.32270794],[12.09858486,55.32266728],[12.09831698,55.32179144],[12.09831065,55.32175811],[12.0983373,55.32118689],[12.09832964,55.32115256],[12.09813404,55.32067595],[12.09811705,55.32064062],[12.09603035,55.31897592],[12.09598669,55.31893293],[12.09565578,55.31813036],[12.09564745,55.31809637],[12.09567477,55.31751579],[12.09568877,55.31747079],[12.09710823,55.31394231],[12.09712256,55.31391032],[12.09733374,55.31293116],[12.09733907,55.3129025],[12.09699282,55.31257357],[12.09698116,55.31257124],[12.09642647,55.31284456],[12.09642713,55.31284522],[12.09640252,55.3127443],[12.09640785,55.3127223],[12.09701643,55.31258836],[12.09704076,55.31260169],[12.09736401,55.31289393],[12.09736867,55.31291859],[12.09733738,55.3136058],[12.09732805,55.31363179],[12.09706042,55.31372676],[12.09700543,55.31372775],[12.09380998,55.31355998],[12.09373999,55.31355399],[12.08458639,55.31246601],[12.08452706,55.31245968],[12.08007401,55.31217533],[12.07999268,55.31217067],[12.07646456,55.31211212],[12.07638823,55.31211345],[12.06832256,55.31255311],[12.06827723,55.31255377],[12.06749866,55.3125458],[12.067496,55.31254613],[12.06714473,55.31230587],[12.06711473,55.31229287],[12.06669814,55.31230123],[12.06665481,55.31229257],[12.06639519,55.31214761],[12.06639319,55.31212528],[12.06655139,55.31161139],[12.06657538,55.3116084],[12.06704099,55.31168335],[12.06688199,55.31225968],[12.06791554,55.31249423],[12.06799187,55.31249922],[12.07614976,55.312077],[12.07624309,55.31207301],[12.07951621,55.312087],[12.07959287,55.31209033],[12.08423961,55.31237741],[12.08430661,55.3123834],[12.0932114,55.31344746],[12.09329539,55.31345646],[12.09685647,55.31367057],[12.09692247,55.3136709],[12.09717878,55.31358992],[12.09720311,55.31356026],[12.09736402,55.31290538],[12.09735602,55.31287038],[12.09686642,55.31254481],[12.09685776,55.31254015],[12.09694374,55.3125245],[12.09695807,55.31251451],[12.09688576,55.31236087],[12.09686376,55.31232754],[12.09647648,55.31203191],[12.09645115,55.31200558],[12.09628457,55.31167633]]}}]}