{"type":"FeatureCollection","features":[{"type":"Feature","properties":{"name":"20260421 Cicloturismo","time":"2026-04-21T07:39:25Z"},"geometry":{"type":"LineString","coordinates":[[12.09623833,55.31215766,19],[12.09615541,55.31237858,19.13],[12.09615607,55.31239824,19.26],[12.09636522,55.31330371,21.86],[12.09635789,55.31331937,21.8],[12.09632288,55.31285916,21],[12.09633754,55.31283883,21],[12.09728443,55.31268487,21],[12.09730976,55.31265887,21],[12.09748201,55.31188994,20.06],[12.09748035,55.31182961,20],[12.09719209,55.31100068,20.86],[12.09717243,55.31094902,20.86],[12.09674316,55.31020907,19.53],[12.0966965,55.31015674,19.4],[12.09494101,55.30862691,19.93],[12.09491202,55.30857691,19.86],[12.09426024,55.30566352,23],[12.09423891,55.30560686,22.93],[12.09270215,55.30304847,20.93],[12.09264482,55.30300314,21.13],[12.0923085,55.3029145,21.6],[12.09221517,55.30291549,21.53],[12.08699114,55.30340953,24.53],[12.08691548,55.30341252,24.66],[12.08307845,55.30330941,27.8],[12.08299345,55.30329942,27.66],[12.08269014,55.30313644,26.8],[12.08265915,55.30309144,26.66],[12.08123178,55.30031106,28.06],[12.08121345,55.30025706,28.06],[12.08139276,55.29990477,28.4],[12.08145009,55.29986378,28.46],[12.08650397,55.29652288,27.86],[12.0865573,55.29648755,27.66],[12.08781955,55.29637522,24.66],[12.08785788,55.29632822,24.6],[12.08868088,55.29329088,31.4],[12.08867922,55.29324922,31.46],[12.08728986,55.28386816,34.33],[12.08728853,55.28383883,34.33],[12.08743118,55.28371319,34.46],[12.08748784,55.28369553,34.46],[12.0896293,55.28315836,37.26],[12.08964263,55.28312137,37.2],[12.08885519,55.28127626,38.59],[12.0888242,55.28124293,38.33],[12.08811929,55.28072735,32.66],[12.08802929,55.28068035,32.26],[12.08686433,55.28027507,31.73],[12.08676134,55.28022474,31.86],[12.08624872,55.27979044,33.59],[12.08619506,55.27972311,33.8],[12.08200576,55.27319049,38.93],[12.08197276,55.27313583,39.06],[12.08192837,55.27176164,41.46],[12.08192338,55.27171731,41.66],[12.08149999,55.26962152,43.53],[12.08149233,55.26957652,43.8],[12.08042897,55.26670648,43.73],[12.08041931,55.26666182,43.93],[12.08042958,55.26538129,40.4],[12.08040759,55.26532529,40.4],[12.07689015,55.26407719,41.13],[12.07682249,55.26404919,41.13],[12.07432801,55.26275974,43.86],[12.07427068,55.26273174,43.8],[12.07337341,55.26240047,42.13],[12.07329475,55.26238081,42],[12.07050961,55.26198566,40.13],[12.07041662,55.26197967,40.13],[12.06776344,55.26208355,42.2],[12.06769078,55.26208355,42.33],[12.06652253,55.26197298,42.86],[12.0664672,55.26194465,42.6],[12.06298408,55.25646954,40.93],[12.06295875,55.25644221,41.06],[12.05771841,55.25630388,36.93],[12.05766542,55.25627855,36.73],[12.04997274,55.24905424,42.13],[12.04991575,55.24902891,42.2],[12.04753464,55.24868014,49.66],[12.04749365,55.24867081,49.73],[12.04461132,55.24763379,55.66],[12.04456466,55.2476238,55.8],[12.04202896,55.2474104,63.26],[12.0419793,55.2474034,63.33],[12.03973823,55.24688729,69.6],[12.03969157,55.2468803,69.6],[12.03930096,55.24688698,69.6],[12.0392793,55.24690664,69.53],[12.03921938,55.24739889,68],[12.03921105,55.24742922,68],[12.03907878,55.24756714,68.33],[12.03907812,55.24756681,68.4],[12.03923903,55.24662928,70.73],[12.03925402,55.24658395,70.8],[12.03983586,55.2453491,69.46],[12.03987219,55.24529877,69.4],[12.04307151,55.24223376,66.93],[12.04306385,55.24218777,66.86],[12.04114797,55.24144056,66.46],[12.04108931,55.24139257,66.66],[12.03960317,55.23964808,68.06],[12.03955384,55.23959975,68],[12.03626278,55.23669372,65.33],[12.03620045,55.23662706,65.46],[12.03365986,55.23312416,70.73],[12.0336102,55.2330775,70.8],[12.03090981,55.23163711,78.06],[12.03085082,55.23160011,78.06],[12.02795746,55.22951708,79.73],[12.02794146,55.22947375,80],[12.02822708,55.22912345,81.86],[12.02828474,55.22908946,82.2],[12.02975992,55.22844929,85],[12.02977258,55.22841429,85],[12.02935568,55.22773139,87.2],[12.02932768,55.22769773,87.33],[12.0281172,55.22645027,93.8],[12.02812886,55.22641894,93.73],[12.02924007,55.22607271,89.86],[12.02928906,55.22604238,89.93],[12.02986467,55.22545145,90.33],[12.02991866,55.22541012,90.33],[12.03105619,55.22476957,91],[12.03106619,55.22476757,91],[12.03190341,55.22407101,92.06],[12.03191974,55.22401635,92.26],[12.0318522,55.22168192,92.33],[12.0318612,55.22161126,92.33],[12.03249106,55.22002405,88.8],[12.03251706,55.21994572,88.6],[12.03263669,55.21923043,86.4],[12.0326317,55.2191621,86.26],[12.03229358,55.21614437,86],[12.03228392,55.21610271,85.93],[12.03092035,55.21223176,79.4],[12.03092601,55.2121541,79.19],[12.03174793,55.2110155,77.8],[12.03178659,55.21094684,77.66],[12.03238948,55.20928229,72],[12.03241347,55.20920163,72],[12.03246118,55.20693748,67.19],[12.03249851,55.20687549,66.93],[12.03505965,55.20518037,64.66],[12.03512164,55.20513471,64.8],[12.03557693,55.20459707,67.6],[12.03560859,55.20453341,67.93],[12.03566824,55.20415478,68.93],[12.03565791,55.20409445,69.06],[12.03526102,55.20275591,66],[12.03528568,55.20271925,65.66],[12.03857251,55.20242367,63],[12.03866984,55.20241668,63],[12.04040139,55.20240632,62.13],[12.04045405,55.20238232,62.06],[12.04052803,55.20206336,62],[12.04052004,55.20202203,62],[12.04012048,55.20127883,60.2],[12.04010448,55.2012415,60.06],[12.04013279,55.20092754,58.8],[12.04015245,55.20089121,58.6],[12.04188093,55.19953073,53],[12.04194626,55.19947107,53],[12.04284752,55.19839748,52.8],[12.04287685,55.19833048,52.73],[12.04288551,55.19805983,51.93],[12.04286152,55.1979945,51.66],[12.04250992,55.19735955,48.6],[12.04248692,55.19728722,48.4],[12.04254424,55.19676825,46.8],[12.04258424,55.19669426,46.66],[12.04722478,55.19216239,40.8],[12.04727844,55.1921144,40.53],[12.04769841,55.19203608,39],[12.04778707,55.19205541,38.8],[12.05041225,55.19301593,36],[12.05048791,55.19304459,35.93],[12.05087355,55.1930146,35.59],[12.05094021,55.19297727,35.46],[12.05533361,55.19008752,24.33],[12.05539394,55.19002419,24.2],[12.05614959,55.18642919,11.13],[12.05616559,55.18635786,10.93],[12.05693418,55.18546626,9.2],[12.05700284,55.18540226,9.13],[12.05773314,55.18504229,8.13],[12.0578388,55.18500996,8],[12.05889443,55.18483034,5.93],[12.05898042,55.18479535,5.73],[12.05935504,55.18428307,4.13],[12.05942604,55.18423774,4.13],[12.06080696,55.18379416,5.53],[12.06088396,55.18375316,5.53],[12.06162354,55.1829819,4.66],[12.06169053,55.18293924,4.66],[12.06312845,55.18252167,4.33],[12.06314978,55.18249367,4.26],[12.06175362,55.18106781,1.2],[12.06171063,55.18103481,1.46],[12.05890391,55.17947644,7.53],[12.05885158,55.17944011,7.4],[12.0570294,55.17797027,4.13],[12.05697474,55.17792361,4.26],[12.05497026,55.17606783,2.4],[12.05492126,55.17602917,2.6],[12.0529731,55.17485001,1.26],[12.0529031,55.17481702,1.2],[12.05046657,55.17395584,2.8],[12.05037257,55.17393151,2.86],[12.04118547,55.17188479,2.26],[12.04110014,55.1718658,2.6],[12.03921226,55.17133726,5.6],[12.03914493,55.17131393,5.6],[12.03693643,55.17028808,6.06],[12.03687577,55.17025442,6.13],[12.03531757,55.16917889,3],[12.03525291,55.1691389,2.86],[12.03279641,55.16776537,1.86],[12.03269975,55.16772071,1.73],[12.03205379,55.1674894,2],[12.03193613,55.16746207,2.06],[12.02848831,55.16676193,0.6],[12.02840765,55.16673627,0.6],[12.02713442,55.16591773,1.93],[12.02707142,55.1658824,2],[12.02527222,55.16515552,1.4],[12.02521122,55.16511719,1.46],[12.0230321,55.16348005,0.33],[12.02298477,55.16344139,0.4],[12.02163463,55.16209326,2.8],[12.0216023,55.16205326,2.8],[12.02074813,55.16076107,1.4],[12.02072313,55.16071741,1.46],[12.01932276,55.15790305,3.73],[12.01929676,55.15786205,3.93],[12.01862723,55.15698017,7.66],[12.0185919,55.15694017,7.6],[12.01773067,55.15608994,2.26],[12.01769001,55.15603761,2.2],[12.01637421,55.15409813,2],[12.01633188,55.1540498,2.13],[12.01529263,55.15326758,2.06],[12.01524997,55.15322825,2],[12.01456074,55.15216371,2.6],[12.01452441,55.15212338,2.46],[12.01300757,55.15076518,1.6],[12.01295658,55.15072418,1.46],[12.0107864,55.1496567,0.4],[12.01072374,55.14962471,0.46],[12.00977084,55.14896283,0.6],[12.00973085,55.14892517,0.66],[12.00755157,55.14563726,-0.06],[12.00753991,55.14560226,-0.13],[12.00740295,55.14506535,-1],[12.00739862,55.14506269,-1],[12.00780957,55.14493206,-1],[12.00786123,55.14491673,-1],[12.01170829,55.14455068,0.2],[12.01177062,55.14454269,0.26],[12.01264155,55.14438178,1.26],[12.01269654,55.14436679,1.26],[12.01318848,55.14413217,1.8],[12.01322181,55.14410784,1.8],[12.01366334,55.1434703,4.93],[12.013682,55.14343597,5.06],[12.0149923,55.14079367,9.8],[12.01501629,55.14075934,9.93],[12.01812773,55.13726755,17],[12.01812107,55.13728288,17],[12.01794514,55.13746715,17],[12.01794481,55.13745749,17],[12.01822505,55.13689324,18.6],[12.01823405,55.13684791,18.66],[12.01822972,55.13599502,16.6],[12.01823872,55.13595803,16.46],[12.0188472,55.13440828,18.13],[12.01887386,55.13437995,18.4],[12.01965382,55.13421069,19.4],[12.01971248,55.13418336,19.33],[12.02309755,55.13239795,12.4],[12.02319188,55.13235795,12.6],[12.02543773,55.13176876,8.46],[12.02552606,55.1317411,8.53],[12.02807721,55.13082728,10.26],[12.02812854,55.13079962,10.2],[12.02814987,55.13031902,9.8],[12.0281832,55.13027869,9.73],[12.03008831,55.12843688,5.2],[12.03014497,55.12838622,5],[12.0312512,55.12757896,2.6],[12.03131653,55.12754096,2.46],[12.03219947,55.12719537,1.26],[12.03224546,55.12714637,1.26],[12.03332386,55.12437795,0.8],[12.03335186,55.12432629,0.93],[12.03499795,55.12248689,1.46],[12.03502361,55.1224549,1.46],[12.03512953,55.12196929,1.26],[12.03514619,55.12193396,1.33],[12.03546248,55.12155737,1.73],[12.03547814,55.12154137,1.8],[12.03624704,55.12121316,2.33],[12.03625437,55.12120683,2.4],[12.03580243,55.12156111,2.66],[12.03582843,55.12157977,2.6],[12.03891047,55.12253015,1.53],[12.03895346,55.12254481,1.53],[12.04094687,55.12340421,2],[12.04097553,55.12341587,1.93],[12.04092354,55.12357516,1],[12.04089288,55.12359782,1],[12.04048128,55.12374378,1],[12.04048028,55.12374378,1],[12.04069693,55.12371647,1.13],[12.04072826,55.12370247,1.2],[12.04092455,55.12344825,3.93],[12.04094188,55.12343392,4.19],[12.04166408,55.12300939,6],[12.04168641,55.1229914,6],[12.04221126,55.1222862,7.86],[12.04222192,55.12226454,7.73],[12.04061719,55.12155745,3.73],[12.04058219,55.12154546,3.73],[12.03756392,55.12067682,3.93],[12.03752859,55.12067116,3.8],[12.03670302,55.12108874,1.2],[12.03670335,55.1211024,1.06],[12.03874743,55.1217432,0.06],[12.03875276,55.1217732,0.13],[12.03822417,55.12153758,0.73],[12.03816517,55.12152025,0.66],[12.03763388,55.12150259,0.33],[12.03757722,55.12148459,0.4],[12.03677294,55.12110633,2.2],[12.03673595,55.12110034,2.26],[12.03577672,55.12153556,1.53],[12.03572573,55.12154756,1.53],[12.03495749,55.12132999,2.86],[12.03492816,55.12130633,2.93],[12.03506112,55.12103405,3.4],[12.03509812,55.12100239,3.46],[12.03602803,55.12038649,2.8],[12.03603369,55.1203385,2.8],[12.03563876,55.11957525,3.33],[12.03561877,55.11952359,3.4],[12.03493396,55.11743105,4.13],[12.03490663,55.11737539,4.19],[12.03394705,55.11641282,2.2],[12.03391339,55.11636849,2.06],[12.0330182,55.11473232,2.8],[12.03296787,55.11467199,2.93],[12.03036351,55.1120953,4.19],[12.03034318,55.11206064,4.26],[12.03039117,55.11193232,4.33],[12.03042916,55.11190766,4.26],[12.03327492,55.11034562,3.46],[12.03329725,55.11030096,3.46],[12.03325228,55.10990068,3.6],[12.03323228,55.10985935,3.66],[12.03240577,55.10871617,8.66],[12.03239278,55.10867751,8.8],[12.03226493,55.10696741,14.2],[12.03225827,55.10693542,14.4],[12.03308378,55.10627755,17.93],[12.03311477,55.10624955,18],[12.03330173,55.10596627,18.93],[12.03330873,55.10593161,19],[12.03297456,55.10479648,23.4],[12.03297323,55.10476448,23.33],[12.03319496,55.10216354,28.33],[12.03319063,55.10212288,28.46],[12.0326401,55.10082468,26.33],[12.03259911,55.10076502,26.26],[12.03101759,55.09894084,26.2],[12.03097259,55.09888418,26.2],[12.02987904,55.09715033,26.06],[12.02983804,55.09709334,26],[12.02859084,55.09563713,25.73],[12.02855285,55.09557613,25.6],[12.02822091,55.09471221,25.13],[12.02820925,55.09464488,25.06],[12.02819592,55.09344697,26.73],[12.02819958,55.09339531,26.86],[12.02937868,55.08807985,30.66],[12.02940367,55.08802185,30.66],[12.03123772,55.08466082,25.8],[12.03128138,55.08459816,25.86],[12.03274325,55.08348959,26.33],[12.03274325,55.08345593,26.13],[12.03095534,55.08302701,26.66],[12.03089201,55.08299368,26.6],[12.0284659,55.08116625,27.13],[12.02840924,55.08112326,27.26],[12.02786597,55.08085529,26.66],[12.02779531,55.08083296,26.46],[12.02284767,55.07957597,22.8],[12.02277734,55.07956464,22.86],[12.02183276,55.07952168,24.8],[12.02176343,55.07952467,24.93],[12.02059518,55.07968626,24.73],[12.02051185,55.07968892,24.6],[12.02004454,55.07959429,25],[12.01997621,55.07956696,25.06],[12.00953292,55.0746697,48.73],[12.00949326,55.07465137,48.8],[12.00887101,55.07439545,48.26],[12.00883568,55.07439145,48.2],[12.00863208,55.07457306,48.46],[12.00864108,55.07458639,48.46],[12.0088077,55.07453107,48.4],[12.00896936,55.07444474,48.33],[12.00889571,55.07432244,48],[12.0089057,55.07428778,48],[12.00913233,55.07391582,48.13],[12.00913666,55.07387583,48.2],[12.00902005,55.07352689,48.46],[12.00897039,55.07351123,48.46],[12.00431831,55.07298017,39.8],[12.00415765,55.07296984,39.53],[12.00088346,55.07281498,38.2],[12.0007728,55.07281132,38],[11.99848488,55.07287129,35.33],[11.99836555,55.07283996,35.13],[11.99803491,55.07261399,34.59],[11.99798358,55.07254366,34.66],[11.99623529,55.06975299,49.53],[11.99621596,55.06973033,49.53],[11.99419792,55.0681026,52.53],[11.99414259,55.06807061,52.4],[11.99358631,55.06791399,51.93],[11.99351165,55.06790633,52.06],[11.98995726,55.0677376,58.06],[11.98987527,55.06772127,58],[11.98802042,55.06676876,61.8],[11.98798542,55.06675343,62],[11.98635588,55.06633956,57.73],[11.98627422,55.06631456,57.8],[11.98507397,55.06585366,58.86],[11.98502697,55.06582467,59],[11.98338582,55.06457351,63.93],[11.98333549,55.06453985,64.06],[11.97872833,55.06178463,65.19],[11.97866467,55.06172863,65.19],[11.97805874,55.06073871,61.53],[11.97800408,55.06066505,61.26],[11.97724348,55.05985912,62.73],[11.97720682,55.05979946,62.86],[11.97669261,55.0584099,57.26],[11.97666195,55.0583439,56.93],[11.97604003,55.05737731,55.6],[11.97597437,55.05729931,55.6],[11.97365517,55.05526914,51.53],[11.97359284,55.05521514,51.33],[11.97290891,55.05447255,48.73],[11.97284025,55.05441422,48.6],[11.97083238,55.05317198,44.73],[11.97076572,55.05310932,44.53],[11.97030044,55.05256269,43.46],[11.97025745,55.05248969,43.4],[11.96995519,55.05148644,43],[11.96993486,55.05142811,43.06],[11.96970822,55.05111813,42.86],[11.96965223,55.05107247,42.8],[11.96758034,55.04981396,42.33],[11.96751668,55.04977397,42.46],[11.96638013,55.04890239,42.73],[11.9663128,55.04886639,42.6],[11.96398862,55.04766853,38.4],[11.96389129,55.0476202,38.2],[11.96263302,55.04711493,35.66],[11.96253769,55.04706594,35.46],[11.96172274,55.04642101,34],[11.96162374,55.04636635,33.86],[11.95984386,55.04582879,32.46],[11.9598002,55.04579579,32.33],[11.95883129,55.04460821,22.46],[11.95874429,55.04452288,22.06],[11.95641643,55.042594,13.66],[11.95633377,55.04251301,13.66],[11.95474092,55.04043082,10.66],[11.95467093,55.04035749,10.6],[11.95290172,55.03893861,8.13],[11.95284473,55.03887928,7.86],[11.9519075,55.03753774,4.26],[11.95185084,55.03748341,4.26],[11.9513612,55.03728611,3.8],[11.95128021,55.03727978,3.73],[11.95053225,55.03739407,4.26],[11.95048292,55.03735974,4.46],[11.95046559,55.03703044,4.93],[11.95044126,55.03698111,4.86],[11.94971436,55.03610153,4.46],[11.94966103,55.03605254,4.53],[11.93881645,55.02667182,24.6],[11.93877846,55.02664049,24.6],[11.93204682,55.02205058,27.93],[11.93198749,55.02201258,27.93],[11.92951704,55.02062579,27.66],[11.92945504,55.02059446,27.73],[11.92923509,55.02031716,28],[11.92920709,55.02029783,28.13],[11.92862616,55.02018556,29.2],[11.92858317,55.0201569,29.26],[11.92848152,55.01990427,29.4],[11.92849685,55.01986761,29.46],[11.92885878,55.01957536,28.33],[11.92884145,55.0195517,28.13],[11.9233562,55.01591337,19.73],[11.92327254,55.01585604,19.66],[11.91987584,55.013328,22],[11.91983985,55.01330467,22],[11.91960388,55.01327902,21.8],[11.91957488,55.01328935,21.8],[11.91797036,55.01403486,18.2],[11.9178727,55.01406819,17.86],[11.91632043,55.01448313,14.8],[11.9161761,55.01450779,14.73],[11.91443918,55.0146737,14.66],[11.91434785,55.0146777,14.73],[11.90891081,55.01474949,11.93],[11.90883315,55.01475282,11.86],[11.90684094,55.01517336,10.8],[11.90677595,55.01517836,10.73],[11.9065813,55.01508605,10.73],[11.90654597,55.01504872,10.73],[11.90520484,55.01348725,12.33],[11.90516018,55.01347092,12.4],[11.90397362,55.01355686,13.26],[11.90393296,55.01355186,13.33],[11.90343804,55.01311861,11.46],[11.90340105,55.01311495,11.06],[11.90089121,55.0135241,10],[11.90088088,55.01352509,10.2],[11.90063464,55.0126882,8.06],[11.90061298,55.01264887,8],[11.8993438,55.0108404,4.26],[11.89930247,55.01077541,4.33],[11.8983973,55.00909522,3.06],[11.8983833,55.00906222,3],[11.8981214,55.00799269,0.66],[11.89811207,55.0079317,0.4],[11.89773634,55.0043914,3.4],[11.89772368,55.0043484,3.6],[11.89613325,55.00164963,-1.26],[11.89608659,55.00159197,-1.4],[11.8945684,55.00028643,-0.6],[11.89451774,55.00026477,-0.6],[11.89323489,55.00078132,0.06],[11.89319489,55.00078765,0.06],[11.89197838,54.99989646,0.06],[11.89193905,54.99986547,0.2],[11.89164979,54.99942953,1.8],[11.8916448,54.99939487,1.86],[11.8918211,54.9989756,1.06],[11.89180577,54.99894361,1],[11.89031162,54.99748379,-0.06],[11.89027262,54.9974468,-0.06],[11.8872699,54.99486343,-1.13],[11.8872089,54.9948141,-1],[11.885795,54.99391187,-2.4],[11.885748,54.99387254,-2.53],[11.88495577,54.99295234,-0.53],[11.88491577,54.99291435,-0.46],[11.87656013,54.98556472,0.06],[11.87651947,54.98552673,0.06],[11.87444279,54.98339172,0.06],[11.87441346,54.98336106,0.06],[11.8718272,54.98036011,0.06],[11.87179487,54.98031878,0.06],[11.86970751,54.9774824,0.06],[11.86967718,54.9774384,0.06],[11.8675529,54.97403343,0.06],[11.86752591,54.9739851,0.06],[11.86605554,54.97093811,0.06],[11.86603021,54.97088278,0.06],[11.86495382,54.96817235,0.06],[11.86493249,54.96811069,0.06],[11.86409036,54.96527025,0.06],[11.8640737,54.96520426,0.06],[11.86340932,54.96187921,0.06],[11.86340132,54.96182888,0.06],[11.86310992,54.95890381,0.06],[11.86310592,54.95884448,0.06],[11.86307134,54.9557514,0.06],[11.86307267,54.95569707,0.06],[11.86391353,54.94751457,1.06],[11.86391719,54.94747591,1.2],[11.86382498,54.94658072,-0.4],[11.86381565,54.94654306,-0.53],[11.86350574,54.94599012,-1.53],[11.86347074,54.94595613,-1.53],[11.86222752,54.94540989,1.13],[11.86217352,54.94540756,1.26],[11.86188123,54.94545886,1.86],[11.86184324,54.94548419,1.93],[11.86141599,54.94593278,2],[11.86138833,54.94592912,2],[11.86161761,54.94550151,2.46],[11.86163027,54.94545718,2.53],[11.86150429,54.94517487,3],[11.86146529,54.94514054,3],[11.85908887,54.94411415,3.46],[11.85903854,54.94408949,4],[11.85705211,54.94286542,7.4],[11.85701345,54.94283976,7.4],[11.83995708,54.92952443,24.6],[11.83990575,54.92948377,24.8],[11.83803922,54.92824327,23.26],[11.83800989,54.92822527,23.53],[11.83646407,54.92845313,22.2],[11.83641941,54.92847813,22.26],[11.83679602,54.92920896,24.26],[11.83679635,54.92924829,24.26],[11.83603843,54.92948356,23.06],[11.83599343,54.92949789,23],[11.83595543,54.92963886,23.4],[11.8359371,54.92963353,23.46],[11.83594678,54.92951123,24.2],[11.83597644,54.92949357,24.33],[11.83664935,54.92934933,24.53],[11.83668301,54.92933667,24.66],[11.83694195,54.92911004,25.86],[11.83695528,54.92909204,25.93],[11.83680301,54.92872981,22.53],[11.83678602,54.92870315,22.53],[11.83644739,54.92843821,23.86],[11.83647939,54.92841855,24.13],[11.83786095,54.92819601,22.73],[11.83790994,54.92819235,22.86],[11.83839988,54.92847564,25.73],[11.83845287,54.92849597,26],[11.83869218,54.92850131,26.53],[11.83874684,54.92848998,26.53],[11.83883483,54.92837567,25.93],[11.83881183,54.92834601,25.73],[11.80199487,54.89959271,-1],[11.80195787,54.89956405,-0.86],[11.79836598,54.89714284,7.93],[11.79834398,54.89712251,8],[11.79802435,54.89716648,8],[11.79798302,54.89715382,8],[11.79727211,54.89677926,9.46],[11.79723412,54.8967606,9.53],[11.78632839,54.89074051,11.4],[11.78625806,54.89070085,11.33],[11.76626785,54.87892171,6],[11.76619552,54.87888305,5.93],[11.75406627,54.87371683,1.93],[11.75406494,54.87371949,1.8],[11.75314038,54.87298027,-0.4],[11.75309672,54.87293494,-0.4],[11.75166861,54.87117012,0.13],[11.75160728,54.87113446,0.06],[11.75100835,54.87093317,0.4],[11.75100235,54.87093018,0.46],[11.7462947,54.8714429,0.06],[11.74619837,54.87143991,0.06],[11.74485247,54.87120701,0.06],[11.74485181,54.87120701,0.06],[11.74564738,54.87076245,0.06],[11.74567338,54.87074579,0.06],[11.74563308,54.87064551,0.06],[11.74563808,54.8706465,0.06],[11.74565941,54.8707435,0.06],[11.74563575,54.87076316,0.06],[11.74494284,54.87116274,0.73],[11.74490218,54.87117007,0.86],[11.74384763,54.87083684,3.4],[11.74380897,54.87080984,3.4],[11.71732603,54.849703,14.13],[11.71727437,54.84965401,13.6],[11.71619081,54.84843779,10.93],[11.71615315,54.84838546,10.86],[11.7080475,54.83624308,3.86],[11.70801584,54.83619808,3.86],[11.7074139,54.83553215,4.33],[11.70736924,54.83549016,4.4],[11.70664664,54.83493789,5.86],[11.70658798,54.8349009,6.06],[11.6466038,54.80072328,6.93],[11.64654581,54.80070362,7],[11.64322434,54.80169643,4.46],[11.64311801,54.80170876,4.53],[11.6382059,54.80183019,1.73],[11.63810124,54.80182886,1.53],[11.63781458,54.8017862,1.13],[11.63773292,54.80175854,1],[11.63715397,54.80139761,0.93],[11.63708331,54.80139061,1.06],[11.63604106,54.80181752,0.4],[11.6359684,54.80184085,0.26],[11.63523676,54.80196446,0.06],[11.63515376,54.80196147,0.13],[11.63249065,54.80110735,4.13],[11.63242765,54.80109735,4.13],[11.63017956,54.80075854,4.66],[11.63012423,54.80075321,4.73],[11.62615444,54.80053577,2],[11.62608811,54.80052644,2],[11.62594513,54.80046311,2.06],[11.62592013,54.80043012,2.13],[11.62598043,54.79996151,3.73],[11.62598376,54.79992585,3.93],[11.62584545,54.79979787,4.33],[11.62579712,54.79978921,4.4],[11.60505249,54.79845197,6.2],[11.60496549,54.79843664,6.2],[11.58458745,54.79091559,10.4],[11.58452912,54.79090093,10.46],[11.58256197,54.79072706,12.46],[11.58250231,54.79072839,12.4],[11.57883722,54.79120683,9.06],[11.57874522,54.79121516,9],[11.57657403,54.79124084,10.13],[11.57650037,54.79123818,10.2],[11.57408987,54.79095767,10],[11.57401254,54.79094634,10.06],[11.5696445,54.79018628,9.66],[11.56957217,54.79017162,9.66],[11.53250898,54.7813272,15.13],[11.53241799,54.78130554,15.33],[11.52138669,54.77892559,12.2],[11.52132603,54.77891293,12.6],[11.52068873,54.77890892,13.8],[11.5206054,54.77890493,13.93],[11.52043942,54.77881028,14.33],[11.52041843,54.77876462,14.33],[11.52046111,54.778375,15.53],[11.52043878,54.77836567,15.66],[11.52003451,54.77848163,16.66],[11.51999951,54.77847597,16.6],[11.51763312,54.77768889,16.06],[11.51760279,54.77767789,16.06],[11.51712517,54.7777422,15.4],[11.51707218,54.7777332,15.26],[11.51661223,54.77739959,15.46],[11.51657624,54.7773816,15.53],[11.51481175,54.77664647,16.13],[11.51476009,54.77663581,16.2],[11.50072752,54.77611153,12.46],[11.50066919,54.77610987,12.53],[11.49708777,54.77628907,8],[11.49703544,54.77628973,8],[11.49665353,54.77608314,9.33],[11.49662287,54.77608347,9.53],[11.49584598,54.77623137,11],[11.49582465,54.77622304,10.86],[11.49626659,54.7761524,8.8],[11.49639258,54.7760964,8.6],[11.4968335,54.77633932,8],[11.49679884,54.77635098,8],[11.49351414,54.77693637,10],[11.49347881,54.77693703,10],[11.49342584,54.77660211,8.73],[11.49340451,54.77656745,8.6],[11.49285761,54.77607021,8.26],[11.49285095,54.77606688,8.33],[11.4934628,54.77680208,9.46],[11.49344347,54.77681541,9.39],[11.491371,54.77680876,10.46],[11.49131034,54.77680476,10.6],[11.48779269,54.77632073,11.66],[11.48774136,54.77630473,11.73],[11.48725941,54.77607546,12.86],[11.48722208,54.77605213,13.13],[11.48688217,54.77571522,13.4],[11.48688184,54.77571256,13.2],[11.48634923,54.77571922,11.26],[11.48629824,54.77569789,11.06],[11.48604894,54.77540893,11.06],[11.48599328,54.77537027,11.13],[11.48467038,54.77465904,11.06],[11.48459705,54.77462505,11.06],[11.48230066,54.77380596,10.46],[11.48232766,54.77380297,10.46],[11.48436347,54.77451646,11.73],[11.48443747,54.77454779,11.8],[11.48602001,54.77539764,11.86],[11.486058,54.7754143,12.13],[11.4868376,54.77538332,14.86],[11.48687993,54.77540631,14.8],[11.4868846,54.77572293,12.6],[11.48690026,54.77575592,12.33],[11.48733852,54.77625751,12.13],[11.48734252,54.7762935,12.26],[11.48707755,54.77642981,12.73],[11.48701322,54.77644214,12.8],[11.48644061,54.77644046,12.33],[11.48641995,54.7764338,12.2],[11.48683893,54.77647479,11.66],[11.48688793,54.77647046,11.53],[11.48722789,54.77634817,11.86],[11.48725289,54.77631584,11.93],[11.48676996,54.77582525,12.66],[11.4867273,54.77579725,12.46],[11.48635399,54.77571796,11.26],[11.48629233,54.77569363,11.13],[11.48600171,54.77538366,11.26],[11.48593305,54.775337,11.4],[11.48458046,54.7746164,11.13],[11.4845018,54.77458074,11.2],[11.48165299,54.77356826,9.8],[11.48157566,54.77353693,9.8],[11.47944547,54.77252641,11.86],[11.47937281,54.77248575,12.06],[11.47795291,54.7715555,9],[11.47789492,54.77151184,8.8],[11.47543716,54.7694527,11.4],[11.4753765,54.76941137,11.6],[11.47146646,54.76714568,10.4],[11.47145513,54.76711035,10.46],[11.4714391,54.76537387,9.73],[11.4714441,54.76533054,9.8],[11.47644805,54.72493662,16],[11.47645404,54.72488829,16],[11.47693187,54.71574163,17.93],[11.47693453,54.71571363,18.06],[11.4732335,54.71645302,10.93],[11.4731815,54.71646268,10.8],[11.47279256,54.71642938,11.26],[11.4727819,54.71643071,11.6],[11.4762379,54.71589436,17.73],[11.4763109,54.7158807,17.79],[11.4769795,54.71558012,14.26],[11.47698449,54.71555112,14],[11.4770048,54.71364842,10.13],[11.47700247,54.71360976,9.93],[11.47668864,54.71246662,8.33],[11.47667531,54.71243329,8.39],[11.47455896,54.70908014,9],[11.47454096,54.70905181,9],[11.47430701,54.70903215,9],[11.47429935,54.70903648,9],[11.4744923,54.70891483,9.8],[11.4744853,54.70889184,10],[11.47365945,54.70768766,12.4],[11.47362146,54.707643,12],[11.4728259,54.70684239,9.93],[11.47278024,54.70680073,9.93],[11.47161736,54.70592283,8.2],[11.47156503,54.7058875,8.26],[11.46900258,54.70454206,6.73],[11.46896725,54.70452573,6.66],[11.46583045,54.70356526,5.73],[11.46573979,54.7035426,5.66],[11.46341528,54.70314606,5.93],[11.46332528,54.7031364,5.86],[11.46120509,54.70298887,5],[11.46111576,54.70298588,5],[11.42080823,54.70199422,-0.93]]}}]}