{"type":"FeatureCollection","features":[{"type":"Feature","properties":{"name":"20260422 Cicloturismo","time":"2026-04-22T07:08:45Z"},"geometry":{"type":"LineString","coordinates":[[11.42079733,54.701934],[11.40785894,54.70159318],[11.40777695,54.70158952],[11.40628769,54.70141394],[11.40621103,54.70140194],[11.40489745,54.70112535],[11.40482746,54.70110769],[11.4039992,54.70086042],[11.40393121,54.70083842],[11.40322358,54.70057313],[11.40315992,54.7005468],[11.40242564,54.7002042],[11.40236764,54.7001742],[11.40182835,54.69985725],[11.40178235,54.69982192],[11.40042916,54.69852673],[11.4003985,54.6984994],[11.39948096,54.69777186],[11.3994423,54.69773953],[11.39917268,54.69742223],[11.39913135,54.69738124],[11.39833476,54.69666765],[11.3982921,54.69662965],[11.39697023,54.69563076],[11.3969309,54.6955931],[11.39673027,54.69532117],[11.39671861,54.69530184],[11.396624,54.69461495],[11.396598,54.69459629],[11.39651634,54.69457297],[11.39646368,54.69457064],[11.39488716,54.69465219],[11.39485716,54.69465385],[11.39344857,54.69465282],[11.39336791,54.69465249],[11.39298595,54.69462819],[11.39292829,54.69460686],[11.3928873,54.6945762],[11.39286097,54.69453887],[11.39283931,54.69445421],[11.39283964,54.69440722],[11.3929752,54.69332164],[11.39297786,54.69327164],[11.39296687,54.69317165],[11.39295088,54.69312165],[11.39286089,54.692976],[11.39281589,54.692931],[11.39270757,54.69285001],[11.39264591,54.69281402],[11.39242426,54.6927377],[11.39234327,54.69272071],[11.39062335,54.6924908],[11.39054436,54.69248114],[11.38995207,54.69242983],[11.38989074,54.69241617],[11.38972775,54.69232186],[11.38971442,54.6922852],[11.38971109,54.69219788],[11.38971708,54.69214888],[11.38979203,54.69180891],[11.38979802,54.69176492],[11.38977103,54.69168526],[11.3897307,54.69165527],[11.38954005,54.69160695],[11.38946705,54.69159562],[11.38784515,54.69138071],[11.38778749,54.69135638],[11.38774783,54.69132472],[11.38772417,54.69124372],[11.38772683,54.69119906],[11.38787145,54.6907851],[11.38784445,54.69075177],[11.38745114,54.6906688],[11.38737881,54.69065147],[11.38711317,54.69054849],[11.38705417,54.69051516],[11.38568595,54.68956431],[11.38563329,54.68952765],[11.38541365,54.68932534],[11.38538099,54.68928034],[11.38528767,54.68908769],[11.38526968,54.6890367],[11.3852437,54.68888172],[11.38524603,54.68883006],[11.38543996,54.6882188],[11.38543696,54.68818547],[11.38537531,54.68813581],[11.38531798,54.68812448],[11.38472235,54.68805851],[11.38464435,54.68804485],[11.38446337,54.68795986],[11.38442704,54.68791553],[11.38435106,54.68775888],[11.38433106,54.68770189],[11.38395086,54.68650299],[11.3839302,54.68644233],[11.38371396,54.68565741],[11.3836973,54.68562608],[11.38359899,54.68558209],[11.38355199,54.68558375],[11.38312303,54.68565203],[11.38309037,54.68565037],[11.38301605,54.68564105],[11.38297605,54.68563172],[11.38285074,54.68556041],[11.38282041,54.68552408],[11.38258214,54.68485383],[11.38256248,54.6847945],[11.37987727,54.67642959],[11.37985927,54.67637059],[11.37919343,54.67437945],[11.3791771,54.67432912],[11.37875357,54.67300859],[11.37873891,54.67296426],[11.37862295,54.67246897],[11.37860729,54.67242364],[11.37841465,54.67206602],[11.37838299,54.67202303],[11.37796471,54.67157042],[11.37791971,54.67152943],[11.37755175,54.67124946],[11.37749275,54.67121213],[11.37514656,54.66981833],[11.3750829,54.66978],[11.37479193,54.66958003],[11.37473027,54.66954237],[11.37421865,54.66929908],[11.37414966,54.66927742],[11.3731374,54.66900748],[11.37305507,54.66898782],[11.37239278,54.66886787],[11.37231278,54.66885587],[11.36609243,54.66813621],[11.36600744,54.66812721],[11.36470386,54.66789263],[11.36463686,54.66788297],[11.36449354,54.66787431],[11.36441788,54.6678773],[11.36400757,54.66794194],[11.36391624,54.66795193],[11.36344628,54.66792628],[11.36335628,54.66791362],[11.36310496,54.66782031],[11.36307496,54.66779098],[11.36291802,54.66744038],[11.36289136,54.66742039],[11.36272372,54.66741108],[11.36267472,54.66740275],[11.36244408,54.66727244],[11.36241375,54.66725144],[11.36240143,54.66718046],[11.36243242,54.66716047],[11.36279672,54.66700619],[11.36280938,54.66698853],[11.36269808,54.66688156],[11.36267275,54.66685656],[11.36267442,54.66680423],[11.36270742,54.66678557],[11.36347536,54.66649896],[11.36354669,54.6664703],[11.36552657,54.6656431],[11.3655999,54.66561077],[11.36600553,54.66539814],[11.36606319,54.66536048],[11.36631682,54.66512951],[11.36631449,54.66510185],[11.36615118,54.66501187],[11.36608919,54.66498921],[11.36492028,54.6646103],[11.36485228,54.6645883],[11.36185179,54.66367416],[11.36178379,54.66365483],[11.36080486,54.66328024],[11.36075986,54.66325591],[11.36055357,54.66290396],[11.36053291,54.66286563],[11.36051325,54.66275265],[11.36052591,54.66271466],[11.36066089,54.66252235],[11.36069588,54.66248469],[11.36108219,54.66222107],[11.36112752,54.66219041],[11.36120217,54.66208909],[11.36119551,54.66205343],[11.36105252,54.66191945],[11.36100853,54.66188746],[11.36052691,54.66156784],[11.36048225,54.66153184],[11.36015697,54.66120122],[11.36012498,54.66117189],[11.36012065,54.66111858],[11.36013864,54.66112091],[11.36015362,54.66117357],[11.36016628,54.6611969],[11.36029692,54.6613382],[11.36031558,54.66136953],[11.36030758,54.66142985],[11.36028125,54.66145718],[11.3601256,54.66153117],[11.3600596,54.6615545],[11.358903,54.66192606],[11.35885334,54.66194272],[11.35875269,54.66196771],[11.3586947,54.66196971],[11.35829907,54.66193707],[11.35823374,54.66192674],[11.35778111,54.66176378],[11.35776812,54.66175745],[11.35779077,54.6618521],[11.35781476,54.66187576],[11.35789709,54.66191275],[11.35794775,54.66192208],[11.35873035,54.66198769],[11.35879101,54.66197969],[11.36018591,54.66153148],[11.3602449,54.66150282],[11.3602899,54.66146749],[11.3603119,54.66142716],[11.36029424,54.6613425],[11.36026924,54.66130151],[11.35951703,54.66047864],[11.35950903,54.66044231],[11.35952069,54.66040798],[11.35955135,54.66037732],[11.35965134,54.66032767],[11.35971367,54.66030434],[11.36036662,54.66013006],[11.36041995,54.6601034],[11.36048827,54.66003875],[11.3605056,54.66000476],[11.36054057,54.65986213],[11.36054323,54.6598518],[11.35980925,54.65954615],[11.35975892,54.65952316],[11.35920862,54.65921253],[11.35914662,54.65918554],[11.35755907,54.65859132],[11.35748508,54.65855699],[11.3541354,54.65668167],[11.35410307,54.65666267],[11.3536938,54.65652473],[11.35368247,54.65652174],[11.35367281,54.65647041],[11.35372113,54.6563741],[11.35371914,54.65635277],[11.35369882,54.65626745],[11.35368449,54.65623345],[11.3535985,54.65612481],[11.35355617,54.65608915],[11.35266861,54.65555192],[11.35264695,54.65553926],[11.35220205,54.65537134],[11.35219572,54.65536835],[11.35195839,54.65375002],[11.35158276,54.65359472],[11.35154676,54.65358072],[11.35145146,54.65351143],[11.28005213,54.58054777],[11.23776548,54.51909345],[11.23308715,54.51229379],[11.23026549,54.50820079],[11.2285445,54.5057288],[11.22683551,54.50334014],[11.22574651,54.50199748],[11.22565719,54.50200813],[11.22561719,54.50200846],[11.22548354,54.50198114],[11.22543088,54.50196514],[11.22413634,54.50152693],[11.22407168,54.5015046],[11.22386104,54.50138829],[11.22382505,54.5013553],[11.22370073,54.50119599],[11.22367507,54.50116599],[11.22343711,54.50093803],[11.22340878,54.5008987],[11.22322351,54.50048442],[11.22320485,54.50044376],[11.22273762,54.49958488],[11.22272262,54.49955655],[11.22266131,54.49939023],[11.22264765,54.4993619],[11.22215441,54.49858902],[11.22212608,54.49855002],[11.22199943,54.49845503],[11.22194044,54.49844237],[11.22183345,54.4984577],[11.22179212,54.49847903],[11.22171381,54.49859666],[11.22169382,54.49861332],[11.22165916,54.49861998],[11.2216195,54.49861399],[11.22155317,54.49856267],[11.22152618,54.49852468],[11.22082899,54.49726916],[11.2208,54.4972175],[11.22059004,54.49678756],[11.22057138,54.49674857],[11.22049472,54.49665459],[11.22046306,54.49663493],[11.22028542,54.4966136],[11.22022609,54.49661826],[11.21962414,54.49670288],[11.21953948,54.49671188],[11.21860353,54.49678481],[11.21851987,54.49678947],[11.21759325,54.49683576],[11.21750959,54.49683842],[11.21605702,54.49686132],[11.21598269,54.49686198],[11.21500876,54.49684537],[11.2149321,54.49684304],[11.21354119,54.49676849],[11.21349986,54.49676783],[11.21308956,54.49666252],[11.21301823,54.49665019],[11.21291224,54.4966052],[11.21288258,54.4965752],[11.21207571,54.49565667],[11.21204605,54.49562401],[11.21163178,54.49529073],[11.21159878,54.4952584],[11.21146314,54.49503943],[11.21143448,54.49500644],[11.21077158,54.49434384],[11.21072825,54.49429918],[11.21021064,54.49372961],[11.21018298,54.49369262],[11.21013965,54.4936193],[11.21013299,54.4935823],[11.21030555,54.49262908],[11.21031188,54.49257642],[11.2103292,54.49241643],[11.21033153,54.49236343],[11.2103089,54.49205545],[11.21030857,54.49201546],[11.21033223,54.49197881],[11.21034589,54.49198347],[11.21041452,54.4921111],[11.21042251,54.49210877],[11.21043484,54.49196347],[11.21043151,54.49193414],[11.21033255,54.49163385],[11.21031122,54.49158452],[11.20975169,54.49036996],[11.20972903,54.49031196],[11.20965139,54.48989734],[11.20965472,54.48983735],[11.20982236,54.48927341],[11.20984469,54.48920842],[11.21018996,54.48830183],[11.21021062,54.48823884],[11.21028859,54.48786487],[11.21029592,54.48780387],[11.21029591,54.48749889],[11.21029025,54.48743856],[11.21019963,54.48686928],[11.21019297,54.48681395],[11.21010605,54.48588538],[11.21011538,54.48584105],[11.21018304,54.48571239],[11.2102197,54.48567173],[11.21041801,54.4855271],[11.21047467,54.48549477],[11.21065799,54.48541612],[11.21072265,54.48539746],[11.2109193,54.4853668],[11.21097196,54.48535747],[11.21106161,54.48530415],[11.2110636,54.48527915],[11.21104927,54.48525249],[11.21102161,54.48522683],[11.21052966,54.48492388],[11.21047767,54.48488422],[11.21011704,54.48452958],[11.21008538,54.48448359],[11.21001373,54.48434627],[11.21000074,54.48430028],[11.20983556,54.48338878],[11.20983156,54.48337245],[11.20981057,54.48333046],[11.20980491,54.48332013],[11.20968492,54.48326814],[11.20966626,54.48324748],[11.20960464,54.48295754],[11.20960198,54.48294454],[11.20974591,54.48248725],[11.20976891,54.48243592],[11.20998255,54.48213329],[11.21002488,54.48208596],[11.21027253,54.48187065],[11.21032686,54.48182966],[11.21239902,54.48034519],[11.21246801,54.48028453],[11.21270632,54.48000888],[11.21275098,54.47993155],[11.21278997,54.47985222],[11.2128213,54.47977089],[11.21286962,54.47951691],[11.21287095,54.47942958],[11.21282463,54.47916727],[11.21279397,54.47908127],[11.21259432,54.47876562],[11.21252999,54.47869562],[11.21238833,54.47856497],[11.212313,54.47850431],[11.21176037,54.47811501],[11.21169937,54.47807401],[11.21095876,54.47771908],[11.2108971,54.47768575],[11.21045012,54.47738746],[11.21040146,54.47734813],[11.21014814,54.47709183],[11.21010814,54.47704717],[11.2099445,54.47681686],[11.20991084,54.47677186],[11.20974486,54.47660053],[11.20971153,54.4765552],[11.20961588,54.47624989],[11.20960855,54.47619556],[11.20953329,54.47526864],[11.20953196,54.47520331],[11.20954861,54.474945],[11.20955761,54.47488201],[11.20966125,54.47457103],[11.20966391,54.47450704],[11.2095787,54.47336182],[11.20957571,54.47331682],[11.20958532,54.47183295],[11.20958565,54.47179229],[11.20978107,54.46957388],[11.2097844,54.46953188],[11.20974842,54.4693949],[11.20974642,54.46936624],[11.20978607,54.46926926],[11.20979673,54.4692346],[11.2098217,54.46903228],[11.20982703,54.46898528],[11.21003549,54.46657147],[11.21003715,54.46649548],[11.2100504,54.46549654],[11.21005007,54.46543121],[11.20985955,54.4591125],[11.20985889,54.45906384],[11.20999739,54.4571177],[11.21000105,54.45706871],[11.20999638,54.45648442],[11.20998639,54.45643376],[11.20994074,54.45628111],[11.20991941,54.45622978],[11.2097781,54.45598215],[11.20974277,54.45593649],[11.20854759,54.45468765],[11.20851059,54.45464832],[11.20690384,54.45302056],[11.20686718,54.4529829],[11.20579233,54.45194335],[11.205753,54.45190536],[11.20233316,54.44868313],[11.20229417,54.44864547],[11.20155492,54.4478109],[11.20152092,54.44776957],[11.20116063,54.44730395],[11.20112964,54.44726129],[11.20060139,54.44648339],[11.20057173,54.44644106],[11.19908031,54.44412696],[11.19905898,54.4440823],[11.19879245,54.44293908],[11.19878545,54.44290642],[11.19866749,54.44276747],[11.19865116,54.44274547],[11.19858986,54.44259983],[11.1985812,54.4425655],[11.19851829,54.44186992],[11.19851229,54.44182126],[11.19838106,54.44097438],[11.19836806,54.44094772],[11.19830076,54.44087607],[11.1982991,54.44091173],[11.19842034,54.44154461],[11.19841768,54.4415676],[11.19834503,54.44163158],[11.19831437,54.44163991],[11.1980954,54.44164691],[11.1980794,54.44163192],[11.1981487,54.44156061],[11.19816003,54.44155395],[11.19809572,54.44160894],[11.19809406,54.44162893],[11.19818437,54.44166625],[11.19822803,54.44166825],[11.19853167,54.44162995],[11.19858233,54.44162362],[11.19907528,54.44161597],[11.19912961,54.44161663],[11.20091543,54.44170345],[11.20098976,54.44170645],[11.202416,54.44173072],[11.202422,54.44173872],[11.20165571,54.44173441],[11.20159272,54.44172942],[11.20153606,54.44172009],[11.20149106,54.44170376],[11.2014384,54.44165344],[11.20142507,54.44162178],[11.20141507,54.44127281],[11.20142507,54.44122482],[11.20153706,54.44109617],[11.20157139,54.44105084],[11.20159871,54.44095218],[11.20160304,54.44090185],[11.20156847,54.43854373],[11.20156714,54.4385014],[11.20161778,54.43831009],[11.20162178,54.43827276],[11.20161079,54.43734754],[11.20161079,54.43730454],[11.20163942,54.43681162],[11.20163676,54.43679363],[11.20153081,54.43642501],[11.20151182,54.43637635],[11.20127886,54.43598105],[11.20125987,54.43593872],[11.20125254,54.43590106],[11.20125887,54.43587106],[11.20131286,54.43581608],[11.20131986,54.43581075],[11.2012982,54.43577842],[11.20115855,54.43575578],[11.20112655,54.43573845],[11.20096458,54.43553948],[11.20093892,54.43549682],[11.20040739,54.4344656],[11.20038273,54.43441494],[11.20014379,54.43379999],[11.20013246,54.43373933],[11.20014611,54.43349136],[11.20016577,54.4334317],[11.20038507,54.43315506],[11.2004244,54.43309773],[11.20068703,54.43262842],[11.20070769,54.43256909],[11.20076231,54.43200081],[11.20076397,54.43193782],[11.20075066,54.43080729],[11.20075033,54.43075196],[11.20081364,54.43045997],[11.2008343,54.43040164],[11.20088429,54.43028632],[11.20091528,54.43022999],[11.20107426,54.43001001],[11.20111992,54.42995602],[11.20180487,54.42929441],[11.2018542,54.42924275],[11.20219114,54.42881646],[11.20222647,54.42876146],[11.20267705,54.4279812],[11.20270338,54.42792954],[11.20271804,54.42788021],[11.20271471,54.42783422],[11.20263439,54.42767691],[11.20264105,54.42763325],[11.20290566,54.42716962],[11.20294732,54.42711662],[11.20314397,54.42691031],[11.20320163,54.42685998],[11.20418855,54.42610405],[11.20425221,54.42605272],[11.20474581,54.42559743],[11.20479281,54.42554677],[11.20566403,54.42446184],[11.20570769,54.42440618],[11.20610498,54.42384456],[11.20614864,54.42378856],[11.20647926,54.42340193],[11.20652126,54.42334527],[11.20697987,54.42264966],[11.2070202,54.42259233],[11.20725917,54.42231069],[11.20730183,54.42224936],[11.20769644,54.42160442],[11.20774777,54.42154042],[11.20805708,54.42123378],[11.20812774,54.42117545],[11.20882802,54.42069583],[11.20890168,54.42064384],[11.20927531,54.42033221],[11.20932931,54.42027921],[11.2108458,54.41849971],[11.21088646,54.41844905],[11.2110811,54.41818441],[11.21111743,54.41813075],[11.21135074,54.41769313],[11.21137474,54.41763847],[11.21147037,54.41720786],[11.21147903,54.41715553],[11.21152499,54.41669523],[11.21153065,54.4166439],[11.21162414,54.4149694],[11.21162647,54.41492307],[11.2116361,54.41401248],[11.21163444,54.41396582],[11.21157215,54.41372784],[11.21154282,54.41368251],[11.21129717,54.41348787],[11.21122784,54.41345787],[11.21082986,54.41335723],[11.21074553,54.41334357],[11.20892366,54.41313769],[11.20884166,54.41312803],[11.20782305,54.41310275],[11.20774005,54.41309575],[11.20714343,54.41297712],[11.20707143,54.41297246],[11.20670079,54.41299643],[11.20662413,54.41299876],[11.20625382,54.41297112],[11.20618316,54.41296112],[11.20412598,54.41250692],[11.20405099,54.41249126],[11.20352637,54.41239029],[11.20345138,54.41237596],[11.20299074,54.41233933],[11.20291675,54.41233],[11.2021538,54.41220507],[11.2020928,54.41219474],[11.20167416,54.41207545],[11.20163083,54.41206912],[11.20137287,54.41204017],[11.20132854,54.41203918],[11.20040863,54.41209744],[11.20040363,54.41209011],[11.20106791,54.41204781],[11.20115324,54.41204381],[11.20150856,54.4120518],[11.20159689,54.41206146],[11.20266518,54.41228741],[11.20276351,54.41230607],[11.20349948,54.41237971],[11.20360214,54.41239604],[11.20629198,54.41296886],[11.20638464,54.41298419],[11.2065693,54.41300151],[11.20665896,54.41299985],[11.20710426,54.4129632],[11.20719559,54.4129682],[11.20764824,54.41306684],[11.20774457,54.41308183],[11.20864819,54.41310479],[11.20874785,54.41311112],[11.21049009,54.41330138],[11.21058542,54.41331238],[11.21105074,54.41338636],[11.2111374,54.41340869],[11.21149237,54.41357999],[11.2115437,54.41362399],[11.21162136,54.41371931],[11.21164902,54.41376897],[11.21168135,54.41387229],[11.21168701,54.41392495],[11.21161245,54.41576809],[11.21161112,54.41581275],[11.21150389,54.41721898],[11.21149723,54.41726331],[11.21144426,54.41747962],[11.21142493,54.41752195],[11.21131362,54.4176306],[11.21125529,54.41765693],[11.21083799,54.41776157],[11.21076366,54.41777423],[11.20986406,54.41787885],[11.20979007,54.41788518],[11.20705492,54.41799237],[11.20697593,54.41799004],[11.20631364,54.41788709],[11.20624264,54.41786743],[11.20532071,54.41750581],[11.20525105,54.41748615],[11.20479908,54.41744384],[11.20472342,54.41745183],[11.2039568,54.4175998],[11.20389047,54.41761513],[11.20322419,54.4178204],[11.20316986,54.4178414],[11.20270456,54.41806402],[11.20265323,54.41809102],[11.20182497,54.41856026],[11.20176831,54.41858959],[11.20111002,54.41888688],[11.20104636,54.41890788],[11.19955846,54.41922245],[11.1994878,54.41924144],[11.19829923,54.41964903],[11.19822757,54.41966969],[11.19651338,54.42009656],[11.19645539,54.42011322],[11.19539717,54.42049511],[11.19534018,54.42051544],[11.19460857,54.42074105],[11.19454258,54.42075605],[11.19380996,54.42086101],[11.19373297,54.42086634],[11.19283802,54.420867],[11.19276569,54.42086367],[11.19174909,54.42071707],[11.19167976,54.42070607],[11.19123346,54.42057777],[11.1911758,54.42056044],[11.19093448,54.42052877],[11.19087849,54.42053743],[11.1907965,54.42058175],[11.19077284,54.42061408],[11.19074718,54.42077074],[11.19075717,54.42081207],[11.19088947,54.42116303],[11.19090846,54.42120236],[11.19108009,54.42144431],[11.19109975,54.42147564],[11.19111573,54.42164095],[11.19112372,54.42167561],[11.19125334,54.42190824],[11.191271,54.4219419],[11.1913223,54.42210954],[11.19132363,54.4221422],[11.19130097,54.42220852],[11.19127964,54.42224351],[11.19108968,54.4224705],[11.19104935,54.42250916],[11.19095903,54.42258215],[11.19090904,54.42261348],[11.19079638,54.4226458],[11.19073472,54.42264713],[11.1906094,54.42262781],[11.19054707,54.42261148],[11.19038008,54.42253783],[11.19033575,54.42250584],[11.19027109,54.42243018],[11.19024476,54.42238752],[11.18998449,54.42185791],[11.18995083,54.42181025],[11.18983352,54.42167427],[11.18978886,54.42163161],[11.18956656,54.42147695],[11.18950423,54.42144629],[11.18943557,54.42142363],[11.18936357,54.42140963],[11.18914259,54.42141262],[11.18907193,54.42142195],[11.18851931,54.42158158],[11.18845798,54.42158658],[11.18812066,54.42153593],[11.18805,54.42151927],[11.18619913,54.42096805],[11.18618847,54.42096639],[11.18555652,54.42073146],[11.18549252,54.42070446],[11.18416663,54.42010555],[11.18410897,54.42008055],[11.18385299,54.42000724],[11.18378566,54.41999491],[11.18305604,54.41992894],[11.18298938,54.41992428],[11.18128086,54.41984674],[11.1812132,54.4198484],[11.18084824,54.4199027],[11.18078891,54.41991536],[11.17971697,54.42020293],[11.17965364,54.42021693],[11.17902935,54.42029789],[11.17895569,54.42030322],[11.17827707,54.42031422],[11.17820407,54.42031289],[11.17544063,54.42023513],[11.1753783,54.42023414],[11.17469437,54.42026343],[11.17462871,54.42026409],[11.17430106,54.42024177],[11.17423673,54.42023511],[11.17365277,54.42014348],[11.17360044,54.42013182],[11.17334581,54.42006617],[11.17329748,54.42005084],[11.1727042,54.41982956],[11.17265954,54.41980623],[11.17242422,54.41959127],[11.17239789,54.41955661],[11.17029008,54.4165091],[11.17026175,54.41647811],[11.17010545,54.41633347],[11.17007145,54.41630681],[11.16597074,54.41317368],[11.16593241,54.41314469],[11.16575277,54.41299906],[11.16572144,54.41296973],[11.16559913,54.41281308],[11.16558047,54.41277942],[11.16552849,54.41255879],[11.16553215,54.41252046],[11.16564445,54.41227948],[11.16567245,54.41223815],[11.1675875,54.40988646],[11.16761616,54.40985247],[11.16767181,54.40971982],[11.1676838,54.40969449],[11.16776745,54.40960919],[11.16773812,54.40960286],[11.16673186,54.40953626],[11.1666642,54.40953493],[11.16465103,54.40956577],[11.1645877,54.40956676],[11.1630475,54.40960966],[11.16298717,54.40961232],[11.16228691,54.40971293],[11.16222692,54.40972093],[11.16192261,54.40973589],[11.16186228,54.4097339],[11.16167897,54.40967725],[11.16165531,54.40965092],[11.1614664,54.40917364],[11.16143874,54.40915798],[11.16114543,54.40918329],[11.16108077,54.40918428],[11.1588496,54.40910906],[11.15877327,54.40910473],[11.15848229,54.40905942],[11.15841429,54.40904409],[11.15765368,54.40883383],[11.15758902,54.40881684],[11.1573107,54.40876653],[11.15724137,54.40875953],[11.15272935,54.40860519],[11.15265969,54.4086012],[11.15063955,54.40826473],[11.15058156,54.40825673],[11.14888269,54.40809289],[11.14882469,54.40808923],[11.14380969,54.40817364],[11.1437277,54.40816431],[11.1436497,54.40814765],[11.1435797,54.40812332],[11.14329306,54.40794469],[11.1432304,54.40791036],[11.14302508,54.40782971],[11.14295342,54.40780938],[11.14087158,54.40741684],[11.14080025,54.40740218],[11.14049327,54.40728355],[11.14044928,54.40724822],[11.1403523,54.40708357],[11.1403393,54.40704024],[11.14021404,54.40641196],[11.14020504,54.4063733],[11.13999282,54.40561373],[11.13998116,54.40556974],[11.1398962,54.40504413],[11.13988454,54.40499047],[11.13984022,54.40488514],[11.13980089,54.40483615],[11.13968156,54.40475483],[11.13960457,54.4047265],[11.13925759,54.40468284],[11.13916926,54.40468118],[11.13462294,54.4046915],[11.13455494,54.4046925],[11.13420597,54.40470781],[11.13413264,54.4047168],[11.13372234,54.40481911],[11.13366101,54.40481778],[11.13350237,54.40477245],[11.13345304,54.40475246],[11.13038599,54.40344439],[11.13032933,54.40343906],[11.12943571,54.40349733],[11.12936938,54.40350066],[11.12854746,54.40351626],[11.12847913,54.40351759],[11.12492674,54.40348004],[11.12486841,54.40348037],[11.1232849,54.4034082],[11.12323024,54.40340721],[11.12266728,54.40342516],[11.12261729,54.40343016],[11.12185702,54.40359311],[11.12179636,54.4036081],[11.12130574,54.40376039],[11.12125075,54.40377705],[11.1210981,54.40383971],[11.12105377,54.40386337],[11.12092312,54.40400635],[11.12089546,54.40403101],[11.12073114,54.40411065],[11.12067848,54.40412531],[11.11946092,54.40437453],[11.11940526,54.40438819],[11.11868699,54.40461579],[11.11863966,54.40462578],[11.1179544,54.40472206],[11.11790374,54.40473072],[11.1168442,54.40495795],[11.11680087,54.40496694],[11.11611298,54.40505486],[11.11607898,54.40505619],[11.1158177,54.4051208],[11.11580704,54.40512313],[11.11591769,54.40508881],[11.11594369,54.40506548],[11.11597335,54.40497349],[11.11596702,54.40494149],[11.11582239,54.40466653],[11.11579906,54.4046322],[11.11566875,54.40450655],[11.11562242,54.40448155],[11.11483882,54.40428229],[11.11477016,54.40427163],[11.11456584,54.40425764],[11.11449851,54.40425997],[11.11420687,54.40431161],[11.11415588,54.40432527],[11.1138989,54.4044489],[11.11385691,54.4044739],[11.11376659,54.40455955],[11.11375226,54.40458988],[11.11371563,54.40476484],[11.11371796,54.4047955],[11.11383126,54.40505715],[11.11384526,54.40508981],[11.11408821,54.4054321],[11.11411187,54.40546076],[11.11430451,54.40559007],[11.1143405,54.40561606],[11.11442915,54.40571137],[11.11445648,54.40574603],[11.1157229,54.40758513],[11.11575223,54.40762646],[11.11597317,54.4079944],[11.11599817,54.4080124],[11.11602183,54.40801739],[11.11603583,54.4080124],[11.11603051,54.40797208],[11.11602385,54.40795642],[11.11421988,54.40454115],[11.11420455,54.40451349],[11.11093716,54.39945251],[11.11090783,54.39940651],[11.1077837,54.39468404],[11.1077487,54.39463104],[11.10684616,54.39332582],[11.10680616,54.39327083],[11.10520901,54.39117535],[11.10516501,54.39112002],[11.10420411,54.39000612],[11.10415078,54.38994779],[11.10306922,54.38883556],[11.10302556,54.38879223],[11.10219735,54.38802068],[11.10219635,54.38802002],[11.10177906,54.38797972],[11.1017214,54.38797606],[11.10126643,54.3879744],[11.10119977,54.38797473],[11.09682569,54.38809808],[11.09674669,54.38810107],[11.09652937,54.38807775],[11.09647438,54.38805275],[11.09637273,54.38794277],[11.09635307,54.38789977],[11.09612916,54.38722886],[11.09612083,54.38716687],[11.09538875,54.38547175],[11.09537342,54.38543542],[11.09516215,54.38485449],[11.09514749,54.38481383],[11.09500519,54.38434919],[11.0949992,54.38430786],[11.09502883,54.3838066],[11.0950215,54.3837716],[11.09498484,54.38370494],[11.09495718,54.38367395],[11.09458723,54.38331135],[11.09455724,54.38328202],[11.09434459,54.38316371],[11.09429093,54.38314538],[11.09364166,54.38298145],[11.09359333,54.38296279],[11.09298141,54.38264652],[11.09294241,54.38262186],[11.09283311,54.38247122],[11.09282578,54.38243789],[11.09285842,54.38212762],[11.09284876,54.38209296],[11.09269713,54.38194232],[11.09265447,54.38191666],[11.09101995,54.38108619],[11.09097662,54.38106519],[11.08928246,54.38031739],[11.08923713,54.38029706],[11.08909848,54.38024409],[11.08904949,54.38022909],[11.08879283,54.38018945],[11.08874284,54.38018779],[11.08791425,54.38033238],[11.08787126,54.38033637],[11.08758796,54.38033603],[11.08754997,54.38033237],[11.08742733,54.38027105],[11.08740433,54.38024672],[11.08725936,54.38004074],[11.08724237,54.38000975],[11.0871794,54.37978947],[11.08717674,54.37975781],[11.08718174,54.37963184],[11.08718973,54.37960318],[11.087342,54.37916992],[11.087349,54.37913859],[11.08735532,54.37892564],[11.08735366,54.37889231],[11.08732301,54.37875501],[11.08730702,54.37872002],[11.08720004,54.3785777],[11.08716271,54.37854204],[11.08691274,54.37837506],[11.08685075,54.37834473],[11.08671709,54.37830074],[11.0866501,54.37829508],[11.08649078,54.37833573],[11.08644312,54.37834306],[11.08635279,54.3783294],[11.0863148,54.37830774],[11.08626382,54.37814009],[11.08624016,54.3780921],[11.08600821,54.37778581],[11.08598622,54.37775115],[11.085478,54.37681493],[11.08545934,54.3767826],[11.0852957,54.37656232],[11.08527804,54.37653033],[11.08525105,54.37646467],[11.08524205,54.37643168],[11.08523871,54.3762987],[11.08522672,54.37626404],[11.08501012,54.37582878],[11.08499946,54.37578945],[11.08496547,54.37563681],[11.08496081,54.37559848],[11.08496014,54.37536817],[11.0849608,54.37533084],[11.08502605,54.37473992],[11.08502239,54.37470159],[11.08485649,54.37392633],[11.0848515,54.37389],[11.08480492,54.37297113],[11.08479926,54.37293247],[11.08435848,54.37115331],[11.08434982,54.37110798],[11.08436116,54.36992412],[11.0843565,54.36988512],[11.08424054,54.36956851],[11.08422121,54.36953718],[11.08383191,54.3690506],[11.08382825,54.36901494],[11.08387024,54.36895161],[11.08390623,54.36892428],[11.0842252,54.36881365],[11.0842722,54.36879566],[11.08439551,54.36870902],[11.08440417,54.36868769],[11.0843092,54.36856873],[11.0842992,54.36855274],[11.08430087,54.36850943],[11.08424254,54.36846944],[11.08393391,54.36838749],[11.08392491,54.36835416],[11.0844589,54.36859215],[11.0844589,54.36859149],[11.08399657,54.36857316],[11.0840992,54.36870446],[11.08412586,54.36872345],[11.08433049,54.36870613],[11.08435915,54.36870514],[11.08441546,54.36876312],[11.0844088,54.36878945],[11.08415983,54.36897742],[11.08411617,54.36899941],[11.08402518,54.36903074],[11.08397652,54.36903773],[11.08386819,54.36903273],[11.08381453,54.3690184],[11.08331724,54.36861012],[11.08327724,54.36857546],[11.08246569,54.36761825],[11.08242436,54.36757625],[11.08207539,54.36731994],[11.08201673,54.36728861],[11.08134113,54.36698133],[11.0812798,54.366955],[11.08036752,54.36658908],[11.08030419,54.36656375],[11.0790153,54.36607553],[11.07895831,54.36605287],[11.07782938,54.36567497],[11.07777405,54.36565397],[11.07739507,54.36549102],[11.07734207,54.36546636],[11.07619952,54.36487677],[11.07614752,54.36484978],[11.07500131,54.36434952],[11.07495132,54.36432686],[11.07473967,54.36424688],[11.07468101,54.36422922],[11.0742907,54.36414559],[11.07422371,54.36413426],[11.07375941,54.36408463],[11.07369575,54.36408063],[11.07307448,54.36408395],[11.07301282,54.36408728],[11.06728866,54.36453144],[11.06723266,54.36453577],[11.06474255,54.36469522],[11.06468289,54.36469456],[11.06283838,54.36457603],[11.06277005,54.3645687],[11.0625694,54.36453271],[11.06250807,54.36451605],[11.06225677,54.36441741],[11.06220277,54.36440341],[11.06156184,54.36432546],[11.06150218,54.36432013],[11.06046092,54.36427387],[11.06040492,54.36427321],[11.06000462,54.3643295],[11.05994263,54.36433049],[11.05925936,54.3642882],[11.05919937,54.36428187],[11.05717425,54.36394105],[11.05711825,54.36393239],[11.0556884,54.36374687],[11.05563141,54.36373921],[11.0554321,54.3636719],[11.05537644,54.3636589],[11.0551958,54.36363858],[11.05513347,54.36363425],[11.05457486,54.36361064],[11.05451353,54.36361097],[11.05374993,54.3636499],[11.05368527,54.36365456],[11.05247903,54.36377449],[11.05242137,54.36377915],[11.05221139,54.3638478],[11.05215306,54.36386579],[11.05189141,54.36388444],[11.05182675,54.36388111],[11.05111981,54.36381517],[11.05106048,54.36380784],[11.04821438,54.36343341],[11.04815705,54.36342508],[11.04743178,54.36328649],[11.04738445,54.36327516],[11.04628453,54.36296225],[11.04622553,54.36294592],[11.04573292,54.36284397],[11.04568126,54.36283431],[11.04312115,54.36251687],[11.04308282,54.36250954],[11.04291485,54.36240591],[11.04287186,54.36239491],[11.04196065,54.36223165],[11.04190199,54.36222099],[11.0412717,54.3620677],[11.04121704,54.36205204],[11.04106806,54.36199239],[11.04102406,54.36196973],[11.04061713,54.36170813],[11.04059947,54.3616888],[11.04059081,54.36166814],[11.04058981,54.36164681],[11.04062479,54.36159083],[11.04064678,54.36157384],[11.04095508,54.36139622],[11.04099474,54.36136923],[11.0423972,54.36030941],[11.04243586,54.36027975],[11.04300175,54.35989783],[11.04301274,54.3598925],[11.04246347,54.35987987],[11.04241247,54.35987554],[11.04224718,54.35981324],[11.04224452,54.35980424],[11.04236981,54.35954664],[11.04238014,54.35951964],[11.04341499,54.35665941],[11.04342698,54.35662608],[11.04402943,54.35506459],[11.04403876,54.35502659],[11.0442981,54.35285225],[11.04430209,54.35281692],[11.04439993,54.35163908],[11.04440326,54.35160208],[11.04452714,54.35076885],[11.04453147,54.35072985],[11.04459438,54.3500516],[11.04459571,54.35001261],[11.04455441,54.34963963],[11.04455907,54.34960063],[11.044717,54.34891105],[11.04472999,54.34886072],[11.04514648,54.3473449],[11.04516081,54.34728724],[11.04525006,54.34643732],[11.04526172,54.34640132],[11.04530505,54.34634967],[11.04533805,54.34633201],[11.04621699,54.34608573],[11.04629732,54.34607374],[11.04708296,54.34603045],[11.04717929,54.34602946],[11.04884852,54.34605238],[11.04891485,54.34605039],[11.04910984,54.34602674],[11.04917084,54.34601041],[11.04933183,54.34593342],[11.04936982,54.34589376],[11.04944447,54.34567944],[11.0494608,54.34561811],[11.04965773,54.34471151],[11.04967272,54.34465585],[11.05011791,54.34316063],[11.05013424,54.3431013],[11.05056406,54.34126116],[11.05057439,54.34121116],[11.05080162,54.34039158],[11.05081428,54.34034292],[11.05088625,54.33998463],[11.05089124,54.3399293],[11.05087091,54.33958299],[11.05085791,54.33952633],[11.05013294,54.33677328],[11.05012194,54.33673262],[11.04976575,54.33557174],[11.04974976,54.33552241],[11.04966144,54.33538176],[11.04961378,54.33534043],[11.0494838,54.33527777],[11.04940647,54.33525944],[11.04854587,54.33519383],[11.04848754,54.33518383],[11.04791092,54.33501789],[11.04783926,54.3350089],[11.04699832,54.33510352],[11.04691799,54.33510286],[11.04547875,54.33501497],[11.04539609,54.33500864],[11.04507278,54.33495732],[11.04499545,54.33493599],[11.04484913,54.33488033],[11.04478113,54.33484634],[11.04459848,54.33472035],[11.04454348,54.33467236],[11.04434284,54.33447205],[11.04429818,54.33441939],[11.04402422,54.33405041],[11.04397956,54.33399842],[11.04375091,54.33380844],[11.04368091,54.33376845],[11.04329894,54.33362847],[11.04322428,54.33360981],[11.04176737,54.33330025],[11.04173704,54.33328459],[11.04171372,54.33323826],[11.04171805,54.33320727],[11.04183398,54.332733],[11.04183798,54.33270401],[11.04183931,54.33267335],[11.04183465,54.33264102],[11.04179032,54.33258336],[11.04175233,54.33256436],[11.04077841,54.33251041],[11.04070441,54.33250208],[11.03986848,54.33234179],[11.03980948,54.33232946],[11.03959217,54.33225581],[11.03954451,54.33223315],[11.03911457,54.33193653],[11.03907658,54.3319072],[11.03580807,54.32929397],[11.03577441,54.32926697],[11.03244126,54.32666138],[11.03241493,54.32664039],[11.03230096,54.32653274],[11.0322853,54.32651308],[11.0322653,54.32642243],[11.03227729,54.32639777],[11.03260452,54.32590751],[11.03262152,54.32588251],[11.03272783,54.3257922],[11.03275682,54.32578221],[11.0329058,54.32576356],[11.03294946,54.32576356],[11.03359739,54.32578483],[11.03363205,54.32578417],[11.03416401,54.3257369],[11.03422767,54.32572624],[11.03516761,54.32547696],[11.03528127,54.32544297],[11.03653921,54.32502203],[11.03665621,54.32499937],[11.03786548,54.32498536],[11.03795481,54.3249787],[11.03878676,54.32482273],[11.03888809,54.32481473],[11.03985704,54.32485203],[11.03993837,54.3248447],[11.04016636,54.32479737],[11.04023502,54.32477404],[11.04071698,54.3245691],[11.04077031,54.3245531],[11.0412606,54.3244568],[11.04132893,54.32445081],[11.04216653,54.32445443],[11.04222519,54.32445609],[11.04319414,54.32451403],[11.04328713,54.32451736],[11.04344212,54.32449004],[11.04349745,54.32445805],[11.04358344,54.3243164],[11.04359077,54.32426007],[11.04353447,54.32395311],[11.04350181,54.32389478],[11.04340949,54.32378812],[11.04335049,54.32374046],[11.04278154,54.32335582],[11.04272621,54.32331316],[11.0424399,54.32304787],[11.04240191,54.32300188],[11.04215062,54.3225816],[11.04212763,54.32253794],[11.04179605,54.32174334],[11.04178672,54.32169301],[11.04177275,54.32145237],[11.04177374,54.32140504],[11.04179706,54.32121106],[11.04180705,54.3211624],[11.04194836,54.32071345],[11.04196835,54.32066246],[11.04219897,54.32017385],[11.04221297,54.32012586],[11.04224794,54.3197409],[11.04225027,54.31971424],[11.04230757,54.31958893],[11.0423159,54.31956393],[11.04234152,54.3193583],[11.04234751,54.31932931],[11.04249677,54.31886105],[11.04250277,54.31883172],[11.04248214,54.31855678],[11.04247981,54.31852279],[11.04249812,54.31835414],[11.04250412,54.31832148],[11.04269768,54.3175476],[11.04271134,54.31750961],[11.04276466,54.31744395],[11.04280732,54.31742029],[11.04306096,54.31735032],[11.04309062,54.31732999],[11.04315859,54.31718435],[11.04316492,54.31715269],[11.04316193,54.31693171],[11.04317426,54.31690638],[11.04334424,54.31683474],[11.04341257,54.31682875],[11.04372222,54.31683974],[11.04380388,54.31684973],[11.04422485,54.3169347],[11.04430651,54.31695803],[11.04543811,54.31741694],[11.04550877,54.31744593],[11.04577775,54.31752291],[11.04584441,54.31753357],[11.04673732,54.31760018],[11.04679798,54.31759785],[11.0469153,54.31758152],[11.04696696,54.31756486],[11.04727392,54.31741889],[11.04730491,54.31739323],[11.04737255,54.31725758],[11.04738055,54.31721825],[11.04743781,54.31681363],[11.04744214,54.31677463],[11.04744747,54.316395],[11.04744813,54.31635567],[11.04748444,54.31619569],[11.04749877,54.31615469],[11.04838526,54.31434792],[11.04840892,54.31429793],[11.04932573,54.31251513],[11.04934306,54.31247647],[11.04950734,54.31204619],[11.04952,54.31200253],[11.04964426,54.31133293],[11.04965392,54.31128793],[11.04972222,54.31107463],[11.04974955,54.3110363],[11.04987553,54.31092765],[11.04993052,54.31089432],[11.05148239,54.31011143],[11.05155638,54.31007243],[11.05236397,54.30961015],[11.0523783,54.30960415],[11.05152103,54.30932656],[11.05145803,54.3092979],[11.05140537,54.30926391],[11.05137271,54.30922258],[11.05139504,54.3090726],[11.05144037,54.30902727],[11.05170435,54.30890295],[11.05177201,54.30887596],[11.05214533,54.30875431],[11.05223199,54.30873232],[11.05241798,54.308694],[11.05251731,54.30868],[11.05312028,54.30863437],[11.05321494,54.30861971],[11.05364891,54.3084974],[11.05372724,54.30846607],[11.05401923,54.30832943],[11.05408822,54.30829244],[11.05440919,54.30808847],[11.05446952,54.30804414],[11.05463917,54.30790349],[11.05468983,54.3078525],[11.0549128,54.30758552],[11.05494479,54.30753086],[11.05509443,54.30720188],[11.05511142,54.30714488],[11.05513908,54.30685123],[11.05513408,54.30679257],[11.05493885,54.30550038],[11.05492719,54.30545338],[11.05476659,54.30502574],[11.05475126,54.30498408],[11.05454164,54.30454679],[11.05453031,54.30450779],[11.05452232,54.3043918],[11.05452965,54.30435547],[11.05461864,54.30424183],[11.05465063,54.30422417],[11.05472195,54.30420418],[11.05476361,54.30420085],[11.05555553,54.30421814],[11.05561186,54.30421814],[11.05869328,54.3041856],[11.05878728,54.30419259],[11.05915359,54.30424723],[11.05923858,54.30426889],[11.06034353,54.30463483],[11.06042986,54.30465749],[11.06204508,54.30493073],[11.06212141,54.30494572],[11.06283101,54.30518432],[11.06286967,54.30519498],[11.06404992,54.30541557],[11.06414225,54.30542857],[11.07169329,54.3060356],[11.07176262,54.30604159],[11.07232525,54.30614121],[11.07240058,54.3061502],[11.07393111,54.3062914],[11.07397344,54.30629539],[11.07416875,54.30630636],[11.07420341,54.30630303],[11.07427806,54.30626704],[11.07430406,54.30625704],[11.07451138,54.30623141],[11.07455271,54.30622341],[11.07473303,54.30614744],[11.07477602,54.30614045],[11.07491134,54.30614444],[11.07495134,54.30615077],[11.07520263,54.30622806],[11.07520762,54.30623239],[11.07514229,54.30624305],[11.07488363,54.30613272],[11.07491794,54.30611542],[11.07492693,54.30610209],[11.0749649,54.30599512],[11.07498356,54.30597113],[11.07516752,54.30584982],[11.07519918,54.30582782],[11.07527217,54.30570317],[11.07528317,54.30566651],[11.07551702,54.30450969],[11.07551868,54.30448136],[11.07557633,54.30437205],[11.07558699,54.30434206],[11.07563262,54.30406543],[11.07563995,54.30402744],[11.07585555,54.30318418],[11.07586521,54.30314285],[11.07587952,54.30267324],[11.07588018,54.30263824],[11.07585954,54.30254927],[11.07585621,54.30254194],[11.0759675,54.30240196],[11.07600149,54.30235097],[11.07593988,54.30247391],[11.07594154,54.3024859],[11.07604051,54.30250221],[11.07607184,54.30249721],[11.07623809,54.30124937],[11.07624608,54.30121871],[11.07692107,54.29918411],[11.0769304,54.29915611],[11.07715155,54.2982396],[11.07715721,54.29821827],[11.07732045,54.29772735],[11.07733244,54.29769169],[11.07748238,54.29728709],[11.07749638,54.29725476],[11.07761799,54.29703581],[11.07763098,54.29700348],[11.07773926,54.29666421],[11.07775359,54.29662922],[11.07793687,54.29629359],[11.07794753,54.29626493],[11.07802181,54.29588001],[11.07802581,54.29584468],[11.07799983,54.29569904],[11.07800782,54.29567471],[11.07833376,54.29541743],[11.07835976,54.29539043],[11.0784604,54.29520346],[11.07846906,54.29517747],[11.07854368,54.29491553],[11.07854768,54.29489153],[11.07868483,54.29395404],[11.07868816,54.29394671],[11.07867382,54.29387072],[11.07867748,54.29384539],[11.07874379,54.29369707],[11.07875779,54.29366374],[11.0787821,54.29347543],[11.07879376,54.29343677],[11.0789757,54.29302518],[11.07898869,54.29298918],[11.07903166,54.29276987],[11.07904066,54.29273221],[11.07916928,54.29243125],[11.07918227,54.29239392],[11.07921158,54.29220962],[11.07922357,54.29217429],[11.0793592,54.29192365],[11.07937586,54.29188699],[11.07980603,54.29079748],[11.07982003,54.29076282],[11.07991401,54.29060185],[11.079929,54.29056952],[11.08002528,54.29023725],[11.08003894,54.29020526],[11.08031353,54.28964636],[11.08032586,54.2896157],[11.08036916,54.28927375],[11.08037649,54.28923909],[11.08050045,54.28902613],[11.08051678,54.28899613],[11.08059074,54.28878717],[11.08060073,54.28875684],[11.08078163,54.28802395],[11.08078929,54.28798862],[11.08078662,54.28785164],[11.08079095,54.28782865],[11.08092924,54.28765468],[11.08093957,54.28762402],[11.08142231,54.28580098],[11.08143297,54.28576598],[11.08206867,54.28379359],[11.08208,54.28375693],[11.08228462,54.28327765],[11.08229461,54.28324899],[11.08230126,54.28304003],[11.08230859,54.28300504],[11.08244723,54.2827864],[11.08246489,54.28275407],[11.08252086,54.28259344],[11.08252885,54.28256678],[11.08257115,54.28222987],[11.08257115,54.28221354],[11.08247551,54.28211756],[11.08245852,54.2820979],[11.0824412,54.28203458],[11.08244586,54.28201159],[11.08272477,54.28167568],[11.08273876,54.28164502],[11.08295792,54.28050654],[11.08296392,54.28047288],[11.08303451,54.27990262],[11.08303251,54.27986396],[11.08300487,54.27970697],[11.08299688,54.27966864],[11.08290524,54.27949167],[11.08289158,54.27945734],[11.08282763,54.27901939],[11.08282563,54.27897273],[11.08291515,54.27751459],[11.08291681,54.27747459],[11.08307431,54.27622579],[11.08307964,54.27619279],[11.08309095,54.27583618],[11.08308962,54.27580085],[11.08303869,54.27529092],[11.08303636,54.27525659],[11.0829981,54.27417312],[11.08299577,54.27414512],[11.08301243,54.27409847],[11.08303209,54.27408314],[11.08315007,54.27405016],[11.08317373,54.2740415],[11.08331602,54.27394786],[11.08333535,54.27393287],[11.08338631,54.27379657],[11.08338764,54.2738179],[11.08337232,54.27389055],[11.08334832,54.27390988],[11.08313402,54.27394886],[11.08310436,54.27393987],[11.08304737,54.27387622],[11.08303504,54.27384656],[11.08297407,54.27357724],[11.08296874,54.27353458],[11.08293713,54.27232636],[11.08293547,54.27228403],[11.08284427,54.27126315],[11.08284127,54.27121815],[11.08284227,54.2703839],[11.08283427,54.27035457],[11.0828616,54.27021324],[11.0828616,54.27019558],[11.08284661,54.26996997],[11.08284595,54.26995631],[11.08279167,54.26974371],[11.08278967,54.26972038],[11.08279898,54.26888917],[11.08279898,54.26885784],[11.08273046,54.26712943],[11.0827298,54.2670961],[11.08270082,54.26696812],[11.08268583,54.26693746],[11.08245757,54.26658351],[11.08244591,54.26655585],[11.08217904,54.26554434],[11.08216938,54.26550134],[11.08215405,54.26541302],[11.08215239,54.26536769],[11.08220336,54.26509204],[11.08221002,54.26504438],[11.08220238,54.26476542],[11.08220005,54.26472109],[11.08207681,54.2638192],[11.08206815,54.26377954],[11.08202683,54.26370221],[11.08199483,54.26366522],[11.08168353,54.26343693],[11.0816422,54.26340827],[11.08153789,54.26327963],[11.08152156,54.26324597],[11.08102377,54.26110952],[11.08101311,54.26105519],[11.08086249,54.26071923],[11.08084916,54.26068057],[11.08084286,54.26052593],[11.08084253,54.26048294],[11.08078056,54.26031231],[11.08077523,54.26029332],[11.08079889,54.26027966],[11.08082452,54.26055262],[11.08082885,54.26057795],[11.08084285,54.26060094],[11.08086984,54.26061727],[11.08095549,54.26059961],[11.08096882,54.26057861],[11.08099144,54.26000435],[11.0809961,54.25996869],[11.0811517,54.25952141],[11.08116503,54.25946475],[11.08123799,54.25889979],[11.08123299,54.25883346],[11.08120067,54.25857547],[11.08118734,54.25851281],[11.08105771,54.25804485],[11.08104305,54.25798919],[11.08050719,54.25648368],[11.08049253,54.25643835],[11.0803559,54.25593941],[11.08033924,54.25588342],[11.08012329,54.25526447],[11.08010763,54.25520981],[11.07997903,54.25463152],[11.07996903,54.25456986],[11.07988581,54.25340662],[11.07988647,54.25334563],[11.08001039,54.25206241],[11.08001405,54.25200008],[11.08002535,54.25095484],[11.08003001,54.25089451],[11.08053735,54.24662518],[11.08054601,54.24656319],[11.08061431,54.24619823],[11.08062797,54.24613824],[11.08080892,54.24547329],[11.08081825,54.2454133],[11.08084821,54.24465669],[11.08085521,54.24459203],[11.08121198,54.24177794],[11.08121997,54.24171761],[11.08130759,54.24123367],[11.08132258,54.24117367],[11.08142888,54.24081837],[11.08144787,54.24075971],[11.0821857,54.23872854],[11.0822077,54.23867055],[11.08255031,54.2379576],[11.08257064,54.23790361],[11.08268593,54.23740865],[11.08270392,54.23735366],[11.0833768,54.23544414],[11.08339713,54.23538015],[11.08342811,54.23518583],[11.08342944,54.2351205],[11.08338816,54.23454288],[11.0833855,54.23447855],[11.08341115,54.23428689],[11.08343181,54.23422256],[11.08351546,54.23403124],[11.08355379,54.23396858],[11.08408906,54.23328265],[11.08413572,54.23321799],[11.08427403,54.23294869],[11.08430003,54.23288103],[11.0846523,54.23192977],[11.08466929,54.23185944],[11.08467296,54.23172278],[11.08466163,54.23165878],[11.08452067,54.23128048],[11.08452966,54.23124415],[11.08455532,54.23121316],[11.08460032,54.2311925],[11.08479831,54.23116451],[11.08486931,54.23114518],[11.0849733,54.23106986],[11.08499963,54.2310172],[11.08504926,54.23048723],[11.08505792,54.2304189],[11.08517389,54.23001093],[11.08519589,54.2299446],[11.08577145,54.22834441],[11.08579511,54.22827842],[11.08599708,54.22781812],[11.08602274,54.22775013],[11.08616503,54.22726151],[11.08618936,54.22719351],[11.08670095,54.22590927],[11.08672561,54.22584494],[11.08706119,54.22478204],[11.08708285,54.22471938],[11.08795662,54.22236392],[11.08796595,54.22231926],[11.08791796,54.22226161],[11.08787363,54.22224462],[11.08747766,54.22216865],[11.087396,54.22214932],[11.08708636,54.22204968],[11.08701737,54.22202269],[11.08599415,54.2215945],[11.08596549,54.2215855],[11.0859295,54.22155718],[11.08592117,54.22154052],[11.08594783,54.22149354],[11.08595149,54.22149121],[11.08587016,54.2215392],[11.0853182,54.22166016],[11.08525987,54.22167882],[11.08439732,54.22199506],[11.08437599,54.22199473],[11.08444698,54.2219154],[11.08460064,54.22184674],[11.0853496,54.22160079],[11.08541393,54.2215808],[11.08594257,54.22150351],[11.08600623,54.22149318],[11.08625121,54.22142953],[11.08631154,54.2214102],[11.08687782,54.22110659],[11.08692815,54.22107626],[11.08728745,54.22082597],[11.08732011,54.22079197],[11.08744575,54.22055867],[11.08746708,54.22051834],[11.08758907,54.22036336],[11.08762773,54.22032503],[11.08820434,54.21987578],[11.088244,54.21983512],[11.08830299,54.21975213],[11.08832265,54.21971113],[11.08834764,54.21959449],[11.08834331,54.21955783],[11.08821472,54.21899958],[11.08820439,54.21896225],[11.08809375,54.21881561],[11.08804642,54.21878128],[11.08785977,54.21870563],[11.08779178,54.21868497],[11.08562131,54.21808912],[11.08554631,54.21806079],[11.08514267,54.21785949],[11.08508734,54.2178215],[11.08483469,54.21762986],[11.08478969,54.2175932],[11.08453406,54.21734055],[11.08450806,54.21730322],[11.08442442,54.21711591],[11.08441209,54.21707658],[11.08439711,54.21688059],[11.08439112,54.21684026],[11.08427883,54.21643464],[11.08427284,54.21639531],[11.08426051,54.21598136],[11.08425952,54.2159407],[11.0841999,54.21567273],[11.08419691,54.2156354],[11.08423717,54.21480182],[11.0842405,54.21474249],[11.08422719,54.21449885],[11.08422319,54.21443752],[11.08400591,54.21362358],[11.08400125,54.21356625],[11.08400491,54.2133926],[11.08401224,54.2133336],[11.08411653,54.21290831],[11.08412886,54.21284698],[11.0841505,54.21259934],[11.08414817,54.21253701],[11.08412785,54.21241303],[11.08410919,54.21235137],[11.08397189,54.21200241],[11.08394689,54.21194875],[11.08370161,54.21145414],[11.08367328,54.21140914],[11.08347031,54.2112755],[11.08342732,54.21124217],[11.08326435,54.21091854],[11.08322302,54.21087254],[11.0830547,54.21075289],[11.08299204,54.21071656],[11.08248342,54.21044461],[11.08242776,54.21040895],[11.08192615,54.21001066],[11.08188415,54.20998133],[11.0817345,54.20992801],[11.08169384,54.20990335],[11.08154588,54.20960104],[11.08151055,54.20955205],[11.08112027,54.20912611],[11.08108994,54.20907778],[11.08089435,54.2083912],[11.08087802,54.2083412],[11.08072638,54.20805123],[11.08069172,54.2080049],[11.08045209,54.20773826],[11.0804021,54.20769727],[11.07975348,54.20726232],[11.07969349,54.20722032],[11.07943186,54.20699403],[11.0793912,54.2069447],[11.07918723,54.20656641],[11.07916557,54.20650942],[11.07910528,54.20610412],[11.07909262,54.20604679],[11.07893699,54.20567716],[11.07891499,54.20562883],[11.07891565,54.20544385],[11.07890932,54.20539719],[11.07873269,54.2049719],[11.07870503,54.20493224],[11.0786637,54.20490025],[11.07861237,54.20487859],[11.07849004,54.20487759],[11.07842338,54.20489492],[11.07788642,54.20507922],[11.07781143,54.20510921],[11.07735514,54.20532251],[11.07728581,54.20532717],[11.07708183,54.20527518],[11.0770165,54.20524552],[11.07671486,54.20505389],[11.07665553,54.20501089],[11.07650521,54.20486458],[11.07646321,54.20481259],[11.07597994,54.20412497],[11.07593461,54.20407198],[11.0751777,54.20336438],[11.0751377,54.20332572],[11.07498206,54.20312642],[11.07493806,54.20308842],[11.0733622,54.20199658],[11.07330621,54.20195859],[11.07240228,54.20140834],[11.07236362,54.20137234],[11.07233196,54.20133535],[11.0723073,54.20129769],[11.07227365,54.20114504],[11.07225666,54.20110838],[11.07199104,54.20071676],[11.07195571,54.20066743],[11.07097318,54.19947789],[11.07092852,54.19943689],[11.07068055,54.19925192],[11.07062289,54.19922026],[11.07015159,54.19905296],[11.07008526,54.19902863],[11.06997394,54.19896431],[11.06992994,54.19892398],[11.06981662,54.19872666],[11.06979829,54.198672],[11.06959406,54.1975301],[11.06958306,54.19747077],[11.06944475,54.19718479],[11.06939742,54.1971308],[11.0692211,54.19698382],[11.0691551,54.19693649],[11.06878545,54.19670419],[11.06873179,54.19668653],[11.06791884,54.19662124],[11.06783051,54.19661024],[11.0674982,54.19652659],[11.0674282,54.19649226],[11.06724589,54.19636395],[11.06719123,54.19631562],[11.06563935,54.19486112],[11.06559335,54.19481679],[11.06555936,54.19477246],[11.06554303,54.19472713],[11.06557735,54.19464214],[11.06562435,54.19460348],[11.06744588,54.19362228],[11.06750754,54.19358829],[11.06756354,54.19355396],[11.06760553,54.1935153],[11.06762554,54.19343698],[11.06759588,54.19339899],[11.06742755,54.193291],[11.06735989,54.19325501],[11.06587399,54.1925771],[11.06580099,54.19253877],[11.06503605,54.1920455],[11.06497939,54.1920065],[11.06459079,54.19160524],[11.06455813,54.19157625],[11.06134913,54.18896751],[11.0613018,54.18892818],[11.06068353,54.18834692],[11.0606362,54.18830726],[11.0600426,54.18782301],[11.06000094,54.18779035],[11.05950365,54.18743272],[11.05945632,54.18739506],[11.05121086,54.1806272],[11.05116487,54.18058987],[11.05054194,54.18011128],[11.05049095,54.18007495],[11.04970536,54.17957038],[11.04965537,54.17954039],[11.04883612,54.17909113],[11.04878412,54.1790648],[11.04800387,54.17870787],[11.04794954,54.17868321],[11.04713795,54.17834228],[11.04707862,54.17831995],[11.04583304,54.17790308],[11.04577304,54.17788309],[11.02873806,54.17255481],[11.0286674,54.17252948],[11.02706086,54.17182191],[11.02700853,54.17179691],[11.02283195,54.16974194],[11.02277862,54.16971561],[11.01656387,54.16660517],[11.01651087,54.16657917],[11.01523563,54.16608258],[11.01514697,54.16604358],[11.01231549,54.16465378],[11.01223983,54.16462179],[11.01146221,54.16433351],[11.01138322,54.16430918],[11.01004732,54.16396893],[11.00997366,54.16394827],[11.00923172,54.163696],[11.00916639,54.16367],[11.00710291,54.16272516],[11.00703758,54.16269616],[11.00266964,54.1607945],[11.00260331,54.16076984],[11.00144206,54.16044925],[11.00136206,54.16042759],[10.99868689,54.15975611],[10.99861856,54.15973845],[10.99804361,54.15957717],[10.99798428,54.15955951],[10.99749898,54.15938088],[10.99743498,54.15935722],[10.99632442,54.15886366],[10.99628576,54.158843],[10.99612378,54.15874136],[10.99611445,54.15872137],[10.99612145,54.15870438],[10.99614278,54.15869205],[10.99624476,54.15868107],[10.99625242,54.15868074],[10.99618876,54.15870707],[10.99614676,54.15870574],[10.99600278,54.15867209],[10.99595478,54.15865009],[10.99512089,54.15809419],[10.99506956,54.1580632],[10.994002,54.15748999],[10.99393434,54.15745966],[10.99259742,54.15696643],[10.99251009,54.15693643],[10.99114251,54.15650184],[10.99108385,54.15648284],[10.99088887,54.15638019],[10.99083687,54.15635619],[10.98936532,54.15583099],[10.98930899,54.155811],[10.98623092,54.15478622],[10.98615592,54.15476689],[10.98499633,54.15455829],[10.984923,54.15454463],[10.98156592,54.15385824],[10.98150692,54.15384691],[10.9809073,54.1536803],[10.9808463,54.15365864],[10.98003738,54.1532477],[10.97998538,54.15321904],[10.97953676,54.15293675],[10.97948843,54.15290409],[10.97926546,54.15273311],[10.97922413,54.15269712],[10.9787722,54.15225518],[10.9787322,54.15221985],[10.97854088,54.15209321],[10.97848688,54.15206588],[10.97551618,54.15096817],[10.97547752,54.15095351],[10.97371034,54.15056767],[10.97365468,54.15055501],[10.9727291,54.15042943],[10.9726841,54.15042143],[10.97098861,54.15007323],[10.97092561,54.15005957],[10.96681261,54.14931987],[10.96674261,54.14931354],[10.96296591,54.14963024],[10.96289825,54.14963857],[10.96265961,54.14969621],[10.96260928,54.14971521],[10.96256295,54.1497362],[10.96252329,54.14975986],[10.96241098,54.1498875],[10.96237299,54.14991816],[10.96221534,54.14994348],[10.96216868,54.14992615],[10.96206636,54.1498305],[10.96202537,54.14979584],[10.96177406,54.14963653],[10.96172973,54.14960087],[10.96138278,54.14926991],[10.96135912,54.14923025],[10.96107786,54.14860566],[10.9610622,54.14855833],[10.96105886,54.14846268],[10.96106819,54.14841469],[10.96117949,54.14803373],[10.96118315,54.1479864],[10.9611645,54.14789274],[10.9611435,54.14784675],[10.96098385,54.1476291],[10.96094119,54.14758911],[10.96005126,54.14721083],[10.95999226,54.14717283],[10.95883739,54.14610829],[10.95878406,54.14606729],[10.95653863,54.14475189],[10.9564783,54.14470923],[10.95597967,54.1443056],[10.95593134,54.14426327],[10.95494311,54.14332506],[10.95488711,54.14328373],[10.9546898,54.14319342],[10.9546238,54.14317209],[10.9537542,54.14293718],[10.95370054,54.14292285],[10.95267699,54.14270463],[10.95264266,54.14269397],[10.95128785,54.14212447],[10.95125619,54.14210814],[10.95090992,54.14186252],[10.95087992,54.14183552],[10.95008238,54.14091866],[10.95004839,54.14088],[10.94967944,54.14055337],[10.94963211,54.14051904],[10.94941646,54.14039506],[10.94935746,54.14036807],[10.94883382,54.14017344],[10.94876382,54.14014311],[10.94747957,54.13955085],[10.94740891,54.13951219],[10.94661132,54.13885225],[10.94652366,54.13881292],[10.94642966,54.13878759],[10.94633467,54.13877659],[10.94615268,54.13878492],[10.94607268,54.13879391],[10.94472147,54.13903916],[10.94467248,54.13904649],[10.94413955,54.1390821],[10.94409455,54.13908876],[10.94340793,54.13923335],[10.94336293,54.13924234],[10.94227238,54.1393892],[10.94223038,54.13939486],[10.93727622,54.14025204],[10.93720822,54.14026403],[10.93610232,54.14042792],[10.93605466,54.14043525],[10.93371887,54.1408567],[10.93365554,54.14087103],[10.93352454,54.14090835],[10.93345855,54.14093268],[10.9331429,54.14110165],[10.9330869,54.14113064],[10.93295791,54.14116864],[10.93288858,54.14117964],[10.93274925,54.1411893],[10.93268292,54.14118531],[10.93185499,54.14110171],[10.93179833,54.14109538],[10.93136803,54.14099841],[10.9313137,54.14099508],[10.93120371,54.14100873],[10.93115138,54.14102439],[10.93082974,54.14115201],[10.93078541,54.141153],[10.93065475,54.14110369],[10.93061209,54.14108069],[10.92956889,54.14047449],[10.92952889,54.14045516],[10.92934492,54.14031151],[10.92931159,54.14028752],[10.92900931,54.14011123],[10.92898032,54.14009523],[10.92847905,54.13994328],[10.92842906,54.13991462],[10.92369116,54.13703334],[10.9236305,54.13699668],[10.92254692,54.13638542],[10.92247926,54.13634843],[10.92184997,54.1360258],[10.92177831,54.13599147],[10.92099837,54.13564353],[10.92092904,54.13561487],[10.91913982,54.13497602],[10.91908183,54.13494769],[10.91899951,54.13484071],[10.91901084,54.13480271],[10.9192378,54.13454542],[10.91926713,54.13450876],[10.91931711,54.13439244],[10.91931545,54.13435178],[10.91924813,54.13423013],[10.91920747,54.13419247],[10.91898883,54.13405249],[10.91892583,54.13401949],[10.9184052,54.13383719],[10.91832821,54.13381586],[10.91509976,54.13307043],[10.91503777,54.1330611],[10.91434181,54.13304478],[10.91427882,54.13304777],[10.91324726,54.1331377],[10.91319226,54.13314236],[10.9113531,54.13324251],[10.91130177,54.13323985],[10.90951228,54.13285301],[10.90946362,54.13284202],[10.90820673,54.13260279],[10.90816073,54.13259279],[10.90780209,54.13259379],[10.90774809,54.1325868],[10.9068715,54.13241621],[10.90682384,54.13241687],[10.90653288,54.1324915],[10.90648989,54.1324995],[10.90566235,54.13262803],[10.90562569,54.13263502],[10.90419854,54.13302682],[10.90415821,54.13303182],[10.90354329,54.1330295],[10.90348896,54.13302584],[10.90246906,54.13290826],[10.90242107,54.13290593],[10.90185513,54.1329619],[10.9017928,54.13297356],[10.89939699,54.13365973],[10.89931633,54.13367873],[10.89822039,54.13392266],[10.89814639,54.13393732],[10.89662886,54.13419686],[10.89657387,54.13420752],[10.8956043,54.13442844],[10.89554597,54.1344431],[10.89335752,54.13510019],[10.89329719,54.13511085],[10.89217529,54.13525812],[10.89211663,54.13526412],[10.88899519,54.13551853],[10.88891819,54.13551754],[10.88860788,54.13548656],[10.88853222,54.1354719],[10.8875933,54.135239],[10.8875353,54.13522534],[10.88643871,54.13500142],[10.88636371,54.13497876],[10.88592806,54.13482678],[10.88583307,54.13479012],[10.88502112,54.13443383],[10.88492912,54.13440183],[10.88474147,54.1343455],[10.88464181,54.13432184],[10.88426149,54.13426786],[10.88419383,54.13424586],[10.88391953,54.13403157],[10.88386887,54.13399491],[10.88374222,54.13394425],[10.88367122,54.13393325],[10.88278229,54.1340042],[10.88272096,54.13401186],[10.88098642,54.13433376],[10.88091176,54.13434409],[10.8798705,54.13443468],[10.87979817,54.13443534],[10.87875524,54.13433807],[10.87866858,54.13432674],[10.87772431,54.13414445],[10.87762632,54.13413712],[10.87682303,54.13412946],[10.8767217,54.13413146],[10.87584441,54.13419941],[10.87575175,54.1342024],[10.87538643,54.13418309],[10.87529577,54.13417376],[10.87462248,54.13406147],[10.87454349,54.13404614],[10.87326057,54.1337599],[10.87318491,54.13374457],[10.87278693,54.1336876],[10.87270227,54.13368194],[10.87019872,54.13371519],[10.87011806,54.13371652],[10.86799516,54.13368395],[10.86791516,54.13367295],[10.86743619,54.13356997],[10.86735453,54.13354598],[10.86480233,54.13274479],[10.86471333,54.13271713],[10.86319344,54.13221424],[10.86314111,54.13219858],[10.86208154,54.13181268],[10.86198521,54.13177835],[10.86115126,54.13145174],[10.86108293,54.13142341],[10.86083897,54.13128044],[10.86080364,54.13124844],[10.86041672,54.13072817],[10.86039006,54.13068984],[10.85976787,54.12970296],[10.85973688,54.12967597],[10.85954957,54.12964031],[10.85950024,54.1296523],[10.85911198,54.12983891],[10.85909999,54.12983625],[10.85913898,54.12980793],[10.85916064,54.1297946],[10.8591703,54.12974762],[10.85915464,54.12973229],[10.85544742,54.12701404],[10.85541476,54.12698804],[10.85539476,54.12696371],[10.85539143,54.12694271],[10.85542809,54.12690206],[10.85546342,54.1268804],[10.85631968,54.12648016],[10.85634301,54.1264585],[10.856355,54.1264335],[10.856355,54.1264055],[10.85628868,54.12631819],[10.85625302,54.12628886],[10.85591205,54.12610557],[10.85585272,54.12608291],[10.85519045,54.12587798],[10.85511745,54.12585932],[10.85465681,54.12580434],[10.85458082,54.12580933],[10.85436883,54.12585898],[10.85430884,54.12588664],[10.85388321,54.12617326],[10.85383921,54.12620059],[10.85348759,54.12637322],[10.85344259,54.12638988],[10.85265633,54.12662912],[10.85259033,54.12664678],[10.85194904,54.12677974],[10.85187871,54.1267924],[10.85118976,54.12688668],[10.85113177,54.12689234],[10.85035316,54.12692394],[10.85029383,54.12692427],[10.84941856,54.12689567],[10.84935723,54.12689134],[10.8489186,54.12679606],[10.84887727,54.1267754],[10.84883328,54.12672408],[10.84883827,54.12669475],[10.84903056,54.12632248],[10.84904522,54.12628182],[10.84913416,54.12584823],[10.84913449,54.12581157],[10.84904188,54.12547761],[10.84903055,54.12544528],[10.84888661,54.1252127],[10.84887695,54.12519504],[10.84879135,54.12497311],[10.84878169,54.12495178],[10.84877004,54.12464687],[10.84877203,54.12461887],[10.84883667,54.12437122],[10.84886,54.12432023],[10.84910162,54.12392494],[10.84912895,54.12386428],[10.84918192,54.12362197],[10.84918192,54.12356198],[10.84914793,54.12338733],[10.84911827,54.123333],[10.84874364,54.12292138],[10.84869565,54.12288538],[10.84828801,54.12267275],[10.84822168,54.12264442],[10.84622309,54.12192352],[10.8461121,54.12188152],[10.84544546,54.12156889],[10.8453688,54.12151956],[10.84502351,54.1212166],[10.84497718,54.12116727],[10.84456526,54.12064566],[10.84453693,54.12061167],[10.84422263,54.12033337],[10.8441733,54.12028271],[10.84363269,54.11965911],[10.84359336,54.11961845],[10.84289409,54.11906984],[10.8428501,54.11903151],[10.84267483,54.11881389],[10.84264783,54.1187859],[10.8417886,54.11827764],[10.84174027,54.11824831],[10.84084269,54.1176361],[10.8407987,54.11761311],[10.84029309,54.11739017],[10.84024109,54.11737384],[10.83842922,54.11695962],[10.83833689,54.11693429],[10.83550408,54.11604479],[10.83545775,54.11602813],[10.83479816,54.11572986],[10.83474216,54.1157032],[10.83287999,54.11477702],[10.83283133,54.11475269],[10.83250336,54.1145324],[10.83246736,54.11450141],[10.83241271,54.11443409],[10.83239771,54.11439843],[10.83240404,54.11420812],[10.83238771,54.11417079],[10.83213974,54.11390317],[10.83211941,54.11386717],[10.83190281,54.11332821],[10.83188448,54.11328688],[10.83170053,54.11294259],[10.8316822,54.11289426],[10.83136963,54.11195769],[10.8313513,54.11190736],[10.83131732,54.11165538],[10.83130466,54.11160505],[10.8311387,54.11116109],[10.8311247,54.11111543],[10.83103773,54.11070947],[10.83103073,54.11067314],[10.83105705,54.11034719],[10.83106638,54.11031019],[10.83123299,54.10995258],[10.83124732,54.10992492],[10.83126197,54.10981095],[10.83126263,54.10978196],[10.83121566,54.10964966],[10.83120433,54.109624],[10.8311047,54.10946903],[10.83109371,54.10944304],[10.83102475,54.10921173],[10.83101875,54.10918307],[10.83101043,54.10907543],[10.83101376,54.1090501],[10.83109236,54.1086562],[10.83109335,54.1086512],[10.83104336,54.10853554],[10.8310387,54.10850754],[10.8309901,54.1076663],[10.8309941,54.10762931],[10.83101309,54.10755599],[10.83103542,54.10751999],[10.83114875,54.10741533],[10.83118341,54.10737667],[10.83125339,54.10725468],[10.83126772,54.10721302],[10.83135462,54.10657415],[10.83136428,54.10653882],[10.83157954,54.10610154],[10.83158987,54.10606588],[10.83159389,54.10569393],[10.83159256,54.10566193],[10.83157391,54.10556929],[10.83155825,54.10554063],[10.83143727,54.10540432],[10.83142261,54.10537299],[10.83138897,54.10521569],[10.83138098,54.10518269],[10.83130534,54.10501472],[10.83128401,54.10498106],[10.83105671,54.10473378],[10.83102505,54.10470478],[10.83070344,54.10448149],[10.83067711,54.10445683],[10.83064212,54.1044035],[10.83063279,54.10437451],[10.83060415,54.1041972],[10.83060614,54.10416821],[10.83071778,54.10403123],[10.83075778,54.1040059],[10.83120638,54.1038133],[10.83124604,54.10379864],[10.83188867,54.10359104],[10.831956,54.10357405],[10.8323943,54.10351909],[10.83243396,54.10351209],[10.83251262,54.10351676],[10.83254995,54.10352875],[10.83318687,54.1038],[10.8332362,54.10381799],[10.83350617,54.10387563],[10.83353917,54.10388562],[10.83358516,54.10393993],[10.83359049,54.10396259],[10.83359615,54.10413754],[10.83359648,54.10415954],[10.83358849,54.10415221],[10.83346549,54.10384822],[10.83301853,54.10374661],[10.8329752,54.10373395],[10.83253125,54.10352368],[10.83248959,54.10351135],[10.83228263,54.10350667],[10.8322443,54.10351133],[10.83166805,54.10364125],[10.83163372,54.10365191],[10.83075453,54.10400442],[10.8307142,54.10402442],[10.83060989,54.10414339],[10.83060356,54.10416839],[10.8306472,54.10440968],[10.83064054,54.10444168],[10.83054488,54.10452],[10.83049589,54.10453733],[10.8303859,54.10455031],[10.83032857,54.10454665],[10.82985028,54.10449436],[10.82979128,54.10449236],[10.82948864,54.10450867],[10.82942564,54.10451633],[10.82777976,54.10477888],[10.8277001,54.10479154],[10.82376866,54.10549797],[10.82367966,54.10550863],[10.82301503,54.1055526],[10.82291737,54.10555393],[10.82129212,54.105539],[10.82124579,54.105547],[10.82114247,54.10559398],[10.82113748,54.10559931],[10.82112382,54.10567796],[10.82112548,54.10570496],[10.82127045,54.10606591],[10.82128944,54.10611124],[10.82129343,54.10634321],[10.82130109,54.1063902],[10.82142139,54.10666951],[10.82143138,54.10671451],[10.82145136,54.10689515],[10.82145536,54.10693781],[10.82144705,54.1074311],[10.82144072,54.10743876],[10.82144203,54.1070225],[10.82143704,54.10698751],[10.82136639,54.10691953],[10.82132706,54.10691454],[10.82019182,54.10698845],[10.82012082,54.10699945],[10.82005849,54.10701778],[10.82000616,54.10704211],[10.81981452,54.10717376],[10.81974386,54.10719909],[10.81915189,54.10727872],[10.81908823,54.10728272],[10.81891292,54.10726775],[10.81886559,54.10726609],[10.81803132,54.10730837],[10.81794066,54.10730804],[10.81525916,54.10725787],[10.81519083,54.10725654],[10.81494919,54.10724623],[10.81490153,54.1072399],[10.81473522,54.10718493],[10.81468423,54.1071766],[10.81394764,54.10713601],[10.81390264,54.10713468],[10.81367067,54.10717265],[10.81360834,54.10718065],[10.81332369,54.10718664],[10.8132497,54.10718365],[10.81238909,54.1071077],[10.81229543,54.10709704],[10.8110845,54.10692046],[10.8110395,54.1069158],[10.80943963,54.10649762],[10.80937264,54.10648429],[10.80781743,54.10630641],[10.80774944,54.10629708],[10.80727847,54.10619644],[10.80720747,54.10617578],[10.80686616,54.10604581],[10.80680117,54.10601648],[10.80118763,54.10335633],[10.80113297,54.10333067],[10.80081602,54.10307705],[10.80076603,54.10305105],[10.79355107,54.09959712],[10.79350674,54.09957246],[10.79343942,54.09951647],[10.79341776,54.09948581],[10.7932025,54.09900388],[10.79318884,54.09898089],[10.79237512,54.09773553],[10.79235746,54.09771387],[10.79201784,54.09747292],[10.79198851,54.09744959],[10.79128595,54.09685471],[10.79125662,54.09682872],[10.78922362,54.09485341],[10.78919729,54.09483275],[10.78869336,54.09458418],[10.78864903,54.09456785],[10.78753382,54.09422831],[10.78748149,54.09421298],[10.78707952,54.09411401],[10.78701419,54.09410135],[10.78604823,54.09395807],[10.7859649,54.09393841],[10.78451833,54.09350917],[10.78444167,54.09348117],[10.78423268,54.09338219],[10.78417269,54.09334753],[10.78317546,54.09269098],[10.78312846,54.09266298],[10.78165457,54.09182108],[10.78158724,54.09177842],[10.78090397,54.09125246],[10.78084664,54.09120246],[10.78038302,54.09071453],[10.78036236,54.09068254],[10.78019974,54.09030893],[10.78018641,54.09026693],[10.77994952,54.08922968],[10.77992786,54.08916469],[10.77983088,54.08890271],[10.77980189,54.08883605],[10.77965425,54.0885764],[10.77960659,54.08851907],[10.77937527,54.08832976],[10.77931261,54.08829176],[10.77745342,54.08726889],[10.77738676,54.08722789],[10.7771068,54.08703458],[10.77707614,54.08701059],[10.77678052,54.08675097],[10.77675452,54.08672231],[10.77665554,54.08660067],[10.77663354,54.08656734],[10.77644792,54.08623241],[10.77643293,54.08620142],[10.77626635,54.08568818],[10.77626002,54.08566219],[10.77609752,54.08451634],[10.77609419,54.08446135],[10.77613579,54.08334712],[10.77613978,54.08329913],[10.77619138,54.08279487],[10.77619571,54.08276487],[10.77633492,54.08196569],[10.77634091,54.08193836],[10.77651119,54.08160639],[10.77652352,54.0815714],[10.77678604,54.08060819],[10.7767977,54.08056586],[10.77694231,54.08019023],[10.7769543,54.08014923],[10.77691666,54.07994225],[10.77692266,54.07989692],[10.7772259,54.07909202],[10.77724289,54.07904036],[10.77729354,54.07883605],[10.7773022,54.07878739],[10.77736181,54.07827814],[10.77737114,54.07823848],[10.77747878,54.07800985],[10.77749544,54.07797319],[10.77758373,54.07767524],[10.77758539,54.07763825],[10.77751808,54.07732596],[10.77750875,54.07729263],[10.77733082,54.07680703],[10.77731682,54.07677203],[10.77716552,54.07654406],[10.77714886,54.0765024],[10.7768616,54.07563049],[10.77684261,54.07557983],[10.77652833,54.0749889],[10.77650334,54.07494124],[10.77646502,54.07479693],[10.77644603,54.07474927],[10.77631739,54.07452129],[10.7762934,54.0744753],[10.77568678,54.07376907],[10.77563912,54.07372141],[10.77372841,54.07206068],[10.77369808,54.07203268],[10.77355111,54.07188537],[10.77352645,54.07185471],[10.77343614,54.07167841],[10.77342081,54.07165242],[10.77328151,54.07150277],[10.77325585,54.07147777],[10.77235063,54.07079327],[10.77231397,54.07076261],[10.77184036,54.07031634],[10.7718027,54.07027734],[10.7713311,54.06972474],[10.77128177,54.06967974],[10.77117245,54.06960175],[10.77111479,54.06957009],[10.77060118,54.06935748],[10.77057118,54.06933349],[10.77053786,54.06927016],[10.7705372,54.0692325],[10.77057616,54.0689822],[10.7705755,54.06894221],[10.77052718,54.06874589],[10.77050419,54.0687059],[10.77026423,54.06843627],[10.77022223,54.06839194],[10.76987959,54.06814263],[10.76982159,54.06809563],[10.76950228,54.06779332],[10.76946162,54.06773966],[10.76934698,54.06752135],[10.76932665,54.06746702],[10.76922634,54.0670294],[10.76923634,54.0669734],[10.76949229,54.0666041],[10.76953862,54.06654944],[10.77025823,54.06581114],[10.77031489,54.06574915],[10.77035955,54.06569115],[10.77038621,54.06563649],[10.77036555,54.06553617],[10.77032055,54.06549551],[10.77010723,54.06540053],[10.77002357,54.0653732],[10.76771502,54.06464701],[10.76761636,54.06461602],[10.76608013,54.06416881],[10.7660208,54.06414915],[10.76489489,54.06399826],[10.76482089,54.0639856],[10.7642036,54.06378964],[10.76416961,54.06376898],[10.76413762,54.06371332],[10.76413862,54.06368066],[10.76426425,54.06348402],[10.76429991,54.06343969],[10.76447323,54.06325771],[10.76452389,54.06321271],[10.76488286,54.06292807],[10.76492985,54.06286874],[10.76496784,54.06280441],[10.76499484,54.06273408],[10.76497384,54.06259009],[10.76491851,54.06252943],[10.76484485,54.06247477],[10.76476152,54.06242611],[10.76403324,54.0620858],[10.76396724,54.06205147],[10.76300634,54.06152158],[10.76295001,54.06148892],[10.76070322,54.06009384],[10.76064522,54.06005951],[10.75972128,54.05957727],[10.75965762,54.05954461],[10.75900035,54.05916334],[10.75895169,54.05913435],[10.75737517,54.05810219],[10.75732817,54.0580722],[10.75623963,54.05716202],[10.75620397,54.05712602],[10.75527012,54.05597951],[10.75523979,54.05594085],[10.75465524,54.05513163],[10.75462891,54.0550923],[10.75321823,54.05288529],[10.75319657,54.0528523],[10.75284695,54.05257103],[10.75282395,54.05253704],[10.75249602,54.0518811],[10.75247403,54.05184011],[10.75223642,54.05150416],[10.75221176,54.0514645],[10.75207145,54.05117453],[10.75205479,54.05113954],[10.75204413,54.05111254],[10.7520438,54.05109021],[10.75212645,54.05100324],[10.75212579,54.05097324],[10.7519915,54.05069127],[10.75197284,54.05065294],[10.75165126,54.05012168],[10.75163126,54.05008702],[10.75070215,54.04839994],[10.75068149,54.04836528],[10.75057719,54.04810865],[10.75056453,54.04807265],[10.75009107,54.04624085],[10.75008608,54.04620152],[10.75009041,54.04616252],[10.75010974,54.04612719],[10.75025273,54.04604854],[10.75030173,54.04602088],[10.75036739,54.04595155],[10.75038272,54.04591255],[10.75040736,54.04574024],[10.75040802,54.04569158],[10.75038172,54.04544128],[10.75037272,54.04539195],[10.75027542,54.04520597],[10.75022543,54.04516864],[10.74976679,54.04500868],[10.74973246,54.04496968],[10.7496928,54.04487702],[10.74968047,54.04482569],[10.74965117,54.04449871],[10.74964751,54.04444405],[10.74965083,54.04391142],[10.74965283,54.04385709],[10.74971707,54.04302117],[10.74972107,54.04296584],[10.74983099,54.0421176],[10.74983665,54.04206627],[10.74994981,54.04073708],[10.74995447,54.04069675],[10.75001943,54.04041678],[10.75002609,54.04037445],[10.75002176,54.04007047],[10.75002642,54.04002614],[10.75014367,54.03929589],[10.75015433,54.03924923],[10.75030761,54.03872494],[10.75032094,54.03868395],[10.75064484,54.03787238],[10.75065883,54.03783272],[10.75082174,54.03716481],[10.7508334,54.03712415],[10.75131215,54.03574835],[10.75132581,54.03571502],[10.75137547,54.03565636],[10.75141246,54.03563303],[10.75184441,54.03542174],[10.75187507,54.03539441],[10.75212228,54.03485154],[10.75212328,54.03484788],[10.75249223,54.03436461],[10.75251089,54.03433495],[10.75248323,54.03424529],[10.75245224,54.03421796],[10.75222428,54.03411899],[10.75220029,54.03409433],[10.75221228,54.03400134],[10.75223361,54.03396834],[10.75279815,54.03325344],[10.75283048,54.03321611],[10.75322009,54.0328305],[10.75325175,54.03279384],[10.75343338,54.03248489],[10.75346237,54.03244923],[10.75391499,54.03212795],[10.75394065,54.03209762],[10.75397931,54.03203263],[10.75399264,54.03199864],[10.75403961,54.03177634],[10.75405061,54.03173868],[10.7541479,54.03156971],[10.75415023,54.03156438],[10.75470213,54.03090515],[10.75473212,54.03086882],[10.75536336,54.03005059],[10.75539102,54.0300166],[10.7556453,54.02975665],[10.75566796,54.02972232],[10.75592521,54.02923639],[10.75594187,54.0292054],[10.75595087,54.02907876],[10.75595553,54.0290471],[10.75601117,54.02891845],[10.75602816,54.02888612],[10.75646372,54.0282309],[10.75648571,54.02820224],[10.75682231,54.02782164],[10.75685464,54.02779831],[10.75696896,54.02773532],[10.75701396,54.02771866],[10.7573576,54.02762736],[10.75739126,54.02761237],[10.75762054,54.02743307],[10.75763953,54.02740841],[10.75777178,54.02701249],[10.75778644,54.02698549],[10.75807669,54.02663523],[10.75808735,54.02661123],[10.75807303,54.02650091],[10.7580577,54.02648125],[10.75789606,54.02637629],[10.7578934,54.02635663],[10.75793237,54.02623166],[10.75794137,54.026211],[10.75805033,54.02608704],[10.75806499,54.02606405],[10.7581053,54.02593407],[10.75811696,54.02591108],[10.75826357,54.02575345],[10.75827156,54.02574212],[10.75848251,54.02560117],[10.75850851,54.02558217],[10.75867715,54.02552386],[10.75870015,54.02551386],[10.75892744,54.02537324],[10.75893777,54.02536958],[10.75896175,54.02512195],[10.75897541,54.02508529],[10.7590134,54.02501296],[10.75903839,54.0249773],[10.75920237,54.02480466],[10.7592267,54.02476767],[10.75933966,54.02446104],[10.75936432,54.02442171],[10.75978792,54.02397909],[10.75981691,54.02393976],[10.7599762,54.02355779],[10.7600022,54.02351546],[10.76079476,54.02247058],[10.76082375,54.02242658],[10.76108102,54.02188398],[10.76111102,54.02184132],[10.76121067,54.02171599],[10.761252,54.021676],[10.7615933,54.0213967],[10.7616263,54.02135104],[10.76182025,54.02085909],[10.76184424,54.02081643],[10.76220921,54.02051081],[10.76223987,54.02047548],[10.76240684,54.02021184],[10.76243317,54.02017284],[10.76276412,54.01977922],[10.76279945,54.01973856],[10.76312039,54.01927694],[10.76315239,54.01923594],[10.76365129,54.01866667],[10.76368562,54.01862567],[10.7651167,54.01680622],[10.76514803,54.01676756],[10.76759459,54.01387729],[10.76762525,54.01384196],[10.76798585,54.01331605],[10.76801051,54.01328372],[10.76866406,54.01249218],[10.76868639,54.01246152],[10.76914393,54.01166666],[10.76915559,54.01163533],[10.76930949,54.01108242],[10.76931582,54.01104509],[10.76928622,54.01039151],[10.76928688,54.01035385],[10.76935485,54.01010488],[10.76937184,54.01007255],[10.76943083,54.01001523],[10.76947616,54.00999457],[10.76969881,54.00993192],[10.7697518,54.00990826],[10.77015309,54.00966597],[10.77020142,54.00962264],[10.77325102,54.00660504],[10.77329002,54.00656638],[10.7738886,54.0059988],[10.77391126,54.00598714],[10.77391992,54.00601047],[10.77390126,54.00603247],[10.773471,54.00647439],[10.77346667,54.00648172],[10.77341368,54.00647039],[10.773461,54.00640073],[10.77348999,54.00637073],[10.77894424,54.00104852],[10.77897957,54.00101119],[10.77904455,54.00093253],[10.77906988,54.00089153],[10.77912252,54.00073421],[10.77912019,54.00069722],[10.77906655,54.00052492],[10.77904622,54.00049192],[10.7787253,54.00006634],[10.77870964,54.00003334],[10.77867966,53.99989903],[10.77867966,53.9998657],[10.77872531,53.99970806],[10.77874964,53.99967907],[10.77901858,53.99945611],[10.77903157,53.99944645],[10.77937084,53.99923118],[10.77941317,53.99919818],[10.78039172,53.99834866],[10.78042805,53.998321],[10.78057803,53.99825501],[10.78063669,53.99823735],[10.78123731,53.99811072],[10.78128597,53.99810139],[10.78161827,53.99798909],[10.78163927,53.9979671],[10.78160761,53.99791312],[10.78157961,53.99789746],[10.7813043,53.99779649],[10.78125297,53.99777483],[10.78079337,53.99754856],[10.78080937,53.99753157],[10.78138097,53.99722862],[10.78143697,53.99720096],[10.78378205,53.99612486],[10.78383438,53.9960962],[10.78856529,53.99338562],[10.78861462,53.99335663],[10.79033746,53.99240378],[10.79038912,53.99237445],[10.79308752,53.99069203],[10.79314785,53.99066604],[10.79349316,53.99057007],[10.79356915,53.99055741],[10.79533104,53.99034587],[10.7953977,53.99033054],[10.79806116,53.98950944],[10.79812115,53.98949211],[10.79843146,53.98941247],[10.79849646,53.98939981],[10.7988351,53.98935783],[10.79890343,53.98935383],[10.79923874,53.9893625],[10.79930373,53.98936983],[10.79972303,53.98945545],[10.79978103,53.98947144],[10.80076528,53.98991635],[10.80080761,53.98993668],[10.80099858,53.99003798],[10.80102957,53.99005697],[10.80110322,53.99013329],[10.80110023,53.99015429],[10.80107657,53.99019361],[10.80105557,53.9902116],[10.80090426,53.9902819],[10.80087493,53.9902929],[10.8008226,53.99030556],[10.80079794,53.99030622],[10.80069998,53.99027858]]}}]}