{"type":"FeatureCollection","features":[{"type":"Feature","properties":{"name":"20260422 Cicloturismo","time":"2026-04-22T07:08:45Z"},"geometry":{"type":"LineString","coordinates":[[11.42079733,54.701934],[11.40785894,54.70159318],[11.40777695,54.70158952],[11.40489745,54.70112535],[11.40482746,54.70110769],[11.40182835,54.69985725],[11.40178235,54.69982192],[11.39697023,54.69563076],[11.3969309,54.6955931],[11.396624,54.69461495],[11.396598,54.69459629],[11.39298595,54.69462819],[11.39292829,54.69460686],[11.39286089,54.692976],[11.39281589,54.692931],[11.38995207,54.69242983],[11.38989074,54.69241617],[11.38972775,54.69232186],[11.38971442,54.6922852],[11.38977103,54.69168526],[11.3897307,54.69165527],[11.38784515,54.69138071],[11.38778749,54.69135638],[11.38787145,54.6907851],[11.38784445,54.69075177],[11.38711317,54.69054849],[11.38705417,54.69051516],[11.38541365,54.68932534],[11.38538099,54.68928034],[11.3852437,54.68888172],[11.38524603,54.68883006],[11.38543996,54.6882188],[11.38543696,54.68818547],[11.38446337,54.68795986],[11.38442704,54.68791553],[11.38371396,54.68565741],[11.3836973,54.68562608],[11.38285074,54.68556041],[11.38282041,54.68552408],[11.37862295,54.67246897],[11.37860729,54.67242364],[11.37796471,54.67157042],[11.37791971,54.67152943],[11.37421865,54.66929908],[11.37414966,54.66927742],[11.37239278,54.66886787],[11.37231278,54.66885587],[11.36470386,54.66789263],[11.36463686,54.66788297],[11.36344628,54.66792628],[11.36335628,54.66791362],[11.36244408,54.66727244],[11.36241375,54.66725144],[11.36279672,54.66700619],[11.36280938,54.66698853],[11.36267442,54.66680423],[11.36270742,54.66678557],[11.36631682,54.66512951],[11.36631449,54.66510185],[11.36080486,54.66328024],[11.36075986,54.66325591],[11.36051325,54.66275265],[11.36052591,54.66271466],[11.36120217,54.66208909],[11.36119551,54.66205343],[11.36012065,54.66111858],[11.36013864,54.66112091],[11.36030758,54.66142985],[11.36028125,54.66145718],[11.358903,54.66192606],[11.35885334,54.66194272],[11.35779077,54.6618521],[11.35781476,54.66187576],[11.35873035,54.66198769],[11.35879101,54.66197969],[11.36018591,54.66153148],[11.3602449,54.66150282],[11.35951703,54.66047864],[11.35950903,54.66044231],[11.36036662,54.66013006],[11.36041995,54.6601034],[11.36054057,54.65986213],[11.36054323,54.6598518],[11.35755907,54.65859132],[11.35748508,54.65855699],[11.3536938,54.65652473],[11.35368247,54.65652174],[11.3535985,54.65612481],[11.35355617,54.65608915],[11.35220205,54.65537134],[11.35219572,54.65536835],[11.35195839,54.65375002],[11.35145146,54.65351143],[11.28005213,54.58054777],[11.22683551,54.50334014],[11.22574651,54.50199748],[11.22386104,54.50138829],[11.22382505,54.5013553],[11.22215441,54.49858902],[11.22212608,54.49855002],[11.22155317,54.49856267],[11.22152618,54.49852468],[11.22049472,54.49665459],[11.22046306,54.49663493],[11.21605702,54.49686132],[11.21598269,54.49686198],[11.21308956,54.49666252],[11.21301823,54.49665019],[11.21021064,54.49372961],[11.21018298,54.49369262],[11.21043484,54.49196347],[11.21043151,54.49193414],[11.20965139,54.48989734],[11.20965472,54.48983735],[11.21028859,54.48786487],[11.21029592,54.48780387],[11.21010605,54.48588538],[11.21011538,54.48584105],[11.21106161,54.48530415],[11.2110636,54.48527915],[11.21011704,54.48452958],[11.21008538,54.48448359],[11.20960464,54.48295754],[11.20960198,54.48294454],[11.20998255,54.48213329],[11.21002488,54.48208596],[11.21239902,54.48034519],[11.21246801,54.48028453],[11.21286962,54.47951691],[11.21287095,54.47942958],[11.21259432,54.47876562],[11.21252999,54.47869562],[11.21045012,54.47738746],[11.21040146,54.47734813],[11.20961588,54.47624989],[11.20960855,54.47619556],[11.20958532,54.47183295],[11.20958565,54.47179229],[11.21003549,54.46657147],[11.21003715,54.46649548],[11.20985955,54.4591125],[11.20985889,54.45906384],[11.20999638,54.45648442],[11.20998639,54.45643376],[11.20854759,54.45468765],[11.20851059,54.45464832],[11.20155492,54.4478109],[11.20152092,54.44776957],[11.19908031,54.44412696],[11.19905898,54.4440823],[11.19858986,54.44259983],[11.1985812,54.4425655],[11.19838106,54.44097438],[11.19836806,54.44094772],[11.19842034,54.44154461],[11.19841768,54.4415676],[11.1980954,54.44164691],[11.1980794,54.44163192],[11.202416,54.44173072],[11.202422,54.44173872],[11.2014384,54.44165344],[11.20142507,54.44162178],[11.20159871,54.44095218],[11.20160304,54.44090185],[11.20163942,54.43681162],[11.20163676,54.43679363],[11.20131286,54.43581608],[11.20131986,54.43581075],[11.20096458,54.43553948],[11.20093892,54.43549682],[11.20014379,54.43379999],[11.20013246,54.43373933],[11.20068703,54.43262842],[11.20070769,54.43256909],[11.20081364,54.43045997],[11.2008343,54.43040164],[11.20219114,54.42881646],[11.20222647,54.42876146],[11.20290566,54.42716962],[11.20294732,54.42711662],[11.20474581,54.42559743],[11.20479281,54.42554677],[11.20769644,54.42160442],[11.20774777,54.42154042],[11.20927531,54.42033221],[11.20932931,54.42027921],[11.2108458,54.41849971],[11.21088646,54.41844905],[11.21135074,54.41769313],[11.21137474,54.41763847],[11.21152499,54.41669523],[11.21153065,54.4166439],[11.2116361,54.41401248],[11.21163444,54.41396582],[11.21129717,54.41348787],[11.21122784,54.41345787],[11.20625382,54.41297112],[11.20618316,54.41296112],[11.20167416,54.41207545],[11.20163083,54.41206912],[11.20040863,54.41209744],[11.20040363,54.41209011],[11.20150856,54.4120518],[11.20159689,54.41206146],[11.20629198,54.41296886],[11.20638464,54.41298419],[11.21049009,54.41330138],[11.21058542,54.41331238],[11.21149237,54.41357999],[11.2115437,54.41362399],[11.21161245,54.41576809],[11.21161112,54.41581275],[11.21131362,54.4176306],[11.21125529,54.41765693],[11.20705492,54.41799237],[11.20697593,54.41799004],[11.20479908,54.41744384],[11.20472342,54.41745183],[11.20322419,54.4178204],[11.20316986,54.4178414],[11.20111002,54.41888688],[11.20104636,54.41890788],[11.19460857,54.42074105],[11.19454258,54.42075605],[11.19283802,54.420867],[11.19276569,54.42086367],[11.19093448,54.42052877],[11.19087849,54.42053743],[11.19074718,54.42077074],[11.19075717,54.42081207],[11.1913223,54.42210954],[11.19132363,54.4221422],[11.19079638,54.4226458],[11.19073472,54.42264713],[11.19038008,54.42253783],[11.19033575,54.42250584],[11.18956656,54.42147695],[11.18950423,54.42144629],[11.18812066,54.42153593],[11.18805,54.42151927],[11.18385299,54.42000724],[11.18378566,54.41999491],[11.18128086,54.41984674],[11.1812132,54.4198484],[11.17902935,54.42029789],[11.17895569,54.42030322],[11.17469437,54.42026343],[11.17462871,54.42026409],[11.1727042,54.41982956],[11.17265954,54.41980623],[11.17029008,54.4165091],[11.17026175,54.41647811],[11.16559913,54.41281308],[11.16558047,54.41277942],[11.16564445,54.41227948],[11.16567245,54.41223815],[11.16776745,54.40960919],[11.16773812,54.40960286],[11.16192261,54.40973589],[11.16186228,54.4097339],[11.1614664,54.40917364],[11.16143874,54.40915798],[11.1588496,54.40910906],[11.15877327,54.40910473],[11.1573107,54.40876653],[11.15724137,54.40875953],[11.15272935,54.40860519],[11.15265969,54.4086012],[11.14888269,54.40809289],[11.14882469,54.40808923],[11.14380969,54.40817364],[11.1437277,54.40816431],[11.14049327,54.40728355],[11.14044928,54.40724822],[11.13968156,54.40475483],[11.13960457,54.4047265],[11.13372234,54.40481911],[11.13366101,54.40481778],[11.13038599,54.40344439],[11.13032933,54.40343906],[11.12266728,54.40342516],[11.12261729,54.40343016],[11.12073114,54.40411065],[11.12067848,54.40412531],[11.1158177,54.4051208],[11.11580704,54.40512313],[11.11597335,54.40497349],[11.11596702,54.40494149],[11.11566875,54.40450655],[11.11562242,54.40448155],[11.11420687,54.40431161],[11.11415588,54.40432527],[11.11376659,54.40455955],[11.11375226,54.40458988],[11.11383126,54.40505715],[11.11384526,54.40508981],[11.11597317,54.4079944],[11.11599817,54.4080124],[11.11421988,54.40454115],[11.11420455,54.40451349],[11.1077837,54.39468404],[11.1077487,54.39463104],[11.10520901,54.39117535],[11.10516501,54.39112002],[11.10306922,54.38883556],[11.10302556,54.38879223],[11.10219735,54.38802068],[11.10219635,54.38802002],[11.09652937,54.38807775],[11.09647438,54.38805275],[11.09516215,54.38485449],[11.09514749,54.38481383],[11.09502883,54.3838066],[11.0950215,54.3837716],[11.09458723,54.38331135],[11.09455724,54.38328202],[11.09298141,54.38264652],[11.09294241,54.38262186],[11.09269713,54.38194232],[11.09265447,54.38191666],[11.08928246,54.38031739],[11.08923713,54.38029706],[11.08742733,54.38027105],[11.08740433,54.38024672],[11.0871794,54.37978947],[11.08717674,54.37975781],[11.08732301,54.37875501],[11.08730702,54.37872002],[11.08691274,54.37837506],[11.08685075,54.37834473],[11.08635279,54.3783294],[11.0863148,54.37830774],[11.08501012,54.37582878],[11.08499946,54.37578945],[11.08436116,54.36992412],[11.0843565,54.36988512],[11.08383191,54.3690506],[11.08382825,54.36901494],[11.08439551,54.36870902],[11.08440417,54.36868769],[11.08393391,54.36838749],[11.08392491,54.36835416],[11.0844589,54.36859215],[11.0844589,54.36859149],[11.08399657,54.36857316],[11.08441546,54.36876312],[11.0844088,54.36878945],[11.08386819,54.36903273],[11.08381453,54.3690184],[11.08207539,54.36731994],[11.08201673,54.36728861],[11.0742907,54.36414559],[11.07422371,54.36413426],[11.06474255,54.36469522],[11.06468289,54.36469456],[11.05925936,54.3642882],[11.05919937,54.36428187],[11.0551958,54.36363858],[11.05513347,54.36363425],[11.05189141,54.36388444],[11.05182675,54.36388111],[11.04312115,54.36251687],[11.04308282,54.36250954],[11.04061713,54.36170813],[11.04059947,54.3616888],[11.04300175,54.35989783],[11.04301274,54.3598925],[11.04224718,54.35981324],[11.04224452,54.35980424],[11.04402943,54.35506459],[11.04403876,54.35502659],[11.04455441,54.34963963],[11.04455907,54.34960063],[11.04525006,54.34643732],[11.04526172,54.34640132],[11.04621699,54.34608573],[11.04629732,54.34607374],[11.04933183,54.34593342],[11.04936982,54.34589376],[11.05087091,54.33958299],[11.05085791,54.33952633],[11.04966144,54.33538176],[11.04961378,54.33534043],[11.04791092,54.33501789],[11.04783926,54.3350089],[11.04507278,54.33495732],[11.04499545,54.33493599],[11.04375091,54.33380844],[11.04368091,54.33376845],[11.04176737,54.33330025],[11.04173704,54.33328459],[11.04179032,54.33258336],[11.04175233,54.33256436],[11.03959217,54.33225581],[11.03954451,54.33223315],[11.0322653,54.32642243],[11.03227729,54.32639777],[11.03272783,54.3257922],[11.03275682,54.32578221],[11.03416401,54.3257369],[11.03422767,54.32572624],[11.03653921,54.32502203],[11.03665621,54.32499937],[11.03985704,54.32485203],[11.03993837,54.3248447],[11.0412606,54.3244568],[11.04132893,54.32445081],[11.04344212,54.32449004],[11.04349745,54.32445805],[11.04353447,54.32395311],[11.04350181,54.32389478],[11.0424399,54.32304787],[11.04240191,54.32300188],[11.04179605,54.32174334],[11.04178672,54.32169301],[11.04269768,54.3175476],[11.04271134,54.31750961],[11.04306096,54.31735032],[11.04309062,54.31732999],[11.04334424,54.31683474],[11.04341257,54.31682875],[11.04577775,54.31752291],[11.04584441,54.31753357],[11.04727392,54.31741889],[11.04730491,54.31739323],[11.04748444,54.31619569],[11.04749877,54.31615469],[11.04932573,54.31251513],[11.04934306,54.31247647],[11.04972222,54.31107463],[11.04974955,54.3110363],[11.05236397,54.30961015],[11.0523783,54.30960415],[11.05152103,54.30932656],[11.05145803,54.3092979],[11.05139504,54.3090726],[11.05144037,54.30902727],[11.05364891,54.3084974],[11.05372724,54.30846607],[11.0549128,54.30758552],[11.05494479,54.30753086],[11.05513908,54.30685123],[11.05513408,54.30679257],[11.05461864,54.30424183],[11.05465063,54.30422417],[11.05869328,54.3041856],[11.05878728,54.30419259],[11.06404992,54.30541557],[11.06414225,54.30542857],[11.07393111,54.3062914],[11.07397344,54.30629539],[11.07520263,54.30622806],[11.07520762,54.30623239],[11.07514229,54.30624305],[11.07488363,54.30613272],[11.07527217,54.30570317],[11.07528317,54.30566651],[11.07623809,54.30124937],[11.07624608,54.30121871],[11.07799983,54.29569904],[11.07800782,54.29567471],[11.0784604,54.29520346],[11.07846906,54.29517747],[11.07921158,54.29220962],[11.07922357,54.29217429],[11.08031353,54.28964636],[11.08032586,54.2896157],[11.08252086,54.28259344],[11.08252885,54.28256678],[11.0824412,54.28203458],[11.08244586,54.28201159],[11.08272477,54.28167568],[11.08273876,54.28164502],[11.08295792,54.28050654],[11.08296392,54.28047288],[11.08282763,54.27901939],[11.08282563,54.27897273],[11.08307431,54.27622579],[11.08307964,54.27619279],[11.0829981,54.27417312],[11.08299577,54.27414512],[11.08338631,54.27379657],[11.08338764,54.2738179],[11.08313402,54.27394886],[11.08310436,54.27393987],[11.08297407,54.27357724],[11.08296874,54.27353458],[11.08273046,54.26712943],[11.0827298,54.2670961],[11.08217904,54.26554434],[11.08216938,54.26550134],[11.08207681,54.2638192],[11.08206815,54.26377954],[11.08153789,54.26327963],[11.08152156,54.26324597],[11.08078056,54.26031231],[11.08077523,54.26029332],[11.08095549,54.26059961],[11.08096882,54.26057861],[11.08123799,54.25889979],[11.08123299,54.25883346],[11.07997903,54.25463152],[11.07996903,54.25456986],[11.08002535,54.25095484],[11.08003001,54.25089451],[11.08130759,54.24123367],[11.08132258,54.24117367],[11.0833768,54.23544414],[11.08339713,54.23538015],[11.08341115,54.23428689],[11.08343181,54.23422256],[11.08427403,54.23294869],[11.08430003,54.23288103],[11.0846523,54.23192977],[11.08466929,54.23185944],[11.08452067,54.23128048],[11.08452966,54.23124415],[11.0849733,54.23106986],[11.08499963,54.2310172],[11.08517389,54.23001093],[11.08519589,54.2299446],[11.08795662,54.22236392],[11.08796595,54.22231926],[11.08594783,54.22149354],[11.08595149,54.22149121],[11.08439732,54.22199506],[11.08437599,54.22199473],[11.08687782,54.22110659],[11.08692815,54.22107626],[11.08834764,54.21959449],[11.08834331,54.21955783],[11.08809375,54.21881561],[11.08804642,54.21878128],[11.08562131,54.21808912],[11.08554631,54.21806079],[11.08453406,54.21734055],[11.08450806,54.21730322],[11.08397189,54.21200241],[11.08394689,54.21194875],[11.08326435,54.21091854],[11.08322302,54.21087254],[11.0817345,54.20992801],[11.08169384,54.20990335],[11.08112027,54.20912611],[11.08108994,54.20907778],[11.08072638,54.20805123],[11.08069172,54.2080049],[11.07943186,54.20699403],[11.0793912,54.2069447],[11.07873269,54.2049719],[11.07870503,54.20493224],[11.07735514,54.20532251],[11.07728581,54.20532717],[11.07671486,54.20505389],[11.07665553,54.20501089],[11.07498206,54.20312642],[11.07493806,54.20308842],[11.07240228,54.20140834],[11.07236362,54.20137234],[11.07097318,54.19947789],[11.07092852,54.19943689],[11.06997394,54.19896431],[11.06992994,54.19892398],[11.06944475,54.19718479],[11.06939742,54.1971308],[11.06878545,54.19670419],[11.06873179,54.19668653],[11.0674982,54.19652659],[11.0674282,54.19649226],[11.06563935,54.19486112],[11.06559335,54.19481679],[11.06557735,54.19464214],[11.06562435,54.19460348],[11.06762554,54.19343698],[11.06759588,54.19339899],[11.06503605,54.1920455],[11.06497939,54.1920065],[11.05121086,54.1806272],[11.05116487,54.18058987],[11.04800387,54.17870787],[11.04794954,54.17868321],[11.02873806,54.17255481],[11.0286674,54.17252948],[11.01231549,54.16465378],[11.01223983,54.16462179],[11.00923172,54.163696],[11.00916639,54.16367],[11.00266964,54.1607945],[11.00260331,54.16076984],[10.99749898,54.15938088],[10.99743498,54.15935722],[10.994002,54.15748999],[10.99393434,54.15745966],[10.98936532,54.15583099],[10.98930899,54.155811],[10.98623092,54.15478622],[10.98615592,54.15476689],[10.9809073,54.1536803],[10.9808463,54.15365864],[10.97854088,54.15209321],[10.97848688,54.15206588],[10.97551618,54.15096817],[10.97547752,54.15095351],[10.96681261,54.14931987],[10.96674261,54.14931354],[10.96296591,54.14963024],[10.96289825,54.14963857],[10.96221534,54.14994348],[10.96216868,54.14992615],[10.96138278,54.14926991],[10.96135912,54.14923025],[10.96098385,54.1476291],[10.96094119,54.14758911],[10.96005126,54.14721083],[10.95999226,54.14717283],[10.95883739,54.14610829],[10.95878406,54.14606729],[10.95653863,54.14475189],[10.9564783,54.14470923],[10.95494311,54.14332506],[10.95488711,54.14328373],[10.95128785,54.14212447],[10.95125619,54.14210814],[10.94967944,54.14055337],[10.94963211,54.14051904],[10.94747957,54.13955085],[10.94740891,54.13951219],[10.94661132,54.13885225],[10.94652366,54.13881292],[10.93610232,54.14042792],[10.93605466,54.14043525],[10.93295791,54.14116864],[10.93288858,54.14117964],[10.93136803,54.14099841],[10.9313137,54.14099508],[10.93082974,54.14115201],[10.93078541,54.141153],[10.92254692,54.13638542],[10.92247926,54.13634843],[10.91913982,54.13497602],[10.91908183,54.13494769],[10.91931711,54.13439244],[10.91931545,54.13435178],[10.91898883,54.13405249],[10.91892583,54.13401949],[10.91509976,54.13307043],[10.91503777,54.1330611],[10.9113531,54.13324251],[10.91130177,54.13323985],[10.9068715,54.13241621],[10.90682384,54.13241687],[10.90419854,54.13302682],[10.90415821,54.13303182],[10.90185513,54.1329619],[10.9017928,54.13297356],[10.89335752,54.13510019],[10.89329719,54.13511085],[10.88899519,54.13551853],[10.88891819,54.13551754],[10.88643871,54.13500142],[10.88636371,54.13497876],[10.88374222,54.13394425],[10.88367122,54.13393325],[10.8798705,54.13443468],[10.87979817,54.13443534],[10.87772431,54.13414445],[10.87762632,54.13413712],[10.87538643,54.13418309],[10.87529577,54.13417376],[10.87278693,54.1336876],[10.87270227,54.13368194],[10.86799516,54.13368395],[10.86791516,54.13367295],[10.86208154,54.13181268],[10.86198521,54.13177835],[10.86083897,54.13128044],[10.86080364,54.13124844],[10.85976787,54.12970296],[10.85973688,54.12967597],[10.85911198,54.12983891],[10.85909999,54.12983625],[10.85544742,54.12701404],[10.85541476,54.12698804],[10.85631968,54.12648016],[10.85634301,54.1264585],[10.85591205,54.12610557],[10.85585272,54.12608291],[10.85465681,54.12580434],[10.85458082,54.12580933],[10.85348759,54.12637322],[10.85344259,54.12638988],[10.85194904,54.12677974],[10.85187871,54.1267924],[10.8489186,54.12679606],[10.84887727,54.1267754],[10.84913416,54.12584823],[10.84913449,54.12581157],[10.84877004,54.12464687],[10.84877203,54.12461887],[10.84918192,54.12362197],[10.84918192,54.12356198],[10.84874364,54.12292138],[10.84869565,54.12288538],[10.84544546,54.12156889],[10.8453688,54.12151956],[10.84267483,54.11881389],[10.84264783,54.1187859],[10.84084269,54.1176361],[10.8407987,54.11761311],[10.83550408,54.11604479],[10.83545775,54.11602813],[10.83250336,54.1145324],[10.83246736,54.11450141],[10.83170053,54.11294259],[10.8316822,54.11289426],[10.83103773,54.11070947],[10.83103073,54.11067314],[10.83126197,54.10981095],[10.83126263,54.10978196],[10.83102475,54.10921173],[10.83101875,54.10918307],[10.8309901,54.1076663],[10.8309941,54.10762931],[10.83159389,54.10569393],[10.83159256,54.10566193],[10.83060415,54.1041972],[10.83060614,54.10416821],[10.8323943,54.10351909],[10.83243396,54.10351209],[10.83350617,54.10387563],[10.83353917,54.10388562],[10.83359615,54.10413754],[10.83359648,54.10415954],[10.83358849,54.10415221],[10.83346549,54.10384822],[10.83228263,54.10350667],[10.8322443,54.10351133],[10.83075453,54.10400442],[10.8307142,54.10402442],[10.83054488,54.10452],[10.83049589,54.10453733],[10.82948864,54.10450867],[10.82942564,54.10451633],[10.82376866,54.10549797],[10.82367966,54.10550863],[10.82129212,54.105539],[10.82124579,54.105547],[10.82144705,54.1074311],[10.82144072,54.10743876],[10.82136639,54.10691953],[10.82132706,54.10691454],[10.81915189,54.10727872],[10.81908823,54.10728272],[10.81332369,54.10718664],[10.8132497,54.10718365],[10.80727847,54.10619644],[10.80720747,54.10617578],[10.79355107,54.09959712],[10.79350674,54.09957246],[10.79237512,54.09773553],[10.79235746,54.09771387],[10.78922362,54.09485341],[10.78919729,54.09483275],[10.78451833,54.09350917],[10.78444167,54.09348117],[10.78165457,54.09182108],[10.78158724,54.09177842],[10.78038302,54.09071453],[10.78036236,54.09068254],[10.77965425,54.0885764],[10.77960659,54.08851907],[10.77678052,54.08675097],[10.77675452,54.08672231],[10.77626635,54.08568818],[10.77626002,54.08566219],[10.77613579,54.08334712],[10.77613978,54.08329913],[10.77633492,54.08196569],[10.77634091,54.08193836],[10.77758373,54.07767524],[10.77758539,54.07763825],[10.77631739,54.07452129],[10.7762934,54.0744753],[10.7713311,54.06972474],[10.77128177,54.06967974],[10.77060118,54.06935748],[10.77057118,54.06933349],[10.77052718,54.06874589],[10.77050419,54.0687059],[10.76950228,54.06779332],[10.76946162,54.06773966],[10.76922634,54.0670294],[10.76923634,54.0669734],[10.77036555,54.06553617],[10.77032055,54.06549551],[10.7642036,54.06378964],[10.76416961,54.06376898],[10.76497384,54.06259009],[10.76491851,54.06252943],[10.75737517,54.05810219],[10.75732817,54.0580722],[10.75527012,54.05597951],[10.75523979,54.05594085],[10.75284695,54.05257103],[10.75282395,54.05253704],[10.75057719,54.04810865],[10.75056453,54.04807265],[10.75009107,54.04624085],[10.75008608,54.04620152],[10.75036739,54.04595155],[10.75038272,54.04591255],[10.75038172,54.04544128],[10.75037272,54.04539195],[10.74976679,54.04500868],[10.74973246,54.04496968],[10.74965117,54.04449871],[10.74964751,54.04444405],[10.75014367,54.03929589],[10.75015433,54.03924923],[10.75131215,54.03574835],[10.75132581,54.03571502],[10.75184441,54.03542174],[10.75187507,54.03539441],[10.75249223,54.03436461],[10.75251089,54.03433495],[10.75221228,54.03400134],[10.75223361,54.03396834],[10.75391499,54.03212795],[10.75394065,54.03209762],[10.7541479,54.03156971],[10.75415023,54.03156438],[10.7556453,54.02975665],[10.75566796,54.02972232],[10.75646372,54.0282309],[10.75648571,54.02820224],[10.75762054,54.02743307],[10.75763953,54.02740841],[10.75807669,54.02663523],[10.75808735,54.02661123],[10.75789606,54.02637629],[10.7578934,54.02635663],[10.7581053,54.02593407],[10.75811696,54.02591108],[10.75892744,54.02537324],[10.75893777,54.02536958],[10.75933966,54.02446104],[10.75936432,54.02442171],[10.76182025,54.02085909],[10.76184424,54.02081643],[10.76866406,54.01249218],[10.76868639,54.01246152],[10.76914393,54.01166666],[10.76915559,54.01163533],[10.76935485,54.01010488],[10.76937184,54.01007255],[10.77015309,54.00966597],[10.77020142,54.00962264],[10.77894424,54.00104852],[10.77897957,54.00101119],[10.77912252,54.00073421],[10.77912019,54.00069722],[10.77872531,53.99970806],[10.77874964,53.99967907],[10.78039172,53.99834866],[10.78042805,53.998321],[10.78161827,53.99798909],[10.78163927,53.9979671],[10.78079337,53.99754856],[10.78080937,53.99753157],[10.78378205,53.99612486],[10.78383438,53.9960962],[10.79308752,53.99069203],[10.79314785,53.99066604],[10.79533104,53.99034587],[10.7953977,53.99033054],[10.7988351,53.98935783],[10.79890343,53.98935383],[10.80076528,53.98991635],[10.80080761,53.98993668],[10.80110322,53.99013329],[10.80110023,53.99015429],[10.80069998,53.99027858]]}}]}