{"type":"FeatureCollection","features":[{"type":"Feature","properties":{"name":"20260423 Cicloturismo","time":"2026-04-23T07:38:32Z"},"geometry":{"type":"LineString","coordinates":[[10.80044066,53.99033433],[10.78210092,53.99779899],[10.78204926,53.99780998],[10.78148697,53.99783895],[10.78143264,53.99782862],[10.78074974,53.99750534],[10.78070674,53.99749268],[10.7785968,53.99554836],[10.77854947,53.99553236],[10.77690158,53.99591657],[10.77682625,53.9959219],[10.77485905,53.99564804],[10.77481106,53.99562338],[10.77463414,53.99487846],[10.77461615,53.99484046],[10.77404689,53.99408456],[10.7740169,53.99404957],[10.77281739,53.99334774],[10.77281273,53.99333008],[10.77294771,53.99227586],[10.77295237,53.99222787],[10.77272623,53.98927319],[10.77272823,53.98923086],[10.77322926,53.98674149],[10.77323659,53.98670016],[10.7733108,53.98519371],[10.77330947,53.98515305],[10.77310164,53.98352957],[10.77309165,53.98348191],[10.77238123,53.9809185],[10.77237723,53.98086917],[10.77273265,53.97793915],[10.77273665,53.97788915],[10.77270098,53.97624301],[10.77269565,53.97619001],[10.77156357,53.97031195],[10.77154458,53.97026496],[10.77091171,53.96949872],[10.77087505,53.96946839],[10.76974988,53.96888119],[10.76970988,53.96885419],[10.76882401,53.96804264],[10.76877501,53.96801631],[10.7625019,53.9658962],[10.76244057,53.96587187],[10.76051676,53.96471774],[10.76047377,53.96467641],[10.75962926,53.9632279],[10.7596166,53.9631719],[10.75955506,53.96010754],[10.75955273,53.96006321],[10.75934554,53.95892433],[10.75933255,53.95888134],[10.75885435,53.95792714],[10.75882802,53.95788615],[10.75814714,53.95709394],[10.75812015,53.95706894],[10.75375172,53.95381455],[10.75371806,53.95378622],[10.75108648,53.95100568],[10.75105882,53.95096835],[10.74896975,53.94935594],[10.74892042,53.94933061],[10.74485868,53.94828455],[10.74475402,53.94826989],[10.7356959,53.94774757],[10.73565424,53.94774424],[10.734823,53.94743534],[10.73478267,53.94741201],[10.73303596,53.94495263],[10.73301663,53.9449093],[10.73296199,53.94322378],[10.73293033,53.94317745],[10.73087016,53.94221498],[10.7308265,53.94217898],[10.72956313,53.94003593],[10.7295238,53.9399976],[10.72508466,53.93799609],[10.72502667,53.93796643],[10.72361817,53.93676625],[10.72356884,53.93673392],[10.72166906,53.93559177],[10.72162573,53.93556811],[10.72079516,53.93529217],[10.72077416,53.93528417],[10.7204762,53.93505789],[10.72045254,53.93503656],[10.72049386,53.93472028],[10.72048586,53.93468129],[10.72017892,53.93412333],[10.72014892,53.93407734],[10.71945835,53.93333474],[10.71940202,53.93328941],[10.71384136,53.92978675],[10.71375603,53.92974342],[10.71189348,53.9289832],[10.71180315,53.92895387],[10.70881997,53.92820339],[10.70876298,53.92820006],[10.70751184,53.92951616],[10.70747451,53.92954616],[10.70623866,53.93020837],[10.70618333,53.93021037],[10.70158074,53.92843817],[10.70154808,53.92840284],[10.70152343,53.92796223],[10.70155442,53.92792224],[10.70303291,53.92662544],[10.70302858,53.92658978],[10.70104473,53.9254499],[10.7009584,53.92539424],[10.69987047,53.92451565],[10.69978448,53.92446166],[10.69831189,53.92386442],[10.69825123,53.92381509],[10.69745706,53.9222186],[10.69744273,53.92218694],[10.69695962,53.92054246],[10.69694329,53.92051913],[10.69536013,53.9198673],[10.69532814,53.91984431],[10.69464826,53.91879645],[10.69464027,53.91879179],[10.69480916,53.91800091],[10.69483549,53.91796525],[10.69601501,53.91722875],[10.69604001,53.91721209],[10.69631023,53.91678819],[10.69630657,53.91675853],[10.69336108,53.91351673],[10.69334475,53.91348373],[10.69373372,53.91330979],[10.69376905,53.91327746],[10.69423097,53.91266955],[10.69422098,53.91262555],[10.69198516,53.90820007],[10.6919245,53.90813341],[10.69125972,53.90635865],[10.69125206,53.90633099],[10.69004467,53.90424693],[10.69002801,53.9042156],[10.68926527,53.90212382],[10.68924827,53.90207583],[10.68924462,53.90128926],[10.68925962,53.90123993],[10.68992717,53.90012372],[10.68994716,53.90008072],[10.69021936,53.89896217],[10.69022536,53.89892651],[10.69010447,53.89669417],[10.69010047,53.89665784],[10.68979161,53.895688],[10.68977395,53.895652],[10.68447355,53.88687258],[10.68445955,53.88684992],[10.68402594,53.88681092],[10.68397828,53.88677692],[10.67865521,53.88207948],[10.67860488,53.88203582],[10.67784266,53.8809909],[10.67782866,53.88094657],[10.67774539,53.88036165],[10.67774406,53.88035699],[10.67842715,53.8778832],[10.67842149,53.87782754],[10.67773733,53.87602507],[10.67772034,53.87598374],[10.67710046,53.87529284],[10.67709946,53.87528885],[10.67716046,53.87502659],[10.67718012,53.87500759],[10.67819537,53.87459936],[10.67820303,53.87455937],[10.67654927,53.87281163],[10.6765516,53.87280563],[10.67885775,53.87193883],[10.67887441,53.87193717],[10.68044726,53.87255768],[10.68050625,53.87256901],[10.68280247,53.87251105],[10.68288613,53.87249972],[10.68307077,53.87244573],[10.68306677,53.8724294],[10.68265217,53.87218215],[10.6826545,53.87217515],[10.68386335,53.8722821],[10.68391101,53.87227444],[10.68836704,53.87117966],[10.68837704,53.87116],[10.68758932,53.86949797],[10.68756866,53.86947364],[10.68643,53.86827297],[10.68436101,53.86627831],[10.68390011,53.86611466],[10.68388545,53.86608333],[10.68383248,53.86518982],[10.68385048,53.86516949],[10.68529692,53.86456238],[10.68532091,53.86452405],[10.68501063,53.86425851],[10.68500397,53.86423285],[10.68507525,53.86317964],[10.68505892,53.86315098],[10.67936508,53.86282376],[10.67933975,53.8628121],[10.67945696,53.86204624],[10.67945463,53.86202958],[10.67918106,53.8618407],[10.67916973,53.86182371],[10.67907872,53.86137879],[10.67908338,53.8613468],[10.68037517,53.85716666],[10.6803855,53.85712967],[10.68027553,53.85676441],[10.6802742,53.85676242],[10.67996658,53.85665743],[10.67991592,53.85667009],[10.67687285,53.85763549],[10.67685086,53.8576255],[10.6770185,53.85741254],[10.67708183,53.85737988],[10.67846875,53.85689832],[10.67849108,53.85687099],[10.67788052,53.85604677],[10.67783752,53.85601111],[10.67406122,53.85369347],[10.67402122,53.85366681],[10.67383727,53.85328754],[10.67381694,53.85325954],[10.67328133,53.85291593],[10.67324067,53.85289127],[10.6721781,53.85282927],[10.67212744,53.85280361],[10.67080559,53.85197578],[10.67077493,53.85195279],[10.67042967,53.85148186],[10.67039201,53.85145853],[10.66697339,53.84964317],[10.6669224,53.84961251],[10.66543827,53.8482557],[10.66539261,53.84821737],[10.66368648,53.84720251],[10.66362982,53.84717318],[10.66156265,53.84637535],[10.66149132,53.84635702],[10.65682271,53.84554967],[10.65679705,53.84554634],[10.65333567,53.84583377],[10.65326334,53.84584043],[10.65208976,53.84616435],[10.6520381,53.84616036],[10.65148617,53.84586375],[10.65141851,53.84584009],[10.64786638,53.84517494],[10.64780272,53.84515528],[10.64547991,53.84411081],[10.64543392,53.84408081],[10.64531895,53.84372219],[10.64529062,53.8436952],[10.64456636,53.8433416],[10.6445237,53.8433086],[10.6437808,53.84251805],[10.64374614,53.84247672],[10.64298165,53.84114887],[10.64297032,53.84110821],[10.64286169,53.83985402],[10.64286768,53.83981136],[10.64318988,53.83859851],[10.64320454,53.83855651],[10.64355783,53.83819921],[10.64357049,53.83816621],[10.64339519,53.83782293],[10.64339619,53.8377846],[10.64365706,53.83636109],[10.64365606,53.83631609],[10.64340519,53.83504925],[10.64338953,53.83500725],[10.64265001,53.83379107],[10.64262235,53.83375641],[10.63273194,53.82299872],[10.63269861,53.82296773],[10.6309595,53.82167701],[10.63091384,53.82164735],[10.62858643,53.82031929],[10.6285391,53.82029396],[10.62728523,53.82009603],[10.62723724,53.82006904],[10.62721023,53.81961978],[10.62718557,53.81958245],[10.62649799,53.81906219],[10.62644766,53.81903319],[10.6234323,53.8178088],[10.62339364,53.81778047],[10.62285239,53.81724623],[10.62282973,53.81721057],[10.62259017,53.81631872],[10.62257384,53.81628406],[10.6214574,53.81457034],[10.62144074,53.81453235],[10.62107173,53.81189811],[10.62107173,53.81184511],[10.62146378,53.80960305],[10.62147544,53.80956906],[10.62263554,53.80761162],[10.62266754,53.80757163],[10.62478854,53.80547693],[10.62479353,53.8054536],[10.62448158,53.80527865],[10.62447125,53.80525532],[10.62474918,53.80490209],[10.62475151,53.80489076],[10.62388695,53.80438651],[10.62386062,53.80435885],[10.62303748,53.80314736],[10.62302549,53.8031227],[10.62321678,53.80300575],[10.62322211,53.80300509],[10.62276019,53.8027908],[10.62274186,53.80276481],[10.62205374,53.80099672],[10.6220644,53.80096906],[10.62262694,53.80021252],[10.6226646,53.80018153],[10.62733878,53.79683804],[10.62737611,53.79678705],[10.6278469,53.79451427],[10.62786889,53.79447061],[10.62925665,53.79264116],[10.62929531,53.7925975],[10.63033651,53.7917726],[10.63035717,53.79173794],[10.63457027,53.78255368],[10.63458226,53.78251035],[10.63178891,53.78101629],[10.63177892,53.78097429],[10.6325143,53.77893122],[10.6325273,53.77888956],[10.63343021,53.77873193],[10.63348287,53.77870627],[10.63372646,53.77811301],[10.63373079,53.77807002],[10.63350379,53.77458069],[10.63349646,53.7745287],[10.63249192,53.77000785],[10.63248092,53.76993219],[10.63267121,53.76911792],[10.63264855,53.76904892],[10.63159994,53.76856598],[10.63153428,53.76852198],[10.63102737,53.76773076],[10.63098304,53.76770576],[10.62798104,53.76681737],[10.62794538,53.76679671],[10.62725148,53.76629215],[10.62722415,53.76626482],[10.62686056,53.76568689],[10.6268429,53.76562556],[10.62673228,53.76483095],[10.62673394,53.76477629],[10.62700616,53.76385341],[10.62701249,53.76380941],[10.62703779,53.76249323],[10.62704745,53.76244223],[10.62831106,53.7590286],[10.62828907,53.75899094],[10.62710917,53.75874204],[10.62704351,53.75872205],[10.62162137,53.75660863],[10.62157171,53.75659597],[10.61636221,53.75623246],[10.61631288,53.7562278],[10.61400238,53.75579832],[10.61392905,53.75577499],[10.61189324,53.75429785],[10.61183091,53.75426386],[10.6057258,53.75151609],[10.60569147,53.75148176],[10.60176692,53.74595477],[10.60174693,53.74591044],[10.60140141,53.74478925],[10.60139508,53.74475259],[10.6013116,53.74278381],[10.60130394,53.74273615],[10.60054482,53.74077201],[10.60052882,53.74071502],[10.60038362,53.73910221],[10.60036796,53.73904521],[10.59883176,53.738433],[10.59882077,53.738422],[10.59915072,53.73819405],[10.59917105,53.73814705],[10.59948589,53.73684552],[10.59951489,53.73681086],[10.60066446,53.73643133],[10.60071712,53.73640967],[10.60094374,53.73610638],[10.60093941,53.73606805],[10.59920094,53.73185959],[10.59918995,53.73183759],[10.59912708,53.73106143],[10.59912242,53.7310381],[10.59809929,53.72773831],[10.59808996,53.72771298],[10.59718392,53.72596526],[10.59717026,53.72593927],[10.59664303,53.72549304],[10.59660504,53.72547371],[10.58612683,53.72047244],[10.58605517,53.72044111],[10.58446359,53.72025783],[10.58439326,53.72023017],[10.58143056,53.71837148],[10.58135823,53.71835115],[10.57990401,53.71849779],[10.57984835,53.71848979],[10.57842775,53.7177969],[10.57833742,53.7177679],[10.57639354,53.71744302],[10.57630821,53.71744169],[10.56604361,53.71824732],[10.56595895,53.71825265],[10.56264517,53.71827563],[10.56256717,53.71827164],[10.55712617,53.7170726],[10.55705718,53.71705527],[10.55559863,53.71634509],[10.55554564,53.71633143],[10.55424945,53.71656501],[10.55420179,53.71656468],[10.55195206,53.71622131],[10.55194207,53.71621931],[10.55141283,53.71661823],[10.55136783,53.71661224],[10.55079031,53.71612101],[10.55078432,53.71611968],[10.55079934,53.71590907],[10.55075934,53.71588207],[10.54938679,53.71557151],[10.5493298,53.71555018],[10.54588313,53.71396915],[10.5458228,53.71394082],[10.54434765,53.71262963],[10.54429132,53.71259164],[10.54270042,53.71189241],[10.54260342,53.71185742],[10.53888071,53.71140808],[10.53883305,53.71139775],[10.53834248,53.71088819],[10.53829615,53.71087153],[10.53616199,53.71053199],[10.536102,53.71051833],[10.53359892,53.70974958],[10.53355159,53.70973858],[10.53220204,53.70959436],[10.53214205,53.70958036],[10.53063156,53.70877686],[10.53057223,53.7087652],[10.52844839,53.70851505],[10.52838206,53.70851439],[10.52660125,53.70879357],[10.52657059,53.70877991],[10.52663554,53.70836399],[10.5266492,53.70833733],[10.5273637,53.70731716],[10.52737603,53.70728183],[10.52827928,53.70335521],[10.52830927,53.70328188],[10.52956583,53.70173201],[10.52956949,53.70166002],[10.52870312,53.69984191],[10.52869179,53.69982258],[10.52748039,53.6981872],[10.52746606,53.6981582],[10.52606054,53.6942903],[10.52605354,53.69425197],[10.52958142,53.69069774],[10.52957742,53.69064808],[10.52865151,53.68997585],[10.52858652,53.68994119],[10.52723298,53.68941528],[10.52718432,53.68938395],[10.52661075,53.6887164],[10.52657842,53.68869674],[10.5177144,53.68639125],[10.51766074,53.68638526],[10.51672619,53.68675582],[10.51666686,53.68676781],[10.51204008,53.68748302],[10.51199242,53.68748236],[10.50192526,53.6868888],[10.50187193,53.68688447],[10.49833925,53.68610642],[10.49826592,53.68610509],[10.49738403,53.68662467],[10.49736337,53.68665067],[10.49683795,53.68790568],[10.49681929,53.68792801],[10.49592739,53.68815591],[10.49590073,53.68817657],[10.49571681,53.6889177],[10.49569815,53.6889277],[10.49579211,53.68817647],[10.49574611,53.68815781],[10.49240968,53.68810557],[10.49234435,53.68810424],[10.49155442,53.6881325],[10.49150643,53.6881405],[10.49142812,53.68829144],[10.49141946,53.6882931],[10.49002328,53.68813544],[10.49003461,53.68812711],[10.48698425,53.68878419],[10.48693325,53.68879485],[10.48561936,53.68883712],[10.4855567,53.68882846],[10.48482743,53.68845419],[10.4847941,53.68842086],[10.48423932,53.68731172],[10.48421533,53.68727672],[10.48243026,53.68559934],[10.4824126,53.68558268],[10.48049414,53.68478256],[10.48044548,53.68477023],[10.47798504,53.68440012],[10.47791871,53.68439512],[10.47376602,53.68436379],[10.47368169,53.68435746],[10.46941566,53.68380809],[10.46934766,53.68379876],[10.46081892,53.68131164],[10.46074159,53.68129798],[10.45452544,53.68093648],[10.45446578,53.68093082],[10.44862255,53.68013789],[10.44853456,53.68012156],[10.44641767,53.67958002],[10.44632001,53.67954802],[10.44229658,53.67805026],[10.44223158,53.6780316],[10.43224975,53.6755977],[10.43218375,53.67557904],[10.43064121,53.67489282],[10.43058522,53.67486149],[10.42755315,53.67290908],[10.42748449,53.67286275],[10.42420662,53.66979788],[10.42415762,53.66975888],[10.42246475,53.668939],[10.42238075,53.668918],[10.41800567,53.66873684],[10.41793934,53.66873184],[10.41399161,53.66814243],[10.41391861,53.66813377],[10.40927327,53.66774482],[10.40921994,53.66774149],[10.40410105,53.66796057],[10.40404672,53.66795557],[10.39851555,53.66671368],[10.39845455,53.66670202],[10.39583743,53.66650554],[10.3957561,53.66649388],[10.39241565,53.66578775],[10.39233365,53.66577609],[10.39020679,53.66561823],[10.39013146,53.66561724],[10.38537884,53.66568709],[10.38532451,53.66568309],[10.38127226,53.66485818],[10.38122493,53.66484319],[10.37638817,53.6627868],[10.37634151,53.66276147],[10.37068106,53.65904814],[10.37065106,53.65902548],[10.36509345,53.65343184],[10.36505979,53.65338485],[10.36469687,53.65252093],[10.36469254,53.65246893],[10.36487774,53.65070779],[10.36486408,53.65068113],[10.36376853,53.65101036],[10.36374553,53.6510027],[10.3643808,53.6507511],[10.36439146,53.6507191],[10.36370492,53.64999593],[10.36367459,53.64997527],[10.36231982,53.64930914],[10.36228249,53.64929548],[10.36031,53.64881028],[10.36024834,53.64878095],[10.35873516,53.64759212],[10.35869583,53.64757413],[10.35818593,53.64739154],[10.35817627,53.64738988],[10.35639381,53.64816536],[10.35634681,53.64817936],[10.35478461,53.64839054],[10.35473628,53.6483912],[10.34332389,53.64817919],[10.34325656,53.6481762],[10.34069277,53.64774877],[10.34064777,53.64773644],[10.32998838,53.64465169],[10.32992405,53.64463103],[10.31868324,53.64050388],[10.31862858,53.64048155],[10.3170484,53.63953072],[10.31699574,53.63948839],[10.31184702,53.63497803],[10.31179703,53.63494803],[10.30636809,53.63321871],[10.30635943,53.63321572],[10.30638411,53.63288745],[10.30636178,53.63284745],[10.30471106,53.63068939],[10.30468873,53.6306574],[10.30229861,53.62688532],[10.30227795,53.62685533],[10.29033606,53.61061675],[10.2902844,53.61056409],[10.28944114,53.60995749],[10.28939081,53.60992983],[10.28239315,53.6065345],[10.28236715,53.60653583],[10.27805987,53.60418329],[10.27800887,53.60414863],[10.27126152,53.59748119],[10.27123619,53.59745553],[10.27123319,53.59721993],[10.27122853,53.59721227],[10.27115754,53.59735689],[10.27112621,53.5973369],[10.26952608,53.5960971],[10.26946842,53.59607077],[10.23973347,53.58872371],[10.23970281,53.58871372],[10.23808569,53.58922555],[10.23803636,53.58923188],[10.23692848,53.58923184],[10.23688148,53.58923617],[10.2353186,53.58956266],[10.23526961,53.58956865],[10.23422942,53.58938574],[10.23418476,53.58938241],[10.23324456,53.58951666],[10.23319923,53.589509],[10.2244202,53.58636497],[10.22435687,53.58635264],[10.22070423,53.58832094],[10.22061823,53.5883466],[10.21762577,53.58743344],[10.21754377,53.58743011],[10.21600896,53.5887966],[10.21592996,53.58881326],[10.21549666,53.58874829],[10.21544133,53.58871896],[10.21437548,53.5878951],[10.21431782,53.5878831],[10.2126716,53.588289],[10.21260694,53.58827834],[10.20788265,53.58653673],[10.20781265,53.58651707],[10.20634675,53.58657036],[10.20627842,53.58656703],[10.20487953,53.58623979],[10.2048232,53.58621613],[10.19855716,53.58216738],[10.1984995,53.58214505],[10.19584303,53.58203949],[10.19577837,53.58202416],[10.19402322,53.58064172],[10.19394789,53.58062106],[10.18985847,53.58066788],[10.18978381,53.58065189],[10.18674007,53.57939443],[10.18667808,53.5793681],[10.18386859,53.57779694],[10.18382359,53.57775428],[10.18309453,53.57539758],[10.18304454,53.57537792],[10.17977614,53.57564234],[10.17970415,53.57564534],[10.17307861,53.57563557],[10.17300861,53.57563656],[10.1649395,53.57607532],[10.16486684,53.57607698],[10.16388958,53.57596435],[10.16381525,53.57594436],[10.16240004,53.57534179],[10.16232238,53.57533479],[10.16016652,53.57558964],[10.16009219,53.57559164],[10.15711773,53.57544512],[10.15705774,53.57543846],[10.15627516,53.57514551],[10.15624617,53.57511652],[10.1542572,53.57261486],[10.15423087,53.57257553],[10.15359636,53.57143635],[10.15358303,53.57140302],[10.15328695,53.56957024],[10.15325429,53.56956158],[10.14949762,53.56993324],[10.14945296,53.56993923],[10.14950591,53.57019315],[10.14950824,53.57019848],[10.14938726,53.5699672],[10.1493566,53.5699562],[10.14808909,53.56989354],[10.14804576,53.56989553],[10.1472975,53.57011781],[10.14723484,53.57012481],[10.14189925,53.5705594],[10.14184426,53.57056406],[10.14163566,53.57080568],[10.14162667,53.57082734],[10.14175191,53.57116823],[10.1417529,53.57116922],[10.14151527,53.57059567],[10.14147228,53.57059534],[10.13597508,53.57121051],[10.13590975,53.57121451],[10.13054213,53.57123488],[10.13052213,53.57123388],[10.1300912,53.5710246],[10.13005554,53.57099994],[10.12918535,53.56996439],[10.12912536,53.5699464],[10.12436508,53.56998951],[10.12433342,53.56997718],[10.12207767,53.56580004],[10.12206668,53.56577238],[10.12092589,53.56407463],[10.12093822,53.56407264],[10.12103583,53.56429957],[10.12102717,53.56432023],[10.12079921,53.56438153],[10.12075755,53.56438653],[10.11691225,53.56439781],[10.11686759,53.56440114],[10.11642535,53.56487637],[10.11637102,53.56487803],[10.10040559,53.56421339],[10.10032026,53.5642094],[10.09166153,53.56320162],[10.09159254,53.56319129],[10.08847083,53.56238227],[10.0884115,53.56237528],[10.08644365,53.56220478],[10.08637732,53.56220611],[10.08312724,53.5625022],[10.08308458,53.56250121],[10.08003703,53.56209663],[10.08003637,53.56209663],[10.08123204,53.55983465],[10.08122205,53.55981699],[10.07756807,53.55976514],[10.07751374,53.55975781],[10.07565396,53.55901433],[10.07561396,53.55898834],[10.07511248,53.55799855],[10.07510715,53.55798755],[10.07473541,53.55504569],[10.07470308,53.55504003],[10.06838731,53.55559718],[10.06832431,53.55560284],[10.06617514,53.55552895],[10.06610381,53.55553261],[10.0623261,53.55597164],[10.06230644,53.55597397],[10.0564482,53.55626891],[10.05639187,53.55627357],[10.05502942,53.55709304],[10.05498343,53.55710603],[10.05120393,53.55773131],[10.05116994,53.55773797],[10.05056804,53.55776089],[10.05056138,53.55776122],[10.05087294,53.55753697],[10.0508736,53.55753031],[10.05125293,53.5576743],[10.04767329,53.55816256],[10.04764263,53.55816722],[10.04689376,53.55832446],[10.04688576,53.55832446],[10.04708606,53.55840877],[10.04710105,53.55841676],[10.04695775,53.55852807],[10.04691075,53.55853106],[10.04525728,53.55779359],[10.04520262,53.55776326],[10.0424243,53.55573858],[10.04238964,53.55572758],[10.04185608,53.5558195],[10.04154142,53.5560055],[10.04167179,53.55584553],[10.04167912,53.55582253],[10.04153514,53.55575722],[10.04149781,53.55575323],[10.0389281,53.55576123],[10.03887677,53.55575524],[10.03519235,53.55514882],[10.03511436,53.55513782],[10.03177896,53.55483778],[10.03170563,53.55482745],[10.02698131,53.55391115],[10.02693898,53.55391481],[10.02679735,53.55403343],[10.02679934,53.55405943],[10.02698926,53.55446766],[10.02700725,53.55448332],[10.02808944,53.55486917],[10.02810044,53.55489083],[10.02756124,53.55581668],[10.02754025,53.55584668],[10.02760955,53.55611261],[10.02758389,53.55614161],[10.02662971,53.55694246],[10.02661072,53.55695812],[10.02483624,53.55781959],[10.02478358,53.55784959],[10.02371374,53.55866444],[10.02365608,53.5586991],[10.02078035,53.55998654],[10.02072002,53.56001654],[10.01602884,53.5626908],[10.01600218,53.56270813],[10.01594984,53.56285142],[10.01596117,53.56286175],[10.01722701,53.56374226],[10.01723967,53.56375626],[10.01716565,53.56415448],[10.01709965,53.56416381],[10.01576721,53.56336268],[10.01576321,53.56336102],[10.01440173,53.56203086],[10.01435073,53.56198753],[10.0123636,53.56063706],[10.0123086,53.56060906],[10.01078971,53.56032782],[10.01072938,53.56030716],[10.00865526,53.55927969],[10.0085956,53.55925469],[10.00371633,53.55754406],[10.00364767,53.55753306],[9.99946204,53.55756114],[9.99941938,53.55756713],[9.99297518,53.55914026],[9.99290752,53.55915726],[9.99192192,53.55961084],[9.99189126,53.55963683],[9.99091217,53.56087591],[9.99088251,53.56085925],[9.98919312,53.55858718],[9.98917312,53.55855885],[9.98872355,53.55860522],[9.98871989,53.55860356],[9.98906109,53.55845991],[9.98906043,53.55842825],[9.98857689,53.55727972],[9.98855123,53.55723073],[9.98768444,53.55601828],[9.98767845,53.55599028],[9.98788341,53.55556967],[9.98794007,53.55553367],[9.98910599,53.55522575],[9.98913965,53.55520342],[9.98938323,53.55453857],[9.98938856,53.55452124],[9.98933098,53.55387271],[9.98934497,53.55384638],[9.99121425,53.55223913],[9.99316691,53.54992113],[9.98997198,53.54844445],[9.98991832,53.54843846],[9.9884038,53.54854608],[9.9883588,53.54856007],[9.98664669,53.54955218],[9.9866087,53.54958151],[9.98620278,53.55003608],[9.98619112,53.55006641],[9.98564411,53.55218674],[9.98562545,53.55221474],[9.98373374,53.5532321],[9.98371008,53.55323676],[9.98330055,53.55251624],[9.98329022,53.55248691],[9.98314697,53.55149482],[9.98310598,53.55147416],[9.9810646,53.55085176],[9.98102927,53.55084343],[9.97991308,53.55081849],[9.97987709,53.55081349],[9.97518128,53.54976298],[9.97513229,53.54975699],[9.9722502,53.5502188],[9.9721862,53.55023346],[9.97036743,53.55091521],[9.9703501,53.55091887],[9.97010987,53.55055094],[9.97007221,53.55054428],[9.96946064,53.55088519],[9.96943765,53.55088752],[9.96965662,53.55072755],[9.96966028,53.55069022],[9.96927667,53.55025462],[9.96921968,53.55024696],[9.96196646,53.54960828],[9.9618818,53.54960462],[9.95659011,53.54989229],[9.95652545,53.54989362],[9.95286376,53.54971455],[9.95281243,53.54971122],[9.94129385,53.548045],[9.94124352,53.54803901],[9.93687558,53.5479089],[9.93683259,53.54791089],[9.9360324,53.54805981],[9.93602174,53.54807947],[9.93598217,53.55012691],[9.93597284,53.5501589],[9.93508695,53.55039376],[9.93504296,53.55040642],[9.93297213,53.55032292],[9.93291247,53.55032592],[9.92949846,53.5507399],[9.92944147,53.55074389],[9.92718335,53.5504041],[9.92712735,53.5504051],[9.92565516,53.55089592],[9.92561717,53.55090025],[9.91956255,53.55118697],[9.91952556,53.55120463],[9.91959721,53.55232582],[9.91962987,53.55234381],[9.92066342,53.55220321],[9.92071575,53.5522042],[9.92249993,53.5524245],[9.92252659,53.55245116],[9.92286076,53.55337663],[9.92287509,53.55343729],[9.92238584,53.55375853],[9.92236418,53.55378286],[9.92229456,53.55415579],[9.92232756,53.55417378],[9.92423508,53.55444033],[9.92429574,53.55445232],[9.92636422,53.55518144],[9.92639588,53.55518944],[9.92739064,53.55476095],[9.9273923,53.55475996],[9.9268873,53.55461096],[9.92683266,53.55469027],[9.92705966,53.55491493],[9.92667906,53.55525254],[9.9266374,53.55525154],[9.92557189,53.55483002],[9.92552456,53.55481702],[9.92451233,53.55469777],[9.92446967,53.55468611],[9.92392109,53.55436458]]}}]}