{"type":"FeatureCollection","features":[{"type":"Feature","properties":{"name":"GOTOES Export","time":"2026-04-24T08:04:25Z"},"geometry":{"type":"LineString","coordinates":[[9.924687,53.553519],[9.925232,53.553695],[9.925274,53.553692],[9.926333,53.553227],[9.926374,53.553233],[9.928456,53.554215],[9.928498,53.55424],[9.928638,53.554605],[9.928652,53.55463],[9.929169,53.554631],[9.929243,53.554625],[9.932327,53.554151],[9.932385,53.554141],[9.932865,53.553967],[9.932916,53.55394],[9.933289,53.553553],[9.933318,53.553511],[9.933814,53.552639],[9.933825,53.552612],[9.933662,53.552089],[9.93367,53.552065],[9.934023,53.551883],[9.93407,53.551874],[9.936038,53.551922],[9.936095,53.551919],[9.936551,53.551709],[9.936604,53.551711],[9.93736,53.552433],[9.9374,53.552436],[9.94027,53.551958],[9.940353,53.551946],[9.943879,53.551856],[9.943972,53.551849],[9.946787,53.551421],[9.946838,53.551409],[9.947071,53.550974],[9.94708,53.550928],[9.947187,53.549367],[9.947221,53.549336],[9.948221,53.548964],[9.948283,53.548948],[9.948953,53.548925],[9.949005,53.548912],[9.950198,53.548051],[9.950251,53.548012],[9.950723,53.547482],[9.950758,53.54742],[9.951076,53.546416],[9.95111,53.546382],[9.952693,53.546341],[9.952776,53.546319],[9.953528,53.545745],[9.953567,53.545712],[9.954025,53.54554],[9.954098,53.545526],[9.954929,53.545509],[9.955011,53.545515],[9.960268,53.546191],[9.960349,53.5462],[9.962906,53.54639],[9.962968,53.546395],[9.963224,53.546359],[9.963257,53.546338],[9.963466,53.545937],[9.96348,53.545928],[9.964083,53.545836],[9.964151,53.545824],[9.966485,53.545685],[9.966535,53.545683],[9.967115,53.545796],[9.967117,53.545806],[9.966797,53.545927],[9.96616,53.541725],[9.966396,53.541295],[9.966406,53.541259],[9.966427,53.540749],[9.966416,53.540698],[9.966241,53.540303],[9.966207,53.540255],[9.965329,53.539186],[9.965304,53.539138],[9.965184,53.538794],[9.965178,53.538745],[9.965216,53.538351],[9.965236,53.538302],[9.965626,53.537905],[9.965694,53.537871],[9.967739,53.537212],[9.967823,53.537172],[9.968478,53.536635],[9.968517,53.53657],[9.969039,53.5338],[9.96905,53.533746],[9.969516,53.530332],[9.969527,53.53027],[9.96979,53.529704],[9.969836,53.529653],[9.970595,53.529135],[9.970667,53.529097],[9.972556,53.528127],[9.972622,53.528095],[9.97317,53.527923],[9.973188,53.52791],[9.972741,53.527751],[9.972699,53.527734],[9.972647,53.527587],[9.972666,53.527571],[9.973145,53.527568],[9.973226,53.527581],[9.973897,53.527887],[9.973972,53.527906],[9.974778,53.527964],[9.974792,53.527971],[9.974028,53.527911],[9.973952,53.5279],[9.973358,53.527628],[9.973304,53.52761],[9.972733,53.527552],[9.972701,53.527536],[9.972753,53.527409],[9.972791,53.52739],[9.973578,53.527244],[9.973611,53.527195],[9.973521,53.526723],[9.973507,53.526692],[9.973026,53.525951],[9.973004,53.525905],[9.972914,53.525384],[9.972916,53.525348],[9.972958,53.525229],[9.972964,53.525224],[9.973119,53.525218],[9.973143,53.525208],[9.973202,53.524946],[9.973221,53.524942],[9.973161,53.525417],[9.97319,53.525442],[9.973617,53.52553],[9.973713,53.525533],[9.974029,53.525444],[9.974065,53.525393],[9.973918,53.523918],[9.9739,53.523855],[9.972739,53.521866],[9.972711,53.521816],[9.970292,53.51697],[9.970268,53.516919],[9.970137,53.515476],[9.970118,53.515438],[9.96965,53.515269],[9.969611,53.515247],[9.969467,53.514971],[9.969464,53.514968],[9.969073,53.514999],[9.969048,53.514977],[9.96865,53.51311],[9.968649,53.513099],[9.968621,53.513286],[9.968597,53.513258],[9.967598,53.511233],[9.967563,53.511179],[9.966756,53.510316],[9.96672,53.510272],[9.966202,53.509488],[9.96618,53.509438],[9.965994,53.50875],[9.96599,53.508696],[9.965919,53.506921],[9.965917,53.50687],[9.96604,53.506338],[9.966043,53.506292],[9.965877,53.505255],[9.965874,53.505233],[9.966216,53.505226],[9.966233,53.505231],[9.96616,53.507071],[9.966159,53.507095],[9.966318,53.509187],[9.966331,53.509231],[9.966606,53.509835],[9.966636,53.509884],[9.967181,53.510447],[9.96719,53.510455],[9.968954,53.512824],[9.968959,53.512829],[9.968662,53.513124],[9.968662,53.513159],[9.969062,53.515035],[9.969061,53.515072],[9.968513,53.515286],[9.968495,53.515292],[9.968943,53.51514],[9.96899,53.515153],[9.969689,53.516196],[9.969669,53.51622],[9.969006,53.516625],[9.968959,53.516629],[9.967786,53.516195],[9.967735,53.516186],[9.966117,53.516187],[9.966058,53.516198],[9.965637,53.516329],[9.9656,53.516355],[9.965529,53.516792],[9.965506,53.516835],[9.965181,53.517065],[9.965116,53.517085],[9.962009,53.517472],[9.961925,53.517484],[9.960751,53.517819],[9.960701,53.51784],[9.959279,53.518555],[9.959237,53.518585],[9.959041,53.518796],[9.959021,53.518834],[9.958923,53.519188],[9.9589,53.519222],[9.95862,53.51939],[9.958558,53.519411],[9.957872,53.519491],[9.957803,53.519484],[9.956957,53.519181],[9.956892,53.519163],[9.956278,53.519113],[9.956208,53.519122],[9.95324,53.519799],[9.953185,53.519815],[9.95239,53.520109],[9.952345,53.520129],[9.952218,53.520312],[9.952178,53.520324],[9.951417,53.520344],[9.95135,53.520356],[9.949249,53.520849],[9.949184,53.520866],[9.94866,53.521111],[9.948631,53.52114],[9.947617,53.522449],[9.947573,53.52249],[9.946837,53.522859],[9.946792,53.522887],[9.946553,53.52316],[9.946545,53.523206],[9.945959,53.523296],[9.945896,53.523285],[9.945682,53.522952],[9.94568,53.522944],[9.945805,53.523269],[9.945836,53.523284],[9.946415,53.523291],[9.946467,53.523266],[9.946781,53.522934],[9.946828,53.5229],[9.947559,53.522544],[9.947598,53.52251],[9.948593,53.521214],[9.948622,53.521176],[9.949016,53.520936],[9.949079,53.520914],[9.951331,53.520379],[9.951392,53.520366],[9.952174,53.520348],[9.952219,53.520337],[9.95231,53.520194],[9.952347,53.520172],[9.953103,53.519876],[9.953159,53.519859],[9.956125,53.519173],[9.95619,53.519162],[9.956774,53.519172],[9.956836,53.519183],[9.957727,53.519503],[9.957791,53.519513],[9.958418,53.519484],[9.958483,53.519468],[9.95886,53.519288],[9.958895,53.519251],[9.9592,53.518665],[9.959232,53.518638],[9.960573,53.517939],[9.960631,53.517913],[9.962469,53.517446],[9.962519,53.517435],[9.965168,53.51711],[9.965216,53.517096],[9.965527,53.516883],[9.965546,53.516854],[9.96557,53.516475],[9.965587,53.51644],[9.965878,53.516291],[9.965945,53.516273],[9.966764,53.516162],[9.966854,53.51616],[9.967818,53.516241],[9.967904,53.516259],[9.968839,53.516608],[9.968941,53.516658],[9.969597,53.517133],[9.969653,53.517192],[9.970199,53.518082],[9.97022,53.51812],[9.973084,53.523808],[9.973104,53.523854],[9.973274,53.524501],[9.973272,53.524534],[9.97304,53.5248],[9.973029,53.52483],[9.972942,53.525678],[9.972947,53.525719],[9.97365,53.5271],[9.973648,53.527144],[9.973503,53.527322],[9.973451,53.527342],[9.972759,53.527378],[9.972741,53.527383],[9.972686,53.52766],[9.972692,53.527687],[9.972894,53.527921],[9.972869,53.527949],[9.970365,53.529387],[9.970319,53.529414],[9.969808,53.529913],[9.969789,53.529947],[9.968823,53.536033],[9.968816,53.536077],[9.9686,53.536666],[9.968572,53.536709],[9.96792,53.53725],[9.967862,53.537279],[9.965871,53.537922],[9.965808,53.537946],[9.965419,53.538251],[9.965397,53.538294],[9.965472,53.539074],[9.96549,53.539115],[9.966417,53.540331],[9.966446,53.540375],[9.966638,53.540907],[9.966644,53.540952],[9.96623,53.546011],[9.9662,53.546031],[9.963585,53.546158],[9.963535,53.546161],[9.962987,53.546394],[9.962936,53.546394],[9.960208,53.546193],[9.960134,53.546185],[9.954789,53.54548],[9.954754,53.545477],[9.953641,53.545665],[9.953612,53.545666],[9.95255,53.545374],[9.952506,53.545382],[9.951809,53.545817],[9.951799,53.545826],[9.951846,53.545954],[9.951847,53.545976],[9.951625,53.54632],[9.951615,53.546344],[9.95144,53.547002],[9.951436,53.547027],[9.951463,53.548141],[9.95147,53.548168],[9.951856,53.548461],[9.951886,53.548495],[9.95213,53.548971],[9.952139,53.549009],[9.952019,53.549534],[9.951974,53.549546],[9.940864,53.547953],[9.940796,53.547947],[9.937863,53.547815],[9.93779,53.547813],[9.936182,53.547954],[9.936116,53.547955],[9.935709,53.547821],[9.935641,53.547809],[9.93485,53.547776],[9.934765,53.547775],[9.932552,53.547953],[9.93246,53.547951],[9.929482,53.547687],[9.92939,53.547684],[9.927781,53.547802],[9.927682,53.547803],[9.925513,53.547722],[9.925439,53.547726],[9.922998,53.548093],[9.922955,53.548101],[9.922759,53.548288],[9.922716,53.548296],[9.920565,53.548479],[9.920498,53.548485],[9.917888,53.548488],[9.917817,53.548491],[9.911428,53.549239],[9.911341,53.549247],[9.900446,53.549808],[9.90036,53.549804],[9.89385,53.549056],[9.893769,53.549047],[9.890673,53.548826],[9.890621,53.548812],[9.890053,53.548561],[9.890032,53.548525],[9.889756,53.546739],[9.889726,53.546704],[9.888521,53.546467],[9.888438,53.546465],[9.882919,53.546636],[9.882836,53.546637],[9.881101,53.546538],[9.881027,53.546539],[9.879805,53.5467],[9.879727,53.546705],[9.876074,53.546804],[9.875986,53.546808],[9.873321,53.547225],[9.873219,53.547237],[9.870277,53.547442],[9.87015,53.547459],[9.867424,53.547999],[9.867315,53.548012],[9.866132,53.548018],[9.866051,53.548014],[9.864745,53.547845],[9.864689,53.547833],[9.864356,53.54753],[9.864303,53.547508],[9.862991,53.547205],[9.862957,53.547196],[9.862844,53.546972],[9.862836,53.546961],[9.86285,53.547072],[9.862824,53.547056],[9.863257,53.541236],[9.863256,53.541236],[9.863995,53.54109],[9.864008,53.541064],[9.863678,53.540185],[9.863668,53.540156],[9.863353,53.539795],[9.863313,53.539778],[9.858744,53.538099],[9.858701,53.538075],[9.857896,53.535825],[9.857879,53.535805],[9.852117,53.536585],[9.852051,53.53659],[9.848294,53.53678],[9.848238,53.536783],[9.846655,53.536672],[9.846588,53.536671],[9.84482,53.536752],[9.844756,53.536751],[9.844098,53.536634],[9.844063,53.536605],[9.84437,53.535649],[9.84438,53.535605],[9.844608,53.53416],[9.844613,53.534119],[9.844576,53.533122],[9.84458,53.533044],[9.844939,53.528799],[9.844896,53.528777],[9.843641,53.528898],[9.843586,53.528909],[9.842854,53.529412],[9.842799,53.529425],[9.842331,53.529326],[9.842266,53.529327],[9.841793,53.529475],[9.841734,53.529476],[9.840394,53.529119],[9.840306,53.529107],[9.83888,53.529095],[9.838821,53.529101],[9.833103,53.530593],[9.833053,53.530603],[9.831898,53.530732],[9.83184,53.530733],[9.830371,53.53057],[9.830324,53.53056],[9.829242,53.530181],[9.829195,53.53016],[9.823709,53.527572],[9.823666,53.527552],[9.82281,53.526926],[9.822778,53.526891],[9.822435,53.526421],[9.82245,53.526402],[9.822772,53.526331],[9.822803,53.526316],[9.822827,53.526157],[9.822862,53.526126],[9.823772,53.525734],[9.823841,53.525686],[9.824232,53.525282],[9.824265,53.525235],[9.824335,53.524959],[9.82433,53.524912],[9.823617,53.523042],[9.823592,53.523001],[9.822045,53.521193],[9.822013,53.521173],[9.821439,53.521115],[9.821406,53.521116],[9.818261,53.521473],[9.818191,53.521474],[9.813874,53.521063],[9.813816,53.521057],[9.812191,53.521052],[9.812147,53.521021],[9.811747,53.520243],[9.811738,53.520199],[9.811009,53.513957],[9.811005,53.513924],[9.811197,53.513576],[9.811198,53.513573],[9.811563,53.513653],[9.811619,53.513649],[9.811781,53.513531],[9.811771,53.513493],[9.806241,53.501782],[9.806222,53.501746],[9.806094,53.501288],[9.806077,53.50125],[9.804428,53.498337],[9.804408,53.498298],[9.80345,53.495903],[9.803408,53.495878],[9.79899,53.49518],[9.798928,53.495174],[9.79816,53.495422],[9.798095,53.495435],[9.797544,53.495428],[9.797487,53.495419],[9.795666,53.494901],[9.795611,53.494882],[9.794632,53.494381],[9.794567,53.494369],[9.792684,53.494616],[9.792618,53.494607],[9.790885,53.494271],[9.790816,53.494256],[9.789011,53.493725],[9.788941,53.49371],[9.785387,53.493113],[9.785325,53.493102],[9.7796,53.491914],[9.779551,53.491904],[9.779377,53.491897],[9.77933,53.491936],[9.779286,53.492323],[9.779257,53.49235],[9.778625,53.492389],[9.778551,53.492383],[9.777636,53.491942],[9.777571,53.49192],[9.775861,53.491476],[9.775797,53.491463],[9.772272,53.491007],[9.772195,53.490996],[9.766961,53.490059],[9.766892,53.49005],[9.764775,53.490114],[9.764699,53.490119],[9.761474,53.490454],[9.761405,53.490458],[9.757298,53.490593],[9.757241,53.490595],[9.751929,53.490635],[9.751873,53.490635],[9.748839,53.49052],[9.748783,53.490518],[9.748407,53.490412],[9.748373,53.490387],[9.747816,53.489769],[9.747776,53.489732],[9.746788,53.488971],[9.746779,53.488966],[9.747832,53.489769],[9.747874,53.489808],[9.748392,53.490371],[9.748411,53.490393],[9.748315,53.490469],[9.748249,53.490477],[9.74301,53.490683],[9.742946,53.490688],[9.742327,53.49089],[9.742269,53.490902],[9.73981,53.491258],[9.739747,53.491271],[9.738508,53.491611],[9.738458,53.491622],[9.737503,53.49151],[9.737449,53.491514],[9.736254,53.491799],[9.7362,53.491804],[9.735162,53.491357],[9.735107,53.491338],[9.7346,53.491259],[9.73454,53.491261],[9.733566,53.491411],[9.733511,53.491426],[9.732573,53.491832],[9.732515,53.491839],[9.72731,53.491845],[9.727245,53.491845],[9.726443,53.492135],[9.726376,53.492136],[9.724703,53.491788],[9.724643,53.491778],[9.722605,53.491654],[9.722547,53.491649],[9.721812,53.491496],[9.721748,53.491497],[9.721135,53.491759],[9.721084,53.491773],[9.716504,53.492568],[9.716462,53.492555],[9.716229,53.492176],[9.716197,53.492143],[9.71532,53.491523],[9.71528,53.491491],[9.714535,53.490685],[9.714504,53.490653],[9.713776,53.490248],[9.713753,53.490218],[9.713681,53.489942],[9.713687,53.489911],[9.714012,53.489537],[9.71403,53.489509],[9.713988,53.489293],[9.713956,53.489264],[9.712072,53.48814],[9.712034,53.488119],[9.710799,53.48767],[9.710762,53.487645],[9.710572,53.487416],[9.710564,53.487381],[9.710773,53.486968],[9.710786,53.486918],[9.710727,53.486652],[9.710688,53.486605],[9.709206,53.485994],[9.709166,53.485961],[9.709105,53.485807],[9.709116,53.485766],[9.709326,53.485406],[9.709324,53.485365],[9.70877,53.48468],[9.708746,53.484639],[9.708794,53.484157],[9.70877,53.484116],[9.707585,53.483126],[9.707555,53.483094],[9.706765,53.481955],[9.706726,53.481913],[9.705991,53.481614],[9.705954,53.481573],[9.705909,53.481435],[9.705917,53.481386],[9.706082,53.481161],[9.70611,53.481113],[9.706106,53.480914],[9.706082,53.480867],[9.705926,53.480701],[9.705869,53.48067],[9.705266,53.480469],[9.705235,53.480434],[9.705343,53.479864],[9.705321,53.479829],[9.703718,53.478226],[9.703694,53.478202],[9.703573,53.477897],[9.703552,53.477878],[9.70264,53.477676],[9.702544,53.477653],[9.700462,53.476404],[9.700439,53.476396],[9.700029,53.47646],[9.700018,53.476465],[9.700024,53.476633,11.8],[9.700023,53.476634,11.93],[9.699156,53.477022,10.46],[9.699129,53.477034,10.4],[9.698719,53.477084,10],[9.698693,53.477069,10],[9.697542,53.476315,10.06],[9.697532,53.476293,10.2],[9.698312,53.475627,10.53],[9.698288,53.475603,10.4],[9.696677,53.474987,9.06],[9.696675,53.474986,9.13],[9.691576,53.471949,9.73],[9.691531,53.471919,9.66],[9.690068,53.470599,7.4],[9.690058,53.470584,7.4],[9.690515,53.470332,6.66],[9.690512,53.470312,6.46],[9.689881,53.470305,7.13],[9.689836,53.470284,7.4],[9.689845,53.470171,7.86],[9.68989,53.470147,7.93],[9.690252,53.470084,7.93],[9.690248,53.470072,7.86],[9.689702,53.469989,9.06],[9.689667,53.46998,9.2],[9.689568,53.469798,10.46],[9.689539,53.469784,10.53],[9.687962,53.469206,15.06],[9.68792,53.469194,15.26],[9.685656,53.468731,23.66],[9.685598,53.468721,24.13],[9.68479,53.468694,25.66],[9.684745,53.468688,26],[9.682512,53.468091,23.4],[9.682455,53.468075,23.6],[9.680947,53.467279,29.8],[9.680909,53.46726,29.73],[9.680004,53.466946,30.2],[9.679953,53.466931,30.13],[9.675241,53.466007,34],[9.675196,53.465998,34.06],[9.674992,53.465942,34.59],[9.674985,53.465941,34.59],[9.675229,53.465857,33.93],[9.675189,53.465847,33.86],[9.669449,53.464665,42.2],[9.669413,53.464657,42.26],[9.664288,53.462854,48.73],[9.664232,53.462829,48.66],[9.634611,53.444968,49.2],[9.634558,53.444936,49.53],[9.633628,53.444345,47],[9.63358,53.444309,46.73],[9.633343,53.444006,46.73],[9.633303,53.443974,46.86],[9.632475,53.44367,47.4],[9.632415,53.443636,47.26],[9.617684,53.434727,46.26],[9.617625,53.434696,46.26],[9.61621,53.434209,49.13],[9.616145,53.434193,49.2],[9.614339,53.433922,47.13],[9.614297,53.433913,46.93],[9.614024,53.43334,47],[9.613995,53.433294,47.13],[9.61377,53.433165,47.66],[9.613699,53.433149,47.8],[9.591421,53.429494,48.2],[9.591372,53.429486,48.2],[9.587738,53.428616,47.33],[9.587685,53.428601,47.26],[9.557221,53.418435,44],[9.557175,53.418418,44.2],[9.556256,53.418032,44.33],[9.55621,53.41801,44.26],[9.555142,53.417379,47.66],[9.555099,53.417353,48],[9.554289,53.416708,46.33],[9.554256,53.416675,46.26],[9.554077,53.416321,46],[9.55404,53.41629,46],[9.553318,53.415867,45.8],[9.553266,53.415838,45.86],[9.551564,53.415073,45.73],[9.551508,53.415049,45.53],[9.550256,53.414657,43.73],[9.550209,53.414635,43.66],[9.550087,53.414509,43.66],[9.55007,53.414468,43.73],[9.549851,53.413525,46],[9.549837,53.413477,45.93],[9.549644,53.413201,45.46],[9.549625,53.413159,45.4],[9.549137,53.411575,48.86],[9.549103,53.411523,49.06],[9.545381,53.40798,42.53],[9.545346,53.407933,42.6],[9.539102,53.397973,45.4],[9.539094,53.397972,45.53],[9.539268,53.392399,42.46],[9.539232,53.392381,42.6],[9.52284,53.3918,41.6],[9.522762,53.391797,41.46],[9.519545,53.391797,48.46],[9.519485,53.391795,48.53],[9.507503,53.390692,40.2],[9.507449,53.390689,40],[9.504284,53.391122,42],[9.504238,53.391123,42],[9.503665,53.39064,45],[9.503614,53.390639,44.93],[9.483365,53.398101,41.33],[9.483319,53.398102,41.4],[9.471758,53.394871,39],[9.471719,53.394863,39],[9.455884,53.393491,39.26],[9.455841,53.393487,39.2],[9.455531,53.393555,39],[9.455539,53.393561,39],[9.456633,53.387582,36.06],[9.456645,53.387517,35.86],[9.456933,53.386537,35],[9.456966,53.386478,34.86],[9.462379,53.381043,44.2],[9.462418,53.381008,44.26],[9.464442,53.379878,42],[9.464477,53.379846,42],[9.465366,53.378352,43.2],[9.465373,53.37835,43.13],[9.463992,53.377888,39.93],[9.463941,53.37787,39.8],[9.453889,53.375163,41.06],[9.453839,53.375149,41],[9.446284,53.372711,39.8],[9.446238,53.372696,39.8],[9.433598,53.368976,34.59],[9.433535,53.368958,34.53],[9.432991,53.368874,35],[9.432921,53.368875,35.13],[9.432198,53.369047,35.2],[9.432156,53.369052,35.2],[9.431876,53.368983,35.46],[9.431829,53.36897,35.53],[9.429677,53.367155,37],[9.429634,53.367123,37],[9.426997,53.365402,37.66],[9.426954,53.365381,37.73],[9.4242,53.364633,36],[9.424154,53.364624,36],[9.423995,53.364668,36],[9.423983,53.364689,36],[9.423981,53.365063,36],[9.423967,53.365066,36],[9.423866,53.364691,36.53],[9.423845,53.36467,36.53],[9.423504,53.364642,36.86],[9.423471,53.364613,36.93],[9.423581,53.364492,36.93],[9.423551,53.364476,37.06],[9.421135,53.363807,35.93],[9.421075,53.363778,35.93],[9.41902,53.362023,34.46],[9.418979,53.36199,34.46],[9.415151,53.358339,34.93],[9.415112,53.358304,35.06],[9.413885,53.357415,36.33],[9.413845,53.357391,36.26],[9.411647,53.356466,36.33],[9.411589,53.356449,36.33],[9.406764,53.355333,32.33],[9.406693,53.355308,32.2],[9.405287,53.354685,29.6],[9.405228,53.354654,29.46],[9.40419,53.353969,32.26],[9.40414,53.35393,32.4],[9.403277,53.353118,33.26],[9.40324,53.353076,33.06],[9.401096,53.350412,33.06],[9.401056,53.35035,33.06],[9.400186,53.348599,31.66],[9.400165,53.348541,31.73],[9.399994,53.347223,29.93],[9.399976,53.347176,29.86],[9.399483,53.346669,28.46],[9.399425,53.34663,28.46],[9.397109,53.345904,27.46],[9.397048,53.345879,27.66],[9.392163,53.343774,30.53],[9.392115,53.343753,30.53],[9.391894,53.343504,29.2],[9.391861,53.343487,29.06],[9.384827,53.340549,26],[9.384785,53.340532,26.06],[9.375559,53.337596,37],[9.375514,53.337575,37],[9.373928,53.336731,31.06],[9.373895,53.336705,31.06],[9.37269,53.335177,31.6],[9.372672,53.335151,31.4],[9.372767,53.335033,30.86],[9.372813,53.335015,30.73],[9.373743,53.334744,31.66],[9.373762,53.334738,31.73],[9.372397,53.334914,31.8],[9.372261,53.334821,31.53],[9.372243,53.3348,31.4],[9.37303,53.333626,31.66],[9.373065,53.333572,31.8],[9.373068,53.333362,31.66],[9.373028,53.333319,31.46],[9.368935,53.331315,26.13],[9.368882,53.331288,26.13],[9.367772,53.330461,32.46],[9.367741,53.330425,32.86],[9.367011,53.329159,27.2],[9.366998,53.329116,27.33],[9.366972,53.3273,27],[9.366971,53.327262,27],[9.366715,53.326148,23.86],[9.36669,53.326106,23.73],[9.366207,53.325476,23.53],[9.366164,53.32544,23.66],[9.363571,53.323661,23.06],[9.363534,53.323627,23.33],[9.363033,53.322644,25],[9.363023,53.322609,25],[9.363012,53.322328,24.4],[9.36302,53.322294,24.26],[9.364376,53.31786,24.33],[9.364385,53.317819,24.33],[9.36431,53.317021,22.66],[9.364302,53.31698,22.73],[9.364117,53.316466,22.66],[9.36411,53.316427,22.73],[9.36457,53.316318,23.8],[9.364625,53.316297,23.73],[9.366138,53.315458,23.86],[9.36616,53.315431,23.93],[9.367132,53.312797,19.2],[9.367151,53.312755,18.93],[9.368615,53.310396,16.26],[9.368636,53.310373,16.33],[9.376142,53.304565,26.4],[9.376169,53.304539,26.46],[9.375431,53.302462,27.66],[9.375424,53.302429,27.46],[9.375768,53.300495,24.8],[9.375775,53.30046,24.6],[9.376007,53.300122,24.46],[9.376047,53.300081,24.4],[9.377895,53.298543,20.13],[9.3779,53.298521,20.2],[9.36193,53.296733,33.59],[9.361909,53.29671,33.66],[9.362451,53.294094,44.66],[9.362446,53.294044,45.26],[9.361631,53.293073,35.33],[9.361595,53.29302,34.46],[9.360489,53.291005,25.93],[9.360472,53.290967,26.06],[9.360298,53.289009,26.6],[9.360289,53.288976,26.66],[9.360101,53.288829,27.66],[9.36006,53.288822,27.93],[9.358783,53.288856,32.06],[9.358766,53.288828,31.66],[9.353823,53.276241,33.4],[9.353804,53.2762,33.33],[9.352315,53.275178,36.59],[9.352287,53.275163,36.4],[9.352165,53.274947,34.33],[9.352154,53.274918,34.06],[9.351728,53.273122,34],[9.351723,53.27308,34.26],[9.351623,53.271229,29.66],[9.351622,53.271168,29.66],[9.351725,53.269334,30.26],[9.351693,53.269296,30.26],[9.345004,53.269169,31.66],[9.344961,53.269159,31.66],[9.34248,53.265775,29.86],[9.342441,53.265753,29.93],[9.32567,53.259148,32.06],[9.325606,53.259123,32.33],[9.321742,53.257875,34.4],[9.321693,53.257857,34.46],[9.319391,53.256095,31.26],[9.319342,53.256053,31.26],[9.319204,53.255865,31.46],[9.319189,53.255814,31.53],[9.319201,53.255552,31.86],[9.31922,53.255497,31.93],[9.322329,53.24761,31.2],[9.322327,53.247561,30.93],[9.321021,53.244078,24.86],[9.320991,53.244023,24.86],[9.318007,53.240109,27.8],[9.317985,53.240062,27.93],[9.317979,53.239797,28.6],[9.317996,53.239739,28.73],[9.318475,53.238418,28.2],[9.318491,53.238363,28.26],[9.318438,53.23822,28.53],[9.318383,53.238191,28.6],[9.312424,53.23742,24.8],[9.312356,53.237426,24.46],[9.306345,53.239972,26.8],[9.306283,53.239998,27.06],[9.305728,53.240126,29.93],[9.305651,53.240125,30.4],[9.299273,53.239105,21.06],[9.29921,53.239096,21.13],[9.293345,53.238707,26.13],[9.293286,53.238695,26.2],[9.285555,53.235967,32.53],[9.285492,53.235957,32.53],[9.284842,53.236529,33.06],[9.284838,53.236533,33.13],[9.284485,53.236622,33.4],[9.284425,53.236627,33.33],[9.281716,53.236011,29.2],[9.281629,53.235999,29.2],[9.275788,53.235526,30.53],[9.275738,53.235501,30.53],[9.275539,53.235216,30.26],[9.275526,53.235168,30.26],[9.274637,53.231363,36.4],[9.274622,53.231335,36.2],[9.267917,53.220912,35.73],[9.267892,53.220872,35.66],[9.260149,53.211566,31.06],[9.260118,53.211531,30.93],[9.259748,53.211239,30.53],[9.259695,53.211212,30.66],[9.254973,53.209079,30.4],[9.254938,53.209063,30.6],[9.249338,53.207017,35.4],[9.249283,53.206997,35.33],[9.248941,53.206726,35.2],[9.248917,53.206694,35.26],[9.248045,53.204564,38.33],[9.248054,53.204532,38.4],[9.248737,53.203568,39.53],[9.248764,53.203534,39.46],[9.249359,53.203526,39],[9.249408,53.203507,39],[9.250047,53.202752,39.59],[9.250072,53.202721,39.59],[9.250535,53.200961,39.2]]}}]}