{"type":"FeatureCollection","features":[{"type":"Feature","properties":{"name":"20260504 Cicloturismo","time":"2026-05-04T12:01:33Z"},"geometry":{"type":"LineString","coordinates":[[4.711347,50.88269033,25],[4.71073077,50.88315921,26.6],[4.71071311,50.88316021,26.6],[4.70781058,50.88199694,25.8],[4.70778325,50.88199028,25.73],[4.7071447,50.88238584,26.73],[4.70709304,50.8824015,27.26],[4.70664208,50.88231455,30.46],[4.70658142,50.88230989,30.46],[4.70562616,50.88242684,22.13],[4.70556783,50.88241551,21.66],[4.70151404,50.88048937,30.06],[4.70148038,50.88047371,30.06],[4.70059188,50.87992289,27.53],[4.70055422,50.87991789,27.73],[4.69849941,50.88070699,24.26],[4.69844542,50.88071765,24.2],[4.69826045,50.88066566,24],[4.69824179,50.880633,24],[4.6983784,50.88018407,24.4],[4.6983784,50.88014807,24.53],[4.69821212,50.87988878,26.53],[4.69816979,50.87988545,26.8],[4.6956807,50.88046687,29.6],[4.69563704,50.88047487,29.93],[4.69363991,50.8806497,28.46],[4.69359658,50.88063104,28.53],[4.69220217,50.87910229,33.26],[4.69218284,50.8790803,33],[4.69140268,50.87784285,25.6],[4.69137935,50.87781386,25.66],[4.69079443,50.87733928,25.93],[4.6907811,50.87730462,25.8],[4.69073742,50.8757585,26.13],[4.69074275,50.8757255,26.13],[4.69151682,50.87412811,24.66],[4.69152181,50.87409478,24.66],[4.69134896,50.87316026,24],[4.69136362,50.8731416,24],[4.69278245,50.87305574,22.73],[4.69282444,50.87304408,22.86],[4.69294509,50.87295777,23.33],[4.69295875,50.87292944,23.4],[4.69302934,50.87243018,24.53],[4.69303967,50.87240518,24.53],[4.69351496,50.87232924,24],[4.69356362,50.87232691,24],[4.69543214,50.87231329,23.86],[4.69547647,50.87232328,23.73],[4.69603769,50.87289017,25.06],[4.69608335,50.8728995,25.13],[4.69816302,50.87289641,28.13],[4.69817568,50.87289042,28.2],[4.69806276,50.87255682,29.53],[4.69805976,50.87252583,29.6],[4.69811236,50.87169999,27.26],[4.69811336,50.87166666,27.4],[4.69800283,50.87054081,30.8],[4.69800483,50.87050781,30.8],[4.69788188,50.87030483,30.53],[4.69787522,50.87027884,30.6],[4.69777404,50.86917606,28.6],[4.69777305,50.8691604,28.46],[4.69769542,50.86908543,27.73],[4.69769476,50.86907143,27.66],[4.69848665,50.86886852,26.53],[4.69849598,50.86886653,26.26],[4.69827836,50.86859059,25.66],[4.69834502,50.86854759,25.8],[4.70018715,50.86789782,32.8],[4.70021414,50.86788583,32.86],[4.70140848,50.86636177,29.86],[4.70144048,50.86632444,29.6],[4.7018441,50.86599316,27.66],[4.70191343,50.86596383,27.4],[4.70347131,50.86566396,25.6],[4.70353397,50.86565097,25.53],[4.70555211,50.86510551,25.13],[4.70559544,50.86509518,25.26],[4.7077409,50.8647164,26.73],[4.70778756,50.86471007,26.8],[4.70964468,50.86492653,27.73],[4.70968301,50.86493252,27.86],[4.71114749,50.86497108,27.4],[4.71117115,50.86495775,27.33],[4.71120145,50.8647068,27.4],[4.71116612,50.86469047,27.46],[4.70936294,50.86420133,26.33],[4.70935128,50.86418933,26.4],[4.71064348,50.86459085,26.86],[4.71065414,50.86459585,26.93],[4.71118675,50.86463782,27.86],[4.71120408,50.86462716,28],[4.71137764,50.86400293,30.93],[4.71139397,50.86396794,31.06],[4.71175423,50.8634637,32.26],[4.71176589,50.8634297,32.2],[4.7121553,50.86174936,32.59],[4.71217896,50.86172637,32.73],[4.71320411,50.86108156,39.66],[4.71323544,50.8610659,39.8],[4.71444988,50.86064379,42.6],[4.71447354,50.8606308,42.66],[4.71703504,50.859171,48.73],[4.7170627,50.859155,48.73],[4.71776054,50.85859445,49.66],[4.71778853,50.85856379,49.66],[4.72162676,50.85206231,53.33],[4.72164176,50.85203565,53.4],[4.72201359,50.85128581,52.93],[4.72202225,50.85126081,53.06],[4.72198761,50.85099153,53.33],[4.72199427,50.85097887,53.33],[4.72227756,50.85078827,53.46],[4.72230356,50.85076261,53.46],[4.72227992,50.85057499,54],[4.72229492,50.850555,54.06],[4.72264618,50.85035604,55.53],[4.72266951,50.85032471,55.6],[4.72363555,50.84871662,55.6],[4.72365421,50.84868729,55.66],[4.72499784,50.84682795,56],[4.7250215,50.84680295,56],[4.72573239,50.84622942,58],[4.72576005,50.84621309,58],[4.727404,50.8454194,61.4],[4.72742666,50.8454054,61.53],[4.72791954,50.84496422,64.66],[4.72793554,50.84494423,64.73],[4.72810647,50.84461733,65],[4.72811313,50.84459667,65],[4.72856849,50.84285295,68.4],[4.72857849,50.84282629,68.53],[4.72895071,50.84226477,71.13],[4.72896904,50.84224544,71.33],[4.73080777,50.84092845,74.46],[4.73083543,50.84090645,74.4],[4.73270722,50.83902638,63.93],[4.73276988,50.83896605,63.8],[4.73376681,50.83814579,62.13],[4.73382814,50.83810079,62.06],[4.73795966,50.8353406,64.26],[4.73799166,50.83532061,64.33],[4.7395178,50.83463914,67.8],[4.73955446,50.83462481,67.86],[4.73959545,50.83443951,68],[4.73961278,50.83442152,68],[4.74001106,50.83435689,68],[4.74003639,50.83433656,68],[4.73999314,50.83344409,66.93],[4.73999347,50.8334151,66.86],[4.74011676,50.83311881,66.06],[4.74014042,50.83308782,65.86],[4.74093493,50.83236731,63.13],[4.74097859,50.83233231,62.93],[4.74356258,50.83046601,62.26],[4.74358524,50.83044368,62.33],[4.74499607,50.82857087,65],[4.7450144,50.82854488,65],[4.74549388,50.82766938,62.13],[4.74551021,50.82765139,62.06],[4.74573117,50.82754243,61.46],[4.7457645,50.82753243,61.4],[4.74678369,50.82741626,59.6],[4.74681335,50.82740493,59.53],[4.74769246,50.82671877,60.46],[4.74771912,50.82670311,60.53],[4.74884258,50.82631566,72.86],[4.74886524,50.82630133,73.13],[4.75008456,50.82539202,77.6],[4.75010289,50.82537736,77.73],[4.75057239,50.82472254,75.53],[4.75059605,50.82469788,75.53],[4.75170489,50.82371932,74.66],[4.75172889,50.82369399,74.73],[4.7529364,50.82135351,87.33],[4.75294239,50.82133252,87.46],[4.75320571,50.81844719,80],[4.75320771,50.81842586,80.06],[4.75362705,50.81682318,79.4],[4.75364238,50.81678885,79.19],[4.75470083,50.81533746,76.33],[4.75472182,50.81531546,76.33],[4.75721213,50.81340853,77.46],[4.75722979,50.81338287,77.53],[4.75724946,50.8132539,77.86],[4.75724213,50.81323024,77.93],[4.75681797,50.81239048,79.93],[4.75681098,50.81237015,80],[4.75681996,50.81212455,80],[4.75682662,50.81210422,80],[4.75992054,50.80718348,90],[4.7599332,50.80715982,90],[4.76012869,50.80637039,92.2],[4.76013202,50.80635073,92.33],[4.7603001,50.80493502,91.8],[4.76030676,50.80490969,91.86],[4.76086456,50.8037476,91.46],[4.76087756,50.80372794,91.46],[4.76201898,50.80247053,94.06],[4.76203931,50.8024492,94.13],[4.7649007,50.79977321,94.6],[4.76492136,50.79975788,94.66],[4.7663441,50.7989948,96.53],[4.7663701,50.79898014,96.6],[4.76779848,50.79802111,98.06],[4.76780781,50.79801878,98.2],[4.77070545,50.79574643,100.2],[4.77072778,50.7957321,100.26],[4.77334252,50.794744,103],[4.77336852,50.794733,102.93],[4.77455195,50.79408822,102.13],[4.77456528,50.79406756,102.2],[4.77371891,50.79290084,105.13],[4.77370825,50.79288151,105.2],[4.77356101,50.79251596,106],[4.77355502,50.79249463,106],[4.77351874,50.79206273,104],[4.7735214,50.79203773,104],[4.77371898,50.79141181,101.06],[4.77374297,50.79135648,100.66],[4.77461451,50.78964298,95.53],[4.77463617,50.78959232,95.53],[4.77493242,50.78866508,94],[4.77494175,50.78862475,94],[4.77505001,50.78807482,94],[4.77505501,50.78803716,94],[4.7750331,50.78485414,88.06],[4.77503976,50.78480148,88],[4.77554002,50.78393824,85.73],[4.77556602,50.78388291,85.6],[4.77574227,50.7830353,85],[4.77575826,50.78298431,85],[4.77600921,50.78254703,85.8],[4.77603154,50.78249537,85.93],[4.77596289,50.78173111,86.06],[4.77596989,50.78168445,85.93],[4.77627012,50.78097355,85.66],[4.77632945,50.78101221,85.73],[4.77616883,50.78133381,85.86],[4.77616883,50.78135514,85.8],[4.77632372,50.78076689,84.66],[4.77632106,50.78073723,84.6],[4.77573131,50.77925347,85],[4.77573564,50.77922414,85],[4.77637439,50.77774873,87],[4.77638538,50.77772473,87],[4.77668928,50.77723483,88.2],[4.77670694,50.77720917,88.33],[4.77837812,50.77537429,96.6],[4.77841611,50.77536363,96.6],[4.78310969,50.77580025,94],[4.78317535,50.77580524,94],[4.78500087,50.77583713,94.53],[4.7850382,50.77582313,94.53],[4.78562129,50.77446174,94.8],[4.78563095,50.77444274,94.86],[4.7861678,50.77373457,94.4],[4.78618279,50.77371591,94.4],[4.78781481,50.77219127,93.8],[4.78785347,50.77215861,93.8],[4.79030741,50.770359,100],[4.79033074,50.770341,100.13],[4.79269055,50.76831385,103],[4.79271388,50.76829185,103],[4.79286985,50.76810722,103],[4.79288218,50.76808256,103],[4.79293678,50.76774429,103],[4.79293645,50.76772296,103],[4.79266285,50.76753904,103],[4.79266918,50.76753171,103],[4.79347208,50.76756168,102.66],[4.79351674,50.76754735,102.8],[4.79566803,50.7664887,106.06],[4.79569503,50.76647237,106.2],[4.7973769,50.76465822,108],[4.79739356,50.76464356,108],[4.79948884,50.76321635,108.33],[4.7995085,50.76319869,108.26],[4.80062326,50.76092522,109.46],[4.80063325,50.76090489,109.46],[4.8015252,50.75876796,107.6],[4.8015462,50.75873463,107.46],[4.80295231,50.7570412,97.33],[4.80298931,50.75700254,97.26],[4.80378589,50.75658462,98.33],[4.80379622,50.75656163,98.46],[4.80347933,50.75602808,100.13],[4.80347734,50.75599942,100.26],[4.80380718,50.75498858,97.53],[4.80378819,50.75495992,97.4],[4.80304865,50.75422867,95.53],[4.80301366,50.75419934,95.53],[4.80104658,50.75285655,98.53],[4.80100859,50.75282956,98.6],[4.80096827,50.75270491,98.86],[4.80099693,50.75267592,98.93],[4.80281707,50.75205611,102.26],[4.80287273,50.75204545,102.26],[4.80407227,50.75202843,105],[4.80411526,50.75202377,105],[4.80557043,50.75167693,107.26],[4.80562143,50.75166727,107.4],[4.80782117,50.75137554,111],[4.80785383,50.75136054,111.06],[4.80855168,50.75070901,115.46],[4.80857468,50.75069402,115.53],[4.80973815,50.75020223,118.6],[4.80975915,50.75018723,118.66],[4.81133633,50.74882502,123.93],[4.81134699,50.74881636,124.06],[4.81305732,50.74795773,131.33],[4.81309032,50.74793573,131],[4.81345428,50.74764843,128.2],[4.81349628,50.7475961,127.93],[4.8137789,50.74701115,125.53],[4.81385056,50.74697115,125.33],[4.81672806,50.74590699,118.46],[4.81680506,50.74587466,118.13],[4.81770798,50.7453424,115.86],[4.81777497,50.74531741,115.86],[4.82042543,50.74459562,108.46],[4.82051309,50.74456796,107.93],[4.82558273,50.74276869,108.4],[4.82561572,50.74275136,108.6],[4.82741174,50.741523,105.93],[4.82744707,50.74149,105.8],[4.82853849,50.7399939,106.66],[4.82854849,50.7399779,106.66],[4.82861512,50.73976397,105.13],[4.82861079,50.73973731,104.73],[4.82835984,50.73909637,97.93],[4.8283665,50.73902771,97.46],[4.82896731,50.73728551,101.2],[4.82896631,50.73727151,101.6],[4.828107,50.73319034,115.06],[4.82810501,50.73317768,115.13],[4.82786087,50.73250155,118.66],[4.82785554,50.73247922,118.73],[4.82760753,50.72964731,114.53],[4.82761019,50.72960598,114.53],[4.8280774,50.72876272,118.06],[4.82811073,50.72872606,118.6],[4.82982859,50.72743586,104.26],[4.82989158,50.72736986,103.53],[4.83018187,50.72659224,102.33],[4.83017087,50.72652658,102.46],[4.83001488,50.72639692,102.8],[4.82993855,50.72637793,102.8],[4.8277914,50.72613911,103.73],[4.82773007,50.72612411,103.6],[4.82537069,50.72530536,103.4],[4.82533636,50.72529136,103.46],[4.8244405,50.72460686,104.86],[4.82441217,50.72457953,104.86],[4.82399758,50.72393795,107.2],[4.82397592,50.72390996,107.4],[4.82342569,50.72336941,108.73],[4.82341603,50.72335108,108.86],[4.82342969,50.72326743,109.93],[4.82344902,50.72325677,110.2],[4.82424588,50.72293693,114.93],[4.82426421,50.72292293,114.86],[4.82493467,50.72203414,113.13],[4.82495433,50.72201214,113.13],[4.82657198,50.72038149,120.33],[4.82659131,50.7203595,120.4],[4.82703208,50.71958603,123.06],[4.82704274,50.7195587,123.2],[4.8270531,50.71903714,126.06],[4.82705144,50.71902814,126.2],[4.82704911,50.71902248,126.33],[4.82669811,50.71783415,126.46],[4.82611591,50.71687465,127.13],[4.82609791,50.71684266,127.13],[4.82581132,50.71598875,126.13],[4.82578966,50.71593509,126.06],[4.82532204,50.71514015,120.33],[4.82529304,50.71507749,119.86],[4.82505545,50.71421488,116.53],[4.82502312,50.71414955,116.26],[4.82456518,50.7133476,112.2],[4.82451285,50.71327727,111.86],[4.82362327,50.71235567,107.2],[4.82359561,50.71229601,107.53],[4.82358361,50.71217535,108.2],[4.82360194,50.71211602,108.53],[4.82389825,50.71175773,111.8],[4.82394325,50.71170873,112.13],[4.82397425,50.71151509,113.33],[4.82395425,50.71147243,113.46],[4.82330377,50.71043327,115.73],[4.82329144,50.71041661,115.66],[4.82227769,50.70939321,116.13],[4.8222597,50.70936988,116.26],[4.82181718,50.70871135,119],[4.82180519,50.70868969,119],[4.82148766,50.70797286,121.26],[4.82147067,50.7079462,121.4],[4.82011263,50.70635757,125.46],[4.82009364,50.70633424,125.53],[4.81983939,50.70589431,123.6],[4.81982373,50.70585598,123.6],[4.81955779,50.70506841,122.86],[4.81954613,50.70502442,123],[4.81953781,50.70424019,121.8],[4.81953881,50.70420553,121.73],[4.8196151,50.70388357,121.26],[4.81963209,50.70385091,121.13],[4.81999966,50.70345067,120],[4.81999867,50.70342734,119.93],[4.81972205,50.70311372,118.2],[4.81969539,50.70307373,117.8],[4.81962674,50.70273243,115.13],[4.81963674,50.70267744,114.73],[4.82104093,50.70081158,103.53],[4.82109792,50.70072992,103.26],[4.82143586,50.7000253,101.46],[4.82142987,50.69994731,101.73],[4.82128622,50.69967167,103.2],[4.82122523,50.69961534,103.26],[4.81981771,50.69856447,108.93],[4.81978805,50.69853548,108.8],[4.81807799,50.69645545,107.26],[4.818047,50.69641045,106.4],[4.81792201,50.69614548,102.6],[4.81791202,50.69608782,102.13],[4.81792436,50.69543824,102.33],[4.81792103,50.69540391,102.26],[4.8177511,50.694964,102.13],[4.81774511,50.69493867,102.26],[4.8176945,50.69428848,105]]}}]}