{
  "type": "FeatureCollection",
  "features": [
    {
      "type": "Feature",
      "properties": {
        "creator": "BRouter-1.7.9",
        "name": "TrainToHellerup",
        "track-length": "32222",
        "filtered ascend": "31",
        "plain-ascend": "-7",
        "total-time": "2578",
        "total-energy": "1409983",
        "cost": "32222",
        "messages": [
          [
            "Longitude",
            "Latitude",
            "Elevation",
            "Distance",
            "CostPerKm",
            "ElevCost",
            "TurnCost",
            "NodeCost",
            "InitialCost",
            "WayTags",
            "NodeTags",
            "Time",
            "Energy"
          ],
          [
            "12533034",
            "55963755",
            "15",
            "3706",
            "1000",
            "0",
            "0",
            "0",
            "0",
            "reversedirection=yes railway=rail",
            "railway=halt",
            "296",
            "161386"
          ],
          [
            "12512300",
            "55940162",
            "12",
            "2928",
            "1000",
            "0",
            "0",
            "0",
            "0",
            "reversedirection=yes railway=rail",
            "railway=switch",
            "530",
            "289918"
          ],
          [
            "12506417",
            "55933389",
            "8",
            "839",
            "1000",
            "0",
            "0",
            "0",
            "0",
            "reversedirection=yes railway=rail",
            "railway=halt",
            "597",
            "320808"
          ],
          [
            "12505252",
            "55932129",
            "8",
            "158",
            "1000",
            "0",
            "0",
            "0",
            "0",
            "reversedirection=yes railway=rail",
            "railway=switch",
            "610",
            "327541"
          ],
          [
            "12502454",
            "55903262",
            "12",
            "3278",
            "1000",
            "0",
            "0",
            "0",
            "0",
            "reversedirection=yes railway=rail",
            "railway=halt",
            "872",
            "474979"
          ],
          [
            "12528641",
            "55884400",
            "17",
            "2688",
            "1000",
            "0",
            "0",
            "0",
            "0",
            "reversedirection=yes railway=rail",
            "railway=switch",
            "1087",
            "598508"
          ],
          [
            "12529971",
            "55883539",
            "16",
            "127",
            "1000",
            "0",
            "0",
            "0",
            "0",
            "reversedirection=yes railway=rail",
            "railway=switch",
            "1097",
            "603981"
          ],
          [
            "12531454",
            "55882426",
            "16",
            "155",
            "1000",
            "0",
            "0",
            "0",
            "0",
            "reversedirection=yes railway=rail",
            "railway=halt",
            "1110",
            "609719"
          ],
          [
            "12534335",
            "55879335",
            "15",
            "390",
            "1000",
            "0",
            "0",
            "0",
            "0",
            "reversedirection=yes railway=rail",
            "railway=switch",
            "1141",
            "626242"
          ],
          [
            "12535032",
            "55878438",
            "15",
            "109",
            "1000",
            "0",
            "0",
            "0",
            "0",
            "reversedirection=yes railway=rail",
            "railway=switch",
            "1150",
            "631075"
          ],
          [
            "12562482",
            "55852728",
            "7",
            "3431",
            "1000",
            "0",
            "0",
            "0",
            "0",
            "reversedirection=yes railway=rail",
            "railway=halt",
            "1424",
            "774354"
          ],
          [
            "12571531",
            "55825453",
            "15",
            "3122",
            "1000",
            "0",
            "0",
            "0",
            "0",
            "reversedirection=yes railway=rail",
            "railway=switch",
            "1674",
            "919399"
          ],
          [
            "12571513",
            "55824847",
            "15",
            "67",
            "1000",
            "0",
            "0",
            "0",
            "0",
            "reversedirection=yes railway=rail",
            "railway=switch",
            "1679",
            "922313"
          ],
          [
            "12571634",
            "55823489",
            "15",
            "151",
            "1000",
            "0",
            "0",
            "0",
            "0",
            "railway=rail",
            "railway=halt",
            "1691",
            "928755"
          ],
          [
            "12572702",
            "55818545",
            "12",
            "555",
            "1000",
            "0",
            "0",
            "0",
            "0",
            "railway=rail",
            "railway=switch",
            "1736",
            "950593"
          ],
          [
            "12572984",
            "55817886",
            "11",
            "75",
            "1000",
            "0",
            "0",
            "0",
            "0",
            "railway=rail",
            "railway=switch",
            "1742",
            "953357"
          ],
          [
            "12587431",
            "55779045",
            "7",
            "4580",
            "1000",
            "0",
            "0",
            "0",
            "0",
            "reversedirection=yes railway=rail",
            "railway=switch",
            "2108",
            "1150822"
          ],
          [
            "12587721",
            "55778442",
            "7",
            "70",
            "1000",
            "0",
            "0",
            "0",
            "0",
            "reversedirection=yes railway=rail",
            "railway=switch",
            "2114",
            "1153862"
          ],
          [
            "12587926",
            "55778097",
            "7",
            "41",
            "1000",
            "0",
            "0",
            "0",
            "0",
            "reversedirection=yes railway=rail",
            "railway=switch",
            "2117",
            "1155597"
          ],
          [
            "12589712",
            "55774461",
            "5",
            "421",
            "1000",
            "0",
            "0",
            "0",
            "0",
            "reversedirection=yes railway=rail",
            "railway=switch",
            "2151",
            "1172708"
          ],
          [
            "12565741",
            "55737021",
            "8",
            "4568",
            "1000",
            "0",
            "0",
            "0",
            "0",
            "reversedirection=yes railway=rail",
            "railway=switch",
            "2516",
            "1375587"
          ],
          [
            "12565765",
            "55736721",
            "8",
            "33",
            "1000",
            "0",
            "0",
            "0",
            "0",
            "reversedirection=yes railway=rail",
            "railway=switch",
            "2519",
            "1377033"
          ],
          [
            "12565857",
            "55736415",
            "8",
            "35",
            "1000",
            "0",
            "0",
            "0",
            "0",
            "railway=rail",
            "railway=switch",
            "2522",
            "1378567"
          ],
          [
            "12565939",
            "55736147",
            "8",
            "30",
            "1000",
            "0",
            "0",
            "0",
            "0",
            "railway=rail",
            "railway=switch",
            "2524",
            "1379884"
          ],
          [
            "12566097",
            "55735844",
            "8",
            "35",
            "1000",
            "0",
            "0",
            "0",
            "0",
            "railway=rail",
            "railway=switch",
            "2527",
            "1381421"
          ],
          [
            "12567276",
            "55731267",
            "9",
            "516",
            "1000",
            "0",
            "0",
            "0",
            "0",
            "reversedirection=yes railway=rail",
            "",
            "2568",
            "1404685"
          ],
          [
            "12567465",
            "55730642",
            "9",
            "71",
            "1000",
            "0",
            "0",
            "0",
            "0",
            "railway=rail",
            "railway=halt",
            "2574",
            "1408077"
          ],
          [
            "12567580",
            "55730257",
            "9",
            "43",
            "1000",
            "0",
            "0",
            "0",
            "0",
            "railway=rail",
            "",
            "2577",
            "1409983"
          ]
        ],
        "times": [
          0,
          5.44,
          9.12,
          93.68,
          97.6,
          172.48,
          182.4,
          192.72,
          199.84,
          210.16,
          269.76,
          296.48,
          306.64,
          309.6,
          428.08,
          463.76,
          503.76,
          523.84,
          525.2,
          530.72,
          536,
          548.4,
          577.36,
          581.28,
          597.84,
          601.04,
          610.48,
          615.6,
          621.2,
          627.04,
          636.88,
          642.88,
          645.28,
          650.32,
          657.68,
          660.96,
          662.64,
          667.68,
          675.2,
          678.64,
          683.84,
          689.84,
          695.92,
          700.4,
          705.2,
          713.2,
          761.28,
          762.8,
          815.52,
          816.8,
          834.08,
          848.32,
          854.56,
          859.36,
          862.16,
          865.76,
          868.8,
          872.72,
          874.72,
          878.96,
          883.92,
          887.36,
          891.92,
          896.4,
          902,
          906.48,
          911.44,
          917.6,
          925.28,
          969.92,
          1015.12,
          1087.76,
          1093.04,
          1097.92,
          1101.84,
          1107.44,
          1110.32,
          1113.12,
          1119.92,
          1124.8,
          1128.72,
          1133.12,
          1141.52,
          1150.24,
          1157.2,
          1217.2,
          1246.4,
          1247.92,
          1262.8,
          1269.52,
          1274.8,
          1279.6,
          1283.52,
          1290.32,
          1298.64,
          1302.72,
          1320,
          1335.2,
          1340.72,
          1346.96,
          1350.96,
          1355.68,
          1360.32,
          1364.72,
          1369.44,
          1374.8,
          1379.36,
          1385.76,
          1389.92,
          1394.96,
          1399.28,
          1402.72,
          1408.64,
          1416.96,
          1419.92,
          1424.72,
          1430.56,
          1438.72,
          1443.92,
          1447.12,
          1494.72,
          1508.24,
          1512.4,
          1514.56,
          1518.16,
          1519.84,
          1522.88,
          1527.12,
          1533.2,
          1552.88,
          1594.96,
          1641.52,
          1647.52,
          1651.36,
          1655.04,
          1658.96,
          1662.8,
          1666.16,
          1674.48,
          1679.84,
          1691.92,
          1699.28,
          1704.4,
          1709.36,
          1715.44,
          1718.16,
          1722.72,
          1736.32,
          1742.32,
          1767.44,
          1775.12,
          1783.76,
          1791.28,
          1798.48,
          1812.72,
          1816.24,
          1841.44,
          1846.08,
          1853.44,
          1856.96,
          1860.56,
          1864.16,
          1870.16,
          1877.2,
          1884.08,
          1888,
          1891.76,
          1896.32,
          1900.96,
          1905.68,
          1927.76,
          1995.04,
          1997.36,
          2000,
          2002.16,
          2006.96,
          2011.92,
          2015.92,
          2019.2,
          2024,
          2028.24,
          2033.36,
          2037.68,
          2042.96,
          2050.24,
          2068.64,
          2075.2,
          2079.52,
          2083.2,
          2086.8,
          2091.44,
          2095.84,
          2100.8,
          2103.2,
          2105.68,
          2108.72,
          2111.52,
          2114.32,
          2117.6,
          2139.84,
          2141.36,
          2144.32,
          2146.4,
          2151.28,
          2155.84,
          2157.92,
          2160.24,
          2162.48,
          2164.96,
          2167.92,
          2170,
          2172.72,
          2175.44,
          2178.16,
          2181.52,
          2188.72,
          2190.56,
          2192.72,
          2197.04,
          2199.2,
          2203.52,
          2208.56,
          2210.88,
          2216,
          2220.16,
          2222.32,
          2228.24,
          2246.56,
          2251.04,
          2253.92,
          2258.32,
          2262.64,
          2266.88,
          2271.12,
          2274.4,
          2277.36,
          2294.72,
          2297.92,
          2301.44,
          2345.36,
          2376.96,
          2381.92,
          2385.92,
          2400.24,
          2412.08,
          2417.92,
          2421.68,
          2424.96,
          2427.92,
          2434.64,
          2436.8,
          2439.76,
          2442.8,
          2447.84,
          2452.16,
          2456.48,
          2460.72,
          2465.041,
          2469.361,
          2473.601,
          2477.441,
          2480.641,
          2484.641,
          2488.161,
          2492.401,
          2502.321,
          2505.76,
          2509.44,
          2516.72,
          2519.36,
          2522.16,
          2524.56,
          2527.36,
          2531.04,
          2537.6,
          2546.72,
          2550.48,
          2556.561,
          2558.081,
          2568.641,
          2574.321,
          2577.76
        ]
      },
      "geometry": {
        "type": "LineString",
        "coordinates": [
          [
            12.54957,
            55.995419,
            17.25
          ],
          [
            12.549296,
            55.994832,
            17.25
          ],
          [
            12.549132,
            55.994432,
            17
          ],
          [
            12.546125,
            55.985089,
            9.75
          ],
          [
            12.54599,
            55.984658,
            8
          ],
          [
            12.543334,
            55.976386,
            10
          ],
          [
            12.542827,
            55.975312,
            11
          ],
          [
            12.54216,
            55.974219,
            11.25
          ],
          [
            12.541623,
            55.973478,
            11
          ],
          [
            12.540723,
            55.972434,
            13
          ],
          [
            12.535404,
            55.966446,
            16
          ],
          [
            12.533034,
            55.963755,
            15.5
          ],
          [
            12.532129,
            55.962732,
            15.75
          ],
          [
            12.531865,
            55.962431,
            15.25
          ],
          [
            12.521393,
            55.9505,
            20.5
          ],
          [
            12.518215,
            55.946909,
            17.75
          ],
          [
            12.514672,
            55.942879,
            13.25
          ],
          [
            12.512882,
            55.940857,
            12.25
          ],
          [
            12.512764,
            55.940721,
            11.75
          ],
          [
            12.5123,
            55.940162,
            12
          ],
          [
            12.51186,
            55.939623,
            11.75
          ],
          [
            12.510787,
            55.938366,
            10.5
          ],
          [
            12.508222,
            55.93545,
            7.5
          ],
          [
            12.507873,
            55.935055,
            7.25
          ],
          [
            12.506417,
            55.933389,
            8
          ],
          [
            12.50613,
            55.933067,
            8
          ],
          [
            12.505252,
            55.932129,
            8
          ],
          [
            12.504781,
            55.931616,
            7.5
          ],
          [
            12.504244,
            55.931061,
            6.5
          ],
          [
            12.503721,
            55.930475,
            5
          ],
          [
            12.50288,
            55.929478,
            5.5
          ],
          [
            12.502421,
            55.928852,
            3.5
          ],
          [
            12.502233,
            55.928607,
            4.75
          ],
          [
            12.501882,
            55.92808,
            4
          ],
          [
            12.501433,
            55.927293,
            5.5
          ],
          [
            12.501249,
            55.926937,
            5
          ],
          [
            12.501168,
            55.926757,
            5.5
          ],
          [
            12.500918,
            55.926205,
            5.5
          ],
          [
            12.50063,
            55.925374,
            6.5
          ],
          [
            12.500527,
            55.924989,
            7
          ],
          [
            12.500379,
            55.924412,
            8.75
          ],
          [
            12.500279,
            55.923744,
            8
          ],
          [
            12.500217,
            55.923061,
            8.75
          ],
          [
            12.500204,
            55.922561,
            6.75
          ],
          [
            12.500216,
            55.922022,
            6.25
          ],
          [
            12.500294,
            55.921122,
            8.75
          ],
          [
            12.500813,
            55.915731,
            8.25
          ],
          [
            12.50083,
            55.91556,
            8.75
          ],
          [
            12.501416,
            55.909649,
            7.5
          ],
          [
            12.501427,
            55.909501,
            7.5
          ],
          [
            12.5016,
            55.907567,
            7.75
          ],
          [
            12.501764,
            55.90597,
            9.25
          ],
          [
            12.501857,
            55.905268,
            10.25
          ],
          [
            12.501958,
            55.904731,
            10.75
          ],
          [
            12.502039,
            55.90442,
            12
          ],
          [
            12.502162,
            55.904023,
            12
          ],
          [
            12.502279,
            55.903687,
            12
          ],
          [
            12.502454,
            55.903262,
            12.25
          ],
          [
            12.502556,
            55.903042,
            12.75
          ],
          [
            12.50279,
            55.902583,
            12.75
          ],
          [
            12.503098,
            55.902056,
            12.25
          ],
          [
            12.503332,
            55.901693,
            13.75
          ],
          [
            12.503669,
            55.901222,
            12.5
          ],
          [
            12.504036,
            55.900765,
            12
          ],
          [
            12.504535,
            55.900202,
            12.25
          ],
          [
            12.504982,
            55.899764,
            12.5
          ],
          [
            12.505492,
            55.89929,
            12.5
          ],
          [
            12.506193,
            55.898726,
            13.25
          ],
          [
            12.507134,
            55.898051,
            13.75
          ],
          [
            12.513043,
            55.894301,
            17.5
          ],
          [
            12.519043,
            55.890513,
            21.75
          ],
          [
            12.528641,
            55.8844,
            17.75
          ],
          [
            12.529337,
            55.883957,
            19
          ],
          [
            12.529971,
            55.883539,
            16.75
          ],
          [
            12.530462,
            55.883196,
            15.75
          ],
          [
            12.531128,
            55.882693,
            16.25
          ],
          [
            12.531454,
            55.882426,
            16
          ],
          [
            12.531766,
            55.882164,
            16
          ],
          [
            12.532469,
            55.881515,
            16
          ],
          [
            12.532938,
            55.881034,
            16
          ],
          [
            12.533296,
            55.880644,
            16
          ],
          [
            12.533665,
            55.880197,
            16
          ],
          [
            12.534335,
            55.879335,
            15.5
          ],
          [
            12.535032,
            55.878438,
            15.75
          ],
          [
            12.535586,
            55.877719,
            14.75
          ],
          [
            12.54041,
            55.871555,
            12.5
          ],
          [
            12.542746,
            55.868555,
            12.25
          ],
          [
            12.542871,
            55.868398,
            13
          ],
          [
            12.544065,
            55.866867,
            13.75
          ],
          [
            12.544626,
            55.866186,
            13.25
          ],
          [
            12.545121,
            55.865662,
            12.75
          ],
          [
            12.54562,
            55.8652,
            13
          ],
          [
            12.546081,
            55.864839,
            14.5
          ],
          [
            12.546922,
            55.864245,
            13.25
          ],
          [
            12.548107,
            55.863596,
            14.75
          ],
          [
            12.548721,
            55.863302,
            14.25
          ],
          [
            12.551536,
            55.862184,
            12.25
          ],
          [
            12.55404,
            55.861218,
            15.25
          ],
          [
            12.554924,
            55.860842,
            12
          ],
          [
            12.555893,
            55.860399,
            12.5
          ],
          [
            12.556484,
            55.860099,
            11.25
          ],
          [
            12.557141,
            55.859714,
            10.25
          ],
          [
            12.557775,
            55.859329,
            10.75
          ],
          [
            12.558322,
            55.858944,
            10.25
          ],
          [
            12.55889,
            55.858523,
            10.25
          ],
          [
            12.559477,
            55.858017,
            9
          ],
          [
            12.559938,
            55.857578,
            9
          ],
          [
            12.560539,
            55.856942,
            9
          ],
          [
            12.560878,
            55.856512,
            8.5
          ],
          [
            12.56127,
            55.85599,
            7.75
          ],
          [
            12.56155,
            55.855536,
            7
          ],
          [
            12.561742,
            55.855166,
            7
          ],
          [
            12.562029,
            55.854525,
            7
          ],
          [
            12.562306,
            55.853602,
            6.5
          ],
          [
            12.562381,
            55.853268,
            8
          ],
          [
            12.562482,
            55.852728,
            7
          ],
          [
            12.562547,
            55.85207,
            7.5
          ],
          [
            12.562608,
            55.851154,
            6.75
          ],
          [
            12.562594,
            55.850573,
            6
          ],
          [
            12.562597,
            55.850215,
            5.75
          ],
          [
            12.562618,
            55.844875,
            10.25
          ],
          [
            12.562641,
            55.843356,
            9.75
          ],
          [
            12.562677,
            55.842889,
            10.25
          ],
          [
            12.56271,
            55.842644,
            10.5
          ],
          [
            12.562796,
            55.842246,
            12.5
          ],
          [
            12.56285,
            55.842058,
            12.25
          ],
          [
            12.562963,
            55.841725,
            14
          ],
          [
            12.56316,
            55.841261,
            15.25
          ],
          [
            12.563518,
            55.840611,
            15.75
          ],
          [
            12.564757,
            55.838517,
            15.5
          ],
          [
            12.567457,
            55.834042,
            20.25
          ],
          [
            12.570414,
            55.829083,
            18
          ],
          [
            12.570763,
            55.82844,
            18.75
          ],
          [
            12.570955,
            55.828025,
            18.75
          ],
          [
            12.571114,
            55.827621,
            16.75
          ],
          [
            12.571248,
            55.827187,
            17.25
          ],
          [
            12.571359,
            55.826759,
            18.25
          ],
          [
            12.571425,
            55.826388,
            15
          ],
          [
            12.571531,
            55.825453,
            15.25
          ],
          [
            12.571513,
            55.824847,
            15.75
          ],
          [
            12.571634,
            55.823489,
            15.5
          ],
          [
            12.571715,
            55.82266,
            16
          ],
          [
            12.571784,
            55.822091,
            15.25
          ],
          [
            12.571886,
            55.821535,
            14.25
          ],
          [
            12.572032,
            55.820857,
            12
          ],
          [
            12.572105,
            55.820553,
            12
          ],
          [
            12.572225,
            55.82005,
            13.75
          ],
          [
            12.572702,
            55.818545,
            12.5
          ],
          [
            12.572984,
            55.817886,
            11.5
          ],
          [
            12.573946,
            55.815114,
            12.5
          ],
          [
            12.574281,
            55.814273,
            12
          ],
          [
            12.574707,
            55.813337,
            10.75
          ],
          [
            12.575119,
            55.812521,
            9.25
          ],
          [
            12.575542,
            55.811749,
            10.75
          ],
          [
            12.576454,
            55.810237,
            10.25
          ],
          [
            12.576689,
            55.809867,
            9.25
          ],
          [
            12.57842,
            55.807214,
            10
          ],
          [
            12.578723,
            55.806721,
            10.25
          ],
          [
            12.579267,
            55.805955,
            10
          ],
          [
            12.579569,
            55.805597,
            11
          ],
          [
            12.5799,
            55.80524,
            11
          ],
          [
            12.580268,
            55.80489,
            12
          ],
          [
            12.580934,
            55.804325,
            12.5
          ],
          [
            12.581756,
            55.803681,
            13.25
          ],
          [
            12.582536,
            55.803044,
            13
          ],
          [
            12.582962,
            55.802673,
            13.75
          ],
          [
            12.583343,
            55.80231,
            14
          ],
          [
            12.583751,
            55.801848,
            14
          ],
          [
            12.584118,
            55.801369,
            13.75
          ],
          [
            12.584451,
            55.800872,
            14
          ],
          [
            12.585898,
            55.798535,
            13.75
          ],
          [
            12.590253,
            55.791393,
            10.75
          ],
          [
            12.590389,
            55.791145,
            10.5
          ],
          [
            12.590526,
            55.790863,
            10.75
          ],
          [
            12.59062,
            55.790624,
            10
          ],
          [
            12.590797,
            55.790093,
            10.25
          ],
          [
            12.590915,
            55.789536,
            10.25
          ],
          [
            12.590965,
            55.789089,
            9
          ],
          [
            12.590981,
            55.788718,
            8
          ],
          [
            12.590951,
            55.788177,
            8.75
          ],
          [
            12.590862,
            55.787708,
            10
          ],
          [
            12.590687,
            55.78714,
            9.75
          ],
          [
            12.590495,
            55.786664,
            9.75
          ],
          [
            12.590187,
            55.786096,
            9.5
          ],
          [
            12.589672,
            55.785333,
            8
          ],
          [
            12.588147,
            55.783459,
            8.75
          ],
          [
            12.587696,
            55.782767,
            8.5
          ],
          [
            12.587459,
            55.7823,
            8
          ],
          [
            12.587299,
            55.781895,
            8.25
          ],
          [
            12.587191,
            55.781491,
            7.5
          ],
          [
            12.587137,
            55.780967,
            7.75
          ],
          [
            12.587118,
            55.780472,
            8
          ],
          [
            12.587172,
            55.779913,
            9
          ],
          [
            12.587231,
            55.77965,
            6
          ],
          [
            12.587311,
            55.779379,
            7.25
          ],
          [
            12.587431,
            55.779045,
            7.25
          ],
          [
            12.587572,
            55.778741,
            7
          ],
          [
            12.587721,
            55.778442,
            7.75
          ],
          [
            12.587926,
            55.778097,
            7.25
          ],
          [
            12.589291,
            55.775719,
            6
          ],
          [
            12.589371,
            55.775556,
            6
          ],
          [
            12.589502,
            55.775233,
            5.75
          ],
          [
            12.589572,
            55.775007,
            5.5
          ],
          [
            12.589712,
            55.774461,
            5.75
          ],
          [
            12.58983,
            55.77395,
            5
          ],
          [
            12.589867,
            55.773719,
            5
          ],
          [
            12.589879,
            55.773461,
            5
          ],
          [
            12.589865,
            55.77321,
            5
          ],
          [
            12.589817,
            55.772934,
            5.25
          ],
          [
            12.589716,
            55.772605,
            5.75
          ],
          [
            12.589618,
            55.772379,
            4.75
          ],
          [
            12.589456,
            55.77209,
            5.25
          ],
          [
            12.589255,
            55.771809,
            5
          ],
          [
            12.589016,
            55.771534,
            5.5
          ],
          [
            12.588677,
            55.771206,
            6
          ],
          [
            12.587902,
            55.770522,
            7
          ],
          [
            12.587708,
            55.770342,
            7
          ],
          [
            12.58749,
            55.770135,
            7.25
          ],
          [
            12.587078,
            55.769709,
            7.5
          ],
          [
            12.586883,
            55.76949,
            7.75
          ],
          [
            12.586524,
            55.76905,
            8
          ],
          [
            12.586144,
            55.768524,
            7.25
          ],
          [
            12.585984,
            55.768279,
            6.75
          ],
          [
            12.585673,
            55.76773,
            8.5
          ],
          [
            12.585459,
            55.767281,
            9
          ],
          [
            12.585363,
            55.767049,
            9
          ],
          [
            12.585135,
            55.766398,
            8.75
          ],
          [
            12.584506,
            55.764368,
            8.75
          ],
          [
            12.584329,
            55.763875,
            9.25
          ],
          [
            12.584194,
            55.763558,
            9.5
          ],
          [
            12.583957,
            55.76308,
            9.75
          ],
          [
            12.583688,
            55.762624,
            10
          ],
          [
            12.58339,
            55.762181,
            10
          ],
          [
            12.583053,
            55.761744,
            10
          ],
          [
            12.582765,
            55.761412,
            10
          ],
          [
            12.582487,
            55.761116,
            10
          ],
          [
            12.580831,
            55.759401,
            10
          ],
          [
            12.580516,
            55.759086,
            10
          ],
          [
            12.580161,
            55.758747,
            10.25
          ],
          [
            12.575611,
            55.754532,
            9
          ],
          [
            12.572406,
            55.751475,
            8
          ],
          [
            12.571879,
            55.751002,
            8.25
          ],
          [
            12.571421,
            55.750634,
            8
          ],
          [
            12.569735,
            55.749338,
            7.75
          ],
          [
            12.568388,
            55.748244,
            8.25
          ],
          [
            12.567744,
            55.747693,
            8.25
          ],
          [
            12.567362,
            55.747332,
            8.5
          ],
          [
            12.567049,
            55.747009,
            8.25
          ],
          [
            12.56678,
            55.746712,
            8
          ],
          [
            12.566213,
            55.746029,
            7.25
          ],
          [
            12.566035,
            55.745806,
            7.5
          ],
          [
            12.565801,
            55.745501,
            7.5
          ],
          [
            12.565574,
            55.745186,
            6.75
          ],
          [
            12.565237,
            55.744651,
            6.75
          ],
          [
            12.564993,
            55.744182,
            7.75
          ],
          [
            12.564789,
            55.743708,
            7.25
          ],
          [
            12.564632,
            55.743236,
            6.5
          ],
          [
            12.564516,
            55.742757,
            7
          ],
          [
            12.564442,
            55.742274,
            7
          ],
          [
            12.564411,
            55.741802,
            7
          ],
          [
            12.564413,
            55.741375,
            8
          ],
          [
            12.56444,
            55.741015,
            8
          ],
          [
            12.564506,
            55.740563,
            10.5
          ],
          [
            12.564604,
            55.740168,
            9.25
          ],
          [
            12.564767,
            55.739697,
            8
          ],
          [
            12.565222,
            55.738614,
            8
          ],
          [
            12.565365,
            55.738236,
            8
          ],
          [
            12.5655,
            55.737828,
            8
          ],
          [
            12.565741,
            55.737021,
            8
          ],
          [
            12.565765,
            55.736721,
            8
          ],
          [
            12.565857,
            55.736415,
            8
          ],
          [
            12.565939,
            55.736147,
            8
          ],
          [
            12.566097,
            55.735844,
            8
          ],
          [
            12.56621,
            55.735439,
            8.5
          ],
          [
            12.566383,
            55.734709,
            9
          ],
          [
            12.566557,
            55.733687,
            9
          ],
          [
            12.566658,
            55.733273,
            8.75
          ],
          [
            12.566856,
            55.732604,
            7.25
          ],
          [
            12.56691,
            55.732433,
            6.25
          ],
          [
            12.567276,
            55.731267,
            9
          ],
          [
            12.567465,
            55.730642,
            9.25
          ],
          [
            12.56758,
            55.730257,
            9
          ]
        ]
      }
    }
  ]
}